{"type":"FeatureCollection","features":[{"type":"Feature","properties":{"nm":"函館市","b":[140.6925,41.7098,141.1875,42.0093],"c":[140.92571,41.83756]},"geometry":{"type":"MultiPolygon","coordinates":[[[[140.6929,41.76018],[140.69316,41.75763],[140.69249,41.75666],[140.69389,41.75543],[140.6934,41.75381],[140.69572,41.75272],[140.69724,41.75052],[140.69834,41.74771],[140.69917,41.74447],[140.69888,41.74341],[140.70013,41.74207],[140.70201,41.74058],[140.70401,41.73997],[140.70665,41.74065],[140.7099,41.74224],[140.71129,41.74346],[140.71321,41.74376],[140.71669,41.74525],[140.71833,41.74509],[140.71914,41.74447],[140.71951,41.74495],[140.7216,41.74452],[140.72218,41.74552],[140.72151,41.74629],[140.71983,41.74831],[140.71938,41.74951],[140.71811,41.7514],[140.71925,41.75375],[140.72121,41.75334],[140.72066,41.75392],[140.72147,41.75509],[140.7226,41.75484],[140.72241,41.75657],[140.72466,41.75935],[140.72773,41.76215],[140.72989,41.76384],[140.73201,41.76548],[140.73742,41.76824],[140.74048,41.76893],[140.74068,41.76926],[140.74086,41.76902],[140.74421,41.77024],[140.74929,41.77145],[140.75688,41.77289],[140.76137,41.77379],[140.76563,41.7741],[140.76795,41.77433],[140.7717,41.77445],[140.77462,41.77451],[140.77856,41.77422],[140.77876,41.77358],[140.78065,41.77411],[140.78309,41.77405],[140.78424,41.77375],[140.78758,41.77395],[140.7886,41.77518],[140.78696,41.77299],[140.78969,41.77315],[140.79078,41.77298],[140.7963,41.77191],[140.79985,41.77094],[140.80282,41.76831],[140.80351,41.76901],[140.80642,41.7675],[140.80861,41.76701],[140.80925,41.76765],[140.8114,41.76728],[140.81335,41.76613],[140.81534,41.76638],[140.81696,41.76617],[140.81787,41.76419],[140.81972,41.76502],[140.82053,41.76464],[140.82015,41.76387],[140.8218,41.76416],[140.82321,41.76375],[140.82322,41.76331],[140.82525,41.76205],[140.82711,41.76144],[140.82836,41.76141],[140.83184,41.76066],[140.83426,41.75958],[140.83509,41.75976],[140.83634,41.75904],[140.83749,41.75981],[140.8393,41.76066],[140.84138,41.76075],[140.84654,41.75978],[140.84658,41.75763],[140.84699,41.75872],[140.84937,41.7588],[140.84947,41.75953],[140.85082,41.75913],[140.85322,41.76009],[140.85506,41.7599],[140.8582,41.75954],[140.86171,41.75874],[140.86652,41.75699],[140.86882,41.75582],[140.8691,41.7552],[140.87141,41.75412],[140.87227,41.75333],[140.87479,41.75251],[140.87768,41.75224],[140.88107,41.75253],[140.8869,41.75158],[140.89018,41.75067],[140.89416,41.74917],[140.89763,41.74815],[140.89808,41.74737],[140.89994,41.74721],[140.90196,41.74619],[140.90267,41.74639],[140.90501,41.74591],[140.90866,41.74458],[140.90876,41.74428],[140.91464,41.74273],[140.9167,41.74184],[140.91856,41.74149],[140.9228,41.73984],[140.92738,41.73827],[140.92861,41.73767],[140.93188,41.73576],[140.93407,41.73492],[140.93459,41.73355],[140.93716,41.73267],[140.93806,41.73133],[140.93841,41.73137],[140.93996,41.73092],[140.93997,41.73046],[140.94066,41.73062],[140.94044,41.73007],[140.94248,41.72883],[140.94319,41.72894],[140.94491,41.72715],[140.94569,41.72573],[140.94688,41.72539],[140.94731,41.72398],[140.94812,41.72399],[140.94807,41.7229],[140.94879,41.72293],[140.949,41.72204],[140.94976,41.72194],[140.95009,41.7208],[140.94989,41.72061],[140.95066,41.71972],[140.95093,41.71776],[140.95039,41.71653],[140.95053,41.71484],[140.9513,41.71538],[140.95367,41.71459],[140.9543,41.71365],[140.95718,41.7122],[140.95677,41.71133],[140.95795,41.71224],[140.95972,41.71188],[140.96158,41.71079],[140.9657,41.71027],[140.96841,41.71016],[140.97041,41.71138],[140.97228,41.71158],[140.97535,41.71246],[140.97585,41.71312],[140.98077,41.71405],[140.9826,41.71392],[140.98373,41.71424],[140.98465,41.71539],[140.98699,41.71548],[140.98826,41.71522],[140.98893,41.71591],[140.99093,41.71666],[140.99152,41.71726],[140.99284,41.71756],[140.99559,41.71702],[140.99703,41.71472],[140.99904,41.71431],[141.00058,41.71478],[141.00516,41.71555],[141.00733,41.71533],[141.00701,41.71641],[141.00876,41.71695],[141.00879,41.71828],[141.00914,41.71893],[141.01081,41.72013],[141.01511,41.72212],[141.01731,41.72261],[141.02039,41.72236],[141.0218,41.72126],[141.02243,41.71911],[141.02415,41.71992],[141.02648,41.71947],[141.02762,41.71896],[141.02781,41.71803],[141.03036,41.71891],[141.02907,41.72087],[141.02941,41.72194],[141.02988,41.72254],[141.03066,41.72313],[141.03104,41.72404],[141.03355,41.72649],[141.03717,41.72784],[141.03804,41.72746],[141.03853,41.72741],[141.03938,41.72788],[141.04322,41.72751],[141.04444,41.7257],[141.0457,41.72585],[141.04707,41.72532],[141.04942,41.72612],[141.04988,41.72572],[141.05001,41.72596],[141.05017,41.726],[141.05027,41.7259],[141.05062,41.72616],[141.05171,41.72633],[141.05269,41.72594],[141.05331,41.7266],[141.05273,41.72785],[141.05215,41.72737],[141.05135,41.72793],[141.05106,41.73026],[141.05184,41.73036],[141.05073,41.73174],[141.05249,41.73457],[141.05349,41.73511],[141.05496,41.73489],[141.05541,41.73577],[141.0559,41.73486],[141.05942,41.73551],[141.06006,41.7374],[141.06135,41.73836],[141.06238,41.73845],[141.06327,41.73755],[141.06406,41.73792],[141.06563,41.73776],[141.06647,41.73828],[141.06842,41.73856],[141.06962,41.73953],[141.06923,41.74111],[141.07037,41.74143],[141.07226,41.74107],[141.07292,41.74146],[141.07456,41.74155],[141.0752,41.74205],[141.07651,41.74207],[141.07605,41.74295],[141.0749,41.74186],[141.0739,41.74217],[141.07556,41.74401],[141.07661,41.74569],[141.07612,41.74858],[141.07662,41.75039],[141.07865,41.75406],[141.07865,41.75477],[141.08027,41.75734],[141.08195,41.75902],[141.08413,41.76013],[141.08516,41.75927],[141.08828,41.76022],[141.08777,41.76151],[141.08851,41.76128],[141.08901,41.76211],[141.0912,41.76213],[141.09212,41.7629],[141.09331,41.76236],[141.09329,41.76361],[141.09262,41.76477],[141.09146,41.76514],[141.09203,41.76579],[141.0914,41.76717],[141.0932,41.76735],[141.09402,41.76786],[141.09465,41.76727],[141.09542,41.76761],[141.09584,41.76785],[141.09607,41.76946],[141.09554,41.77035],[141.09648,41.77029],[141.09558,41.77172],[141.0985,41.77532],[141.10294,41.77987],[141.10593,41.78256],[141.10899,41.7848],[141.11191,41.7861],[141.11297,41.7861],[141.11301,41.78672],[141.11429,41.78742],[141.11571,41.78743],[141.11873,41.78842],[141.11984,41.78826],[141.12363,41.78851],[141.12657,41.78901],[141.1298,41.78911],[141.13069,41.78809],[141.13249,41.78825],[141.13327,41.7879],[141.13354,41.78636],[141.13205,41.78595],[141.13425,41.78587],[141.13477,41.7844],[141.13582,41.78375],[141.13897,41.78359],[141.14104,41.7847],[141.14236,41.78508],[141.14556,41.78486],[141.14675,41.78438],[141.1472,41.78477],[141.15052,41.78497],[141.15457,41.78451],[141.15773,41.78539],[141.15962,41.7871],[141.16265,41.78943],[141.16291,41.79032],[141.16402,41.7917],[141.16452,41.79324],[141.16779,41.79465],[141.1711,41.79566],[141.17119,41.79538],[141.17431,41.79585],[141.17542,41.79721],[141.17761,41.79893],[141.17898,41.79854],[141.18088,41.79908],[141.18189,41.79997],[141.18596,41.80183],[141.1866,41.80212],[141.18542,41.80304],[141.18499,41.80403],[141.18614,41.80537],[141.18539,41.80544],[141.18546,41.8063],[141.18628,41.80676],[141.18746,41.80887],[141.18608,41.81061],[141.18425,41.81128],[141.18334,41.81226],[141.18394,41.81483],[141.18497,41.81495],[141.18446,41.81556],[141.18335,41.81571],[141.18232,41.81704],[141.18308,41.81759],[141.18071,41.81771],[141.17916,41.81845],[141.179,41.81953],[141.17823,41.82067],[141.17733,41.82112],[141.17632,41.82094],[141.17454,41.82035],[141.17323,41.82044],[141.17192,41.81956],[141.17096,41.81974],[141.16711,41.82176],[141.16665,41.82136],[141.16362,41.82203],[141.15942,41.82581],[141.1581,41.82675],[141.15609,41.82747],[141.15242,41.82782],[141.14861,41.82945],[141.14706,41.83045],[141.14674,41.83024],[141.14704,41.8305],[141.14617,41.83185],[141.14511,41.83404],[141.14369,41.83784],[141.14221,41.83773],[141.14342,41.83801],[141.14421,41.83766],[141.14343,41.84349],[141.14337,41.84757],[141.14562,41.84867],[141.14689,41.84882],[141.14812,41.84981],[141.14932,41.84996],[141.14981,41.85078],[141.15008,41.85278],[141.14898,41.85395],[141.14762,41.8547],[141.14577,41.85506],[141.14692,41.85556],[141.14516,41.85613],[141.14499,41.85658],[141.14245,41.85734],[141.14074,41.85738],[141.13676,41.85794],[141.13732,41.85857],[141.13537,41.85818],[141.13359,41.85826],[141.13012,41.85933],[141.12817,41.86029],[141.12609,41.86222],[141.12634,41.86302],[141.12499,41.86324],[141.12462,41.86408],[141.12285,41.86458],[141.1229,41.8654],[141.12195,41.8653],[141.12275,41.86436],[141.12072,41.86415],[141.11782,41.86522],[141.11837,41.86648],[141.11683,41.86636],[141.11677,41.86723],[141.11757,41.86783],[141.11609,41.8694],[141.11394,41.87078],[141.11339,41.87163],[141.11037,41.87321],[141.11106,41.87376],[141.10914,41.87376],[141.10951,41.87426],[141.10789,41.87446],[141.10644,41.87514],[141.10391,41.87485],[141.10288,41.87503],[141.09734,41.87717],[141.09656,41.87821],[141.09729,41.87906],[141.09649,41.87962],[141.09543,41.87885],[141.0914,41.87905],[141.09005,41.88005],[141.08634,41.88053],[141.08472,41.88166],[141.08282,41.88198],[141.08194,41.88275],[141.08244,41.88327],[141.07898,41.88462],[141.07812,41.88591],[141.07498,41.88735],[141.07166,41.88755],[141.07116,41.88818],[141.06848,41.88926],[141.0702,41.88832],[141.06872,41.88734],[141.06573,41.88792],[141.0659,41.88848],[141.06864,41.88834],[141.0653,41.8888],[141.06383,41.88848],[141.06225,41.88882],[141.06128,41.88996],[141.05587,41.89],[141.05523,41.89134],[141.05433,41.89117],[141.05393,41.89206],[141.0529,41.8914],[141.05193,41.89141],[141.05063,41.89222],[141.04951,41.892],[141.04793,41.89292],[141.04634,41.89337],[141.04309,41.89348],[141.0424,41.89309],[141.04039,41.89397],[141.03551,41.89443],[141.03366,41.895],[141.03165,41.89509],[141.02943,41.89287],[141.02528,41.89285],[141.0239,41.89347],[141.02407,41.89245],[141.02308,41.89268],[141.02265,41.89185],[141.02165,41.89193],[141.02113,41.89271],[141.02007,41.89137],[141.01696,41.89268],[141.0171,41.89402],[141.01637,41.89326],[141.01339,41.89318],[141.01089,41.8936],[141.01,41.89428],[141.00956,41.89612],[141.00872,41.89696],[141.00861,41.89579],[141.00627,41.89681],[141.00318,41.89764],[141.00261,41.89809],[140.9992,41.89868],[140.99806,41.89928],[140.99569,41.89972],[140.99515,41.90027],[140.99469,41.9013],[140.99277,41.90242],[140.99069,41.90321],[140.98534,41.904],[140.98363,41.90453],[140.98436,41.90561],[140.98353,41.90584],[140.98307,41.90508],[140.98064,41.90629],[140.98018,41.90585],[140.97912,41.90622],[140.97593,41.90819],[140.97369,41.90895],[140.96842,41.91228],[140.96675,41.91296],[140.96451,41.91456],[140.96058,41.91566],[140.96125,41.91623],[140.95929,41.91741],[140.9589,41.91715],[140.95635,41.91952],[140.95407,41.92208],[140.95378,41.92285],[140.9524,41.92529],[140.95197,41.92708],[140.94998,41.93163],[140.94942,41.93408],[140.9505,41.9352],[140.95044,41.93674],[140.94905,41.93666],[140.94845,41.93512],[140.94723,41.93415],[140.94608,41.9343],[140.94627,41.93518],[140.94556,41.93529],[140.94532,41.93443],[140.94329,41.93448],[140.94288,41.93394],[140.94102,41.93443],[140.93923,41.9355],[140.93805,41.93716],[140.93696,41.93759],[140.93596,41.93995],[140.93526,41.94015],[140.93497,41.94126],[140.93332,41.94334],[140.93287,41.94591],[140.93379,41.94641],[140.9327,41.94827],[140.93111,41.94948],[140.93201,41.95068],[140.93159,41.95203],[140.93305,41.952],[140.93239,41.95251],[140.93219,41.95361],[140.93273,41.95411],[140.93083,41.95437],[140.9296,41.95677],[140.92802,41.95916],[140.92674,41.96027],[140.92372,41.96133],[140.92229,41.96209],[140.91833,41.96686],[140.91861,41.96749],[140.91725,41.9676],[140.91562,41.96841],[140.91525,41.96923],[140.91425,41.9691],[140.91347,41.97113],[140.91263,41.97251],[140.90962,41.97517],[140.90898,41.97658],[140.90867,41.97919],[140.90879,41.98259],[140.90819,41.98361],[140.90593,41.98636],[140.90526,41.98608],[140.90422,41.98715],[140.90205,41.98824],[140.90072,41.98981],[140.89952,41.9907],[140.89773,41.99137],[140.89671,41.99233],[140.89619,41.99202],[140.89498,41.99366],[140.89358,41.99468],[140.89316,41.99569],[140.89142,41.99693],[140.89174,41.99793],[140.89059,41.99763],[140.88849,41.99917],[140.88605,42.00014],[140.88284,42.00005],[140.88048,42.00125],[140.87913,42.00316],[140.87879,42.00508],[140.87562,42.00681],[140.87313,42.00692],[140.87309,42.00733],[140.87158,42.00707],[140.87,42.00755],[140.86913,42.00665],[140.86587,42.00833],[140.86464,42.00931],[140.86361,42.00803],[140.86309,42.00792],[140.86134,42.00692],[140.85868,42.00583],[140.85683,42.00401],[140.85627,42.00312],[140.85565,42.00267],[140.8551,42.00193],[140.85367,42.00142],[140.85184,42.00065],[140.84933,41.99933],[140.84861,41.99864],[140.84702,41.99709],[140.84424,41.99529],[140.84255,41.99401],[140.84217,41.99277],[140.84192,41.9907],[140.84053,41.98833],[140.83943,41.98692],[140.83943,41.98671],[140.83915,41.984],[140.83963,41.98305],[140.8403,41.98223],[140.84011,41.9812],[140.83964,41.97973],[140.83933,41.97842],[140.83974,41.97763],[140.83957,41.97621],[140.84037,41.97481],[140.84109,41.97313],[140.84038,41.97157],[140.83992,41.97],[140.84001,41.96941],[140.84034,41.9673],[140.84199,41.96554],[140.84273,41.9635],[140.84239,41.96253],[140.84055,41.96119],[140.83816,41.96053],[140.83718,41.95947],[140.83741,41.95811],[140.83656,41.95645],[140.83529,41.95598],[140.83413,41.95446],[140.83424,41.95353],[140.83272,41.95271],[140.83175,41.95108],[140.82928,41.9518],[140.82866,41.9532],[140.82641,41.9541],[140.82556,41.95312],[140.82438,41.95266],[140.82334,41.94861],[140.82147,41.94772],[140.81808,41.9444],[140.81565,41.94354],[140.81404,41.94326],[140.81319,41.94213],[140.81316,41.9403],[140.81167,41.93897],[140.80894,41.93719],[140.80356,41.93409],[140.80176,41.93325],[140.80132,41.93264],[140.80108,41.93059],[140.79845,41.92758],[140.7983,41.92723],[140.79841,41.92657],[140.79796,41.9265],[140.79741,41.92659],[140.79717,41.9267],[140.7962,41.92735],[140.79544,41.92781],[140.79337,41.92874],[140.79251,41.92899],[140.7915,41.92921],[140.79107,41.92939],[140.79072,41.92959],[140.79045,41.92979],[140.78918,41.9309],[140.78905,41.93098],[140.78808,41.93144],[140.78737,41.93142],[140.78708,41.93136],[140.78692,41.93068],[140.78685,41.93046],[140.78652,41.9291],[140.78621,41.92751],[140.78598,41.9258],[140.78586,41.92411],[140.78581,41.92365],[140.78552,41.92205],[140.78521,41.92099],[140.78493,41.92052],[140.78462,41.92014],[140.7846,41.92004],[140.78459,41.9195],[140.7845,41.91921],[140.78352,41.91823],[140.78303,41.91784],[140.78266,41.91712],[140.78291,41.91594],[140.78328,41.91521],[140.78343,41.91482],[140.7837,41.91379],[140.78372,41.91343],[140.78354,41.91225],[140.78348,41.9117],[140.78319,41.91082],[140.78284,41.91028],[140.7825,41.90989],[140.78206,41.90959],[140.78134,41.90911],[140.78072,41.90847],[140.78054,41.90824],[140.78015,41.9078],[140.77996,41.90765],[140.77963,41.90741],[140.77944,41.90723],[140.77927,41.90701],[140.77921,41.90687],[140.77877,41.9065],[140.77856,41.90626],[140.77848,41.90593],[140.77845,41.90566],[140.77818,41.90514],[140.77752,41.9042],[140.77713,41.90376],[140.77613,41.90323],[140.77573,41.90215],[140.77526,41.90173],[140.77521,41.90023],[140.7752,41.89989],[140.77528,41.89947],[140.77554,41.8989],[140.77514,41.89811],[140.77503,41.89801],[140.77473,41.89724],[140.7747,41.89684],[140.77402,41.89608],[140.77373,41.89576],[140.77368,41.8957],[140.7737,41.8953],[140.77369,41.89515],[140.77329,41.89442],[140.77315,41.89415],[140.77272,41.89394],[140.7724,41.89352],[140.77235,41.89344],[140.77215,41.89309],[140.7712,41.8921],[140.77093,41.89157],[140.7709,41.89123],[140.77063,41.89034],[140.77068,41.89009],[140.77075,41.88999],[140.77055,41.88963],[140.7705,41.88955],[140.77046,41.88908],[140.77041,41.88883],[140.7703,41.88859],[140.77025,41.88832],[140.77002,41.88803],[140.77004,41.88788],[140.77003,41.88752],[140.77015,41.88722],[140.76996,41.8868],[140.7697,41.88652],[140.76956,41.88619],[140.76921,41.88601],[140.76906,41.88548],[140.76884,41.88502],[140.76888,41.88492],[140.76886,41.88449],[140.76851,41.88433],[140.76838,41.88398],[140.7683,41.88354],[140.7682,41.8828],[140.76794,41.882],[140.76806,41.88175],[140.76828,41.88153],[140.76824,41.88122],[140.76812,41.88117],[140.76778,41.88062],[140.76776,41.88048],[140.76773,41.88017],[140.7676,41.87976],[140.76758,41.87961],[140.76764,41.87943],[140.76755,41.87923],[140.76759,41.87903],[140.76752,41.87891],[140.76752,41.87885],[140.76763,41.87869],[140.76764,41.87846],[140.76744,41.87812],[140.76697,41.87755],[140.76678,41.87746],[140.76645,41.87738],[140.76631,41.8773],[140.76608,41.87725],[140.76601,41.8772],[140.7658,41.87689],[140.76575,41.87675],[140.76563,41.87648],[140.76527,41.87624],[140.76515,41.87618],[140.76487,41.87608],[140.7648,41.87604],[140.76468,41.87598],[140.76448,41.8756],[140.76418,41.87563],[140.76377,41.87542],[140.76344,41.87529],[140.76335,41.87524],[140.76304,41.87485],[140.76276,41.87443],[140.76262,41.87438],[140.76192,41.87431],[140.76173,41.87401],[140.76138,41.87403],[140.76106,41.87402],[140.76058,41.87406],[140.75967,41.87393],[140.75932,41.8738],[140.75892,41.87395],[140.7586,41.87398],[140.75851,41.87399],[140.7583,41.87406],[140.75812,41.87407],[140.75778,41.87392],[140.75706,41.87374],[140.75699,41.87373],[140.75683,41.87364],[140.75675,41.8735],[140.75642,41.87339],[140.75618,41.8733],[140.75593,41.8732],[140.75542,41.87316],[140.75053,41.87323],[140.74752,41.87121],[140.7458,41.87009],[140.74407,41.86896],[140.74316,41.86783],[140.74288,41.86725],[140.74264,41.86693],[140.74249,41.86671],[140.74207,41.86629],[140.74247,41.86526],[140.74147,41.86477],[140.73996,41.86376],[140.73943,41.86347],[140.73829,41.86306],[140.73768,41.86259],[140.73744,41.8614],[140.737,41.86208],[140.73538,41.86082],[140.73519,41.85902],[140.73386,41.85646],[140.73282,41.85353],[140.73192,41.85305],[140.72949,41.85224],[140.72946,41.85224],[140.72758,41.85231],[140.72346,41.8509],[140.72202,41.85085],[140.72111,41.85059],[140.72107,41.85058],[140.71788,41.84912],[140.71414,41.84812],[140.71174,41.8483],[140.70935,41.84791],[140.70644,41.84786],[140.70237,41.84659],[140.70006,41.84637],[140.6991,41.84605],[140.69701,41.8443],[140.69573,41.84367],[140.6946,41.84219],[140.69723,41.84118],[140.70001,41.84073],[140.70187,41.83975],[140.70292,41.837],[140.70369,41.83556],[140.70547,41.83214],[140.70624,41.83007],[140.7096,41.82605],[140.70985,41.82574],[140.71147,41.82374],[140.71296,41.82236],[140.71846,41.81787],[140.71958,41.81676],[140.71811,41.81524],[140.71773,41.81484],[140.71733,41.81443],[140.71663,41.81373],[140.71567,41.81466],[140.71233,41.81185],[140.71268,41.81156],[140.71191,41.81095],[140.70982,41.80844],[140.70961,41.80796],[140.70876,41.8066],[140.70975,41.80754],[140.7107,41.80706],[140.71109,41.80734],[140.71128,41.80726],[140.71177,41.80753],[140.71213,41.8074],[140.71333,41.80663],[140.71326,41.80657],[140.71287,41.80593],[140.71287,41.80597],[140.71285,41.80597],[140.71286,41.80605],[140.71277,41.80607],[140.71279,41.80598],[140.71272,41.80589],[140.7128,41.80587],[140.71247,41.80475],[140.71266,41.80513],[140.71263,41.80523],[140.71288,41.80578],[140.71283,41.80587],[140.71294,41.80592],[140.71335,41.80661],[140.71348,41.80652],[140.71352,41.80655],[140.71469,41.80747],[140.71565,41.8068],[140.71595,41.80694],[140.71582,41.80681],[140.71591,41.8066],[140.71379,41.80464],[140.71293,41.80481],[140.71292,41.80477],[140.71347,41.80447],[140.71306,41.80326],[140.71211,41.80269],[140.71184,41.80276],[140.71136,41.80177],[140.71435,41.79768],[140.71541,41.79814],[140.71506,41.79861],[140.71577,41.79933],[140.71602,41.79956],[140.7166,41.79938],[140.71732,41.80074],[140.71829,41.80042],[140.71796,41.80004],[140.71746,41.80028],[140.7175,41.80023],[140.71729,41.80008],[140.71734,41.79933],[140.71755,41.79912],[140.71744,41.79864],[140.71743,41.79863],[140.71747,41.7986],[140.7175,41.79864],[140.71783,41.79898],[140.71788,41.799],[140.71783,41.79888],[140.71795,41.79894],[140.71806,41.79905],[140.71805,41.79911],[140.71792,41.79904],[140.71847,41.79963],[140.71996,41.80039],[140.71852,41.79959],[140.71926,41.79899],[140.71982,41.79608],[140.71861,41.79515],[140.71862,41.79488],[140.71903,41.79465],[140.71945,41.79402],[140.71955,41.79393],[140.71962,41.79393],[140.71964,41.79394],[140.72102,41.79451],[140.72203,41.79493],[140.72228,41.79465],[140.72364,41.79521],[140.72439,41.79418],[140.72444,41.79415],[140.72446,41.7941],[140.72451,41.79399],[140.72491,41.79408],[140.72476,41.79395],[140.7244,41.79383],[140.72475,41.79311],[140.72516,41.79293],[140.72527,41.79281],[140.72532,41.79272],[140.72539,41.79263],[140.72547,41.79259],[140.72562,41.79228],[140.7257,41.79221],[140.72582,41.79174],[140.7257,41.79169],[140.72573,41.79171],[140.72568,41.79173],[140.72568,41.79168],[140.72565,41.79165],[140.72562,41.79156],[140.72563,41.79153],[140.72559,41.79149],[140.72566,41.79149],[140.72566,41.79157],[140.72603,41.79171],[140.7261,41.79153],[140.72612,41.79141],[140.72623,41.79126],[140.72629,41.79117],[140.72648,41.79095],[140.72649,41.79091],[140.72647,41.79084],[140.72649,41.79075],[140.72648,41.79069],[140.72615,41.7906],[140.72612,41.79065],[140.72614,41.79065],[140.72608,41.79068],[140.72611,41.7906],[140.72609,41.79058],[140.72611,41.79055],[140.72613,41.7905],[140.72617,41.79051],[140.72615,41.79051],[140.72615,41.79057],[140.7267,41.7902],[140.72669,41.79017],[140.72674,41.78996],[140.72683,41.78997],[140.72676,41.78981],[140.72681,41.78971],[140.72682,41.78949],[140.72688,41.78937],[140.72694,41.78927],[140.72652,41.78916],[140.72697,41.78919],[140.72716,41.7885],[140.72717,41.78847],[140.72716,41.78809],[140.72396,41.78816],[140.7239,41.7867],[140.72399,41.78652],[140.72705,41.78642],[140.72682,41.78468],[140.72416,41.78336],[140.72332,41.78336],[140.7221,41.78337],[140.72238,41.78202],[140.72363,41.78201],[140.72404,41.7822],[140.72448,41.78227],[140.72447,41.78202],[140.72458,41.78192],[140.72445,41.78169],[140.72446,41.7808],[140.72466,41.78075],[140.72476,41.78072],[140.7245,41.78081],[140.7245,41.78104],[140.72454,41.78163],[140.72459,41.78165],[140.72464,41.78166],[140.72466,41.78144],[140.72482,41.78164],[140.72505,41.78149],[140.72623,41.78153],[140.72623,41.78152],[140.72611,41.78095],[140.7259,41.77962],[140.72557,41.7778],[140.72447,41.77787],[140.72474,41.77973],[140.72427,41.77978],[140.72403,41.77789],[140.72222,41.77802],[140.72245,41.77989],[140.722,41.77992],[140.72174,41.77771],[140.72336,41.7774],[140.72427,41.77734],[140.72426,41.77698],[140.72428,41.77698],[140.7255,41.77725],[140.72526,41.77618],[140.72524,41.77612],[140.72415,41.77372],[140.72395,41.77367],[140.72411,41.77366],[140.72396,41.7735],[140.72349,41.7734],[140.723,41.77332],[140.72286,41.77329],[140.72283,41.77313],[140.72227,41.77294],[140.72268,41.77308],[140.72268,41.7731],[140.72269,41.77311],[140.72268,41.77315],[140.72264,41.77318],[140.72262,41.77319],[140.72234,41.77318],[140.7211,41.77278],[140.72112,41.77274],[140.7212,41.77272],[140.72211,41.77293],[140.72161,41.77267],[140.72162,41.77267],[140.72233,41.77232],[140.7224,41.77221],[140.7214,41.77132],[140.71975,41.77018],[140.71888,41.76957],[140.71672,41.76809],[140.71741,41.76742],[140.7172,41.76731],[140.71711,41.76718],[140.71703,41.76725],[140.71697,41.76735],[140.71678,41.76709],[140.71633,41.76687],[140.71615,41.76705],[140.71628,41.76721],[140.71554,41.76685],[140.71496,41.76659],[140.71482,41.76665],[140.71475,41.7666],[140.71437,41.76683],[140.71438,41.76686],[140.71355,41.76724],[140.71339,41.76734],[140.71333,41.76742],[140.7133,41.7674],[140.71306,41.76764],[140.71306,41.7677],[140.71284,41.76778],[140.71301,41.7683],[140.71305,41.76843],[140.7128,41.76869],[140.71193,41.76841],[140.71242,41.76874],[140.71225,41.76907],[140.71189,41.76953],[140.71207,41.76968],[140.71217,41.76971],[140.71278,41.76997],[140.71391,41.76946],[140.7137,41.76902],[140.7145,41.76926],[140.71556,41.77042],[140.71643,41.77165],[140.71557,41.77214],[140.7145,41.77273],[140.71291,41.77158],[140.71185,41.77081],[140.71261,41.77012],[140.71173,41.76976],[140.71223,41.7703],[140.71192,41.77062],[140.71145,41.77045],[140.71039,41.77064],[140.71095,41.77101],[140.71131,41.77129],[140.71014,41.77234],[140.71055,41.77282],[140.71096,41.77325],[140.71191,41.77419],[140.71018,41.77516],[140.70846,41.77504],[140.70707,41.77366],[140.7061,41.77381],[140.70599,41.77397],[140.70584,41.77533],[140.70573,41.77546],[140.70572,41.77547],[140.70556,41.77545],[140.70401,41.77548],[140.70554,41.77563],[140.70568,41.77564],[140.70571,41.77562],[140.70573,41.77578],[140.70574,41.77592],[140.70568,41.776],[140.70564,41.77605],[140.7056,41.77605],[140.70558,41.77604],[140.70361,41.77606],[140.70344,41.77619],[140.7056,41.77624],[140.70564,41.77626],[140.70565,41.77626],[140.70575,41.77629],[140.70575,41.77722],[140.70659,41.77724],[140.707,41.77724],[140.7087,41.77727],[140.70869,41.77734],[140.70863,41.77733],[140.70699,41.77767],[140.707,41.7777],[140.707,41.77808],[140.71144,41.77895],[140.71124,41.77917],[140.71117,41.77936],[140.71116,41.77955],[140.71105,41.77998],[140.71103,41.78004],[140.71092,41.78043],[140.70939,41.78013],[140.70846,41.78045],[140.70849,41.78045],[140.70845,41.78057],[140.70838,41.78062],[140.70831,41.78093],[140.70487,41.78026],[140.70446,41.78228],[140.70399,41.78463],[140.70434,41.78464],[140.70444,41.78472],[140.70201,41.78446],[140.70213,41.78349],[140.70283,41.77996],[140.70284,41.77995],[140.70304,41.77811],[140.70301,41.778],[140.7024,41.77579],[140.70111,41.77454],[140.69991,41.77325],[140.69836,41.7732],[140.6999,41.77321],[140.69991,41.77228],[140.7,41.77321],[140.70037,41.77308],[140.70085,41.77297],[140.70085,41.77291],[140.70086,41.77165],[140.70004,41.77166],[140.69992,41.77198],[140.69952,41.77198],[140.69974,41.77098],[140.69949,41.77098],[140.69802,41.7708],[140.69768,41.77239],[140.69746,41.77428],[140.69707,41.77364],[140.69714,41.7733],[140.69778,41.77042],[140.69752,41.76994],[140.69639,41.76883],[140.69583,41.76842],[140.69473,41.76746],[140.69469,41.76723],[140.69461,41.76708],[140.6939,41.76591],[140.69388,41.76589],[140.69283,41.76497],[140.69261,41.76467],[140.69257,41.76446],[140.69257,41.76424],[140.6925,41.7636],[140.6925,41.76349],[140.69254,41.76276],[140.69258,41.76258],[140.69258,41.76225],[140.69264,41.76185],[140.69268,41.7617],[140.69276,41.76144],[140.69275,41.76123],[140.69275,41.76115],[140.69282,41.76084],[140.69284,41.76065],[140.69287,41.76033],[140.6929,41.76018]],[[140.71215,41.75539],[140.71171,41.75508],[140.71203,41.75608],[140.71215,41.75539]],[[140.73306,41.76946],[140.73337,41.76978],[140.73245,41.76883],[140.73306,41.76946]],[[140.72879,41.7896],[140.7283,41.79133],[140.72844,41.79095],[140.72879,41.7896]],[[140.73404,41.79043],[140.7341,41.79063],[140.73444,41.79043],[140.73411,41.79043],[140.73404,41.79043]],[[140.73285,41.80581],[140.73282,41.80634],[140.73299,41.80569],[140.73285,41.80581]],[[140.75739,41.78478],[140.75814,41.78553],[140.75799,41.78476],[140.75739,41.78478]],[[140.76682,41.78264],[140.76688,41.78272],[140.76619,41.78184],[140.76599,41.78161],[140.76682,41.78264]],[[140.79638,41.77757],[140.79739,41.77711],[140.79637,41.777],[140.79638,41.77757]],[[140.81257,41.80524],[140.81311,41.80535],[140.8133,41.80491],[140.81257,41.80524]],[[140.83931,41.83228],[140.84009,41.83441],[140.83965,41.83317],[140.83931,41.83228]],[[140.82902,41.80453],[140.82749,41.80291],[140.8274,41.80282],[140.82902,41.80453]],[[140.8309,41.80139],[140.83058,41.80151],[140.83095,41.80218],[140.8309,41.80139]],[[140.8905,41.85321],[140.89121,41.85547],[140.89107,41.85423],[140.89006,41.85217],[140.8905,41.85321]],[[140.82028,41.91853],[140.82038,41.91992],[140.8203,41.91876],[140.82028,41.91853]],[[140.90043,41.8987],[140.89977,41.89816],[140.89974,41.89767],[140.89976,41.89808],[140.89978,41.89825],[140.90043,41.8987]],[[140.88843,41.80514],[140.88857,41.80505],[140.88826,41.80522],[140.88843,41.80514]],[[140.88801,41.80791],[140.88789,41.80804],[140.88766,41.80856],[140.88801,41.80791]],[[140.88683,41.77913],[140.88667,41.77937],[140.88617,41.78028],[140.88683,41.77913]],[[141.00586,41.84127],[141.006,41.84085],[141.00588,41.84011],[141.00586,41.84127]],[[140.94325,41.76037],[140.94416,41.76017],[140.94312,41.76023],[140.94325,41.76037]],[[140.93684,41.75881],[140.9362,41.75876],[140.93575,41.75921],[140.93684,41.75881]],[[140.85694,41.76247],[140.85762,41.76238],[140.85742,41.76208],[140.85694,41.76247]],[[140.80698,41.85726],[140.80714,41.85717],[140.80753,41.85688],[140.80698,41.85726]],[[140.78237,41.85872],[140.78276,41.8588],[140.78272,41.85869],[140.78237,41.85872]],[[140.72687,41.83201],[140.72466,41.83186],[140.72686,41.83206],[140.72687,41.83201]],[[140.73576,41.80938],[140.7346,41.80892],[140.73556,41.80939],[140.73576,41.80938]],[[140.95225,41.73361],[140.95259,41.73341],[140.95221,41.73331],[140.95225,41.73361]],[[141.03022,41.76448],[141.02987,41.76547],[141.03067,41.7644],[141.03022,41.76448]],[[141.06044,41.74674],[141.0647,41.74567],[141.06675,41.74522],[141.06289,41.74604],[141.06044,41.74674]],[[141.12108,41.81263],[141.1233,41.81273],[141.12135,41.81253],[141.12108,41.81263]],[[141.13518,41.78671],[141.13462,41.78597],[141.13471,41.7863],[141.13518,41.78671]],[[141.11124,41.7883],[141.11179,41.78798],[141.11171,41.78752],[141.11124,41.7883]],[[141.15987,41.79389],[141.16171,41.79138],[141.16181,41.79117],[141.15987,41.79389]],[[141.16591,41.8048],[141.17416,41.80449],[141.18015,41.80427],[141.16871,41.80468],[141.16591,41.8048]],[[141.13859,41.82781],[141.13859,41.8277],[141.13743,41.82723],[141.13859,41.82781]],[[141.14332,41.82806],[141.14332,41.82709],[141.14295,41.82803],[141.14332,41.82806]],[[141.1576,41.82203],[141.15783,41.82175],[141.15701,41.82198],[141.1576,41.82203]]],[[[140.74073,41.82159],[140.73929,41.82258],[140.74013,41.822],[140.74073,41.82159]]],[[[140.916,41.74194],[140.91568,41.7422],[140.91548,41.74206],[140.916,41.74194]]],[[[140.91533,41.74189],[140.91536,41.74219],[140.9151,41.74199],[140.91533,41.74189]]],[[[140.91696,41.74158],[140.91643,41.74195],[140.91638,41.74174],[140.91696,41.74158]]],[[[140.92094,41.74027],[140.92097,41.74033],[140.9209,41.74033],[140.92094,41.74027]]],[[[140.92042,41.7403],[140.92058,41.74038],[140.9205,41.74048],[140.92042,41.7403]]],[[[140.92079,41.74023],[140.92081,41.74029],[140.92073,41.74028],[140.92079,41.74023]]],[[[140.92083,41.74031],[140.92079,41.74047],[140.92063,41.74045],[140.92083,41.74031]]],[[[140.93899,41.73063],[140.93907,41.73075],[140.93877,41.73081],[140.93899,41.73063]]],[[[140.94782,41.72357],[140.94787,41.72363],[140.94776,41.72366],[140.94782,41.72357]]],[[[140.94354,41.72815],[140.94345,41.72835],[140.94328,41.72814],[140.94354,41.72815]]],[[[140.94301,41.72827],[140.94284,41.72849],[140.94277,41.72827],[140.94301,41.72827]]],[[[140.93954,41.73047],[140.93954,41.73071],[140.93938,41.73066],[140.93954,41.73047]]],[[[140.93942,41.73097],[140.93878,41.73093],[140.93935,41.73069],[140.93951,41.73074],[140.9397,41.73054],[140.93942,41.73097]]],[[[140.93895,41.73118],[140.93874,41.73126],[140.93875,41.73106],[140.93895,41.73118]]],[[[140.95312,41.71428],[140.95335,41.71454],[140.95311,41.71442],[140.95312,41.71428]]],[[[140.95058,41.71884],[140.95071,41.71899],[140.95043,41.71888],[140.95058,41.71884]]],[[[140.95072,41.71786],[140.9508,41.71798],[140.95068,41.7179],[140.95072,41.71786]]],[[[140.95,41.72082],[140.95003,41.72093],[140.94974,41.72087],[140.95,41.72082]]],[[[140.94981,41.72146],[140.94986,41.72155],[140.94975,41.72151],[140.94981,41.72146]]],[[[140.95218,41.71462],[140.95217,41.71478],[140.95194,41.71475],[140.95218,41.71462]]],[[[140.95059,41.71708],[140.95067,41.71718],[140.95025,41.71703],[140.95059,41.71708]]],[[[140.9506,41.71722],[140.9507,41.71735],[140.95053,41.71726],[140.9506,41.71722]]],[[[140.94979,41.72173],[140.94943,41.7217],[140.94975,41.72161],[140.94979,41.72173]]],[[[140.94999,41.72023],[140.95008,41.72036],[140.94993,41.72028],[140.94999,41.72023]]],[[[140.96401,41.71018],[140.96402,41.71023],[140.96394,41.71019],[140.96401,41.71018]]],[[[140.96372,41.7102],[140.96378,41.71029],[140.96366,41.71027],[140.96372,41.7102]]],[[[140.98672,41.71516],[140.98686,41.71541],[140.98672,41.7154],[140.98672,41.71516]]],[[[140.97854,41.71294],[140.97859,41.71302],[140.97834,41.71305],[140.97854,41.71294]]],[[[140.96604,41.70982],[140.96603,41.70988],[140.96598,41.70984],[140.96604,41.70982]]],[[[140.96802,41.70989],[140.96808,41.71003],[140.96799,41.71],[140.96802,41.70989]]],[[[140.96865,41.70985],[140.96928,41.71011],[140.96912,41.71028],[140.96865,41.70985]]],[[[140.96955,41.71019],[140.96968,41.71026],[140.9696,41.71032],[140.96955,41.71019]]],[[[140.96979,41.7105],[140.96988,41.71064],[140.96974,41.71061],[140.96979,41.7105]]],[[[140.97108,41.71072],[140.97067,41.71068],[140.9709,41.71054],[140.97108,41.71072]]],[[[140.97071,41.71086],[140.97075,41.71096],[140.97054,41.71094],[140.97071,41.71086]]],[[[140.97223,41.7111],[140.97233,41.71116],[140.97213,41.71122],[140.97223,41.7111]]],[[[140.98248,41.71353],[140.98254,41.71363],[140.98244,41.71367],[140.98248,41.71353]]],[[[140.98298,41.71356],[140.98303,41.71367],[140.98288,41.71366],[140.98298,41.71356]]],[[[140.98194,41.71375],[140.98198,41.71384],[140.98186,41.71386],[140.98194,41.71375]]],[[[140.99005,41.71549],[140.99014,41.71573],[140.99002,41.71575],[140.99005,41.71549]]],[[[140.99049,41.71638],[140.99068,41.71642],[140.99063,41.71651],[140.99049,41.71638]]],[[[140.96645,41.70991],[140.9662,41.70992],[140.96613,41.70979],[140.96645,41.70991]]],[[[140.96651,41.70987],[140.96649,41.70992],[140.96646,41.70989],[140.96651,41.70987]]],[[[140.97476,41.71166],[140.97487,41.71172],[140.97461,41.71177],[140.97476,41.71166]]],[[[140.9725,41.7112],[140.97259,41.7113],[140.9724,41.71125],[140.9725,41.7112]]],[[[140.97555,41.71218],[140.97515,41.71203],[140.97572,41.71204],[140.97555,41.71218]]],[[[140.96889,41.70978],[140.96911,41.71],[140.96882,41.70991],[140.96889,41.70978]]],[[[140.97556,41.71224],[140.97571,41.71244],[140.97552,41.71241],[140.97556,41.71224]]],[[[140.97719,41.71263],[140.9773,41.71265],[140.97714,41.71274],[140.97719,41.71263]]],[[[140.9779,41.7128],[140.97824,41.71313],[140.97803,41.7131],[140.9779,41.7128]]],[[[140.98013,41.71319],[140.97999,41.713],[140.98024,41.71305],[140.98013,41.71319]]],[[[140.97873,41.71329],[140.97871,41.7134],[140.97864,41.71335],[140.97873,41.71329]]],[[[140.98068,41.71337],[140.98069,41.71346],[140.98055,41.71339],[140.98068,41.71337]]],[[[140.99682,41.71473],[140.99676,41.71504],[140.99666,41.71478],[140.99682,41.71473]]],[[[141.00329,41.71482],[141.00322,41.71506],[141.00303,41.71493],[141.00329,41.71482]]],[[[141.00449,41.71494],[141.00445,41.71507],[141.00439,41.71498],[141.00449,41.71494]]],[[[140.99719,41.71387],[140.99672,41.71373],[140.99749,41.71371],[140.99719,41.71387]]],[[[140.99954,41.71402],[140.99914,41.71402],[140.99967,41.71386],[140.99954,41.71402]]],[[[141.00217,41.71407],[141.00203,41.71432],[141.00199,41.71413],[141.00217,41.71407]]],[[[141.00256,41.71458],[141.00263,41.71463],[141.00248,41.71468],[141.00256,41.71458]]],[[[141.00258,41.71425],[141.00271,41.71433],[141.00256,41.71435],[141.00258,41.71425]]],[[[141.00504,41.71448],[141.00516,41.71456],[141.00507,41.7146],[141.00504,41.71448]]],[[[141.00021,41.71417],[141.00048,41.71456],[141.00009,41.71428],[141.00021,41.71417]]],[[[141.00438,41.71451],[141.00445,41.71473],[141.00428,41.7146],[141.00438,41.71451]]],[[[141.00176,41.71472],[141.00175,41.71473],[141.00161,41.71459],[141.00176,41.71472]]],[[[140.9969,41.7144],[140.99697,41.7147],[140.99674,41.7146],[140.9969,41.7144]]],[[[140.99762,41.71354],[140.99692,41.7137],[140.99683,41.71355],[140.99762,41.71354]]],[[[140.99749,41.71381],[140.99749,41.71384],[140.99733,41.71384],[140.99749,41.71381]]],[[[141.0043,41.71472],[141.00417,41.71481],[141.00416,41.71475],[141.0043,41.71472]]],[[[141.00296,41.71465],[141.00301,41.71476],[141.00287,41.71471],[141.00296,41.71465]]],[[[141.00577,41.71509],[141.00586,41.71526],[141.00568,41.71519],[141.00577,41.71509]]],[[[141.00621,41.7151],[141.00612,41.71534],[141.00599,41.71518],[141.00621,41.7151]]],[[[141.02962,41.71809],[141.02978,41.71835],[141.02944,41.71837],[141.02962,41.71809]]],[[[141.02271,41.71893],[141.02274,41.71903],[141.02258,41.71898],[141.02271,41.71893]]],[[[141.02173,41.71964],[141.02175,41.71973],[141.02162,41.71975],[141.02173,41.71964]]],[[[141.02152,41.7203],[141.02149,41.72043],[141.02133,41.72036],[141.02152,41.7203]]],[[[141.02155,41.72044],[141.02147,41.72068],[141.02138,41.72054],[141.02155,41.72044]]],[[[141.0286,41.71804],[141.02784,41.7179],[141.02817,41.71759],[141.0286,41.71804]]],[[[141.03127,41.72331],[141.03122,41.72336],[141.03096,41.72323],[141.03127,41.72331]]],[[[141.03194,41.72337],[141.03164,41.72354],[141.0316,41.72345],[141.03194,41.72337]]],[[[141.0319,41.72373],[141.03197,41.7238],[141.03175,41.7238],[141.0319,41.72373]]],[[[141.03124,41.72373],[141.0313,41.72383],[141.03116,41.72379],[141.03124,41.72373]]],[[[141.0319,41.72384],[141.03184,41.72397],[141.03157,41.72391],[141.0319,41.72384]]],[[[141.03144,41.72393],[141.03155,41.72402],[141.03132,41.72408],[141.03144,41.72393]]],[[[141.03147,41.7241],[141.03156,41.72422],[141.03143,41.72425],[141.03147,41.7241]]],[[[141.03043,41.71931],[141.0306,41.71967],[141.03029,41.71933],[141.03043,41.71931]]],[[[141.03015,41.72055],[141.03022,41.72061],[141.02997,41.72069],[141.03015,41.72055]]],[[[141.02952,41.72111],[141.02941,41.72134],[141.02929,41.72125],[141.02952,41.72111]]],[[[141.02956,41.72128],[141.02957,41.72138],[141.02948,41.72139],[141.02956,41.72128]]],[[[141.03018,41.7222],[141.03026,41.72225],[141.03015,41.72228],[141.03018,41.7222]]],[[[141.02988,41.72219],[141.02991,41.72226],[141.02972,41.72226],[141.02988,41.72219]]],[[[141.03005,41.72225],[141.03008,41.72237],[141.02988,41.72236],[141.03005,41.72225]]],[[[141.05021,41.72583],[141.05016,41.72596],[141.05006,41.72592],[141.05021,41.72583]]],[[[141.04482,41.72534],[141.04509,41.72565],[141.04483,41.72565],[141.04482,41.72534]]],[[[141.05017,41.72564],[141.05007,41.72579],[141.04992,41.72565],[141.05017,41.72564]]],[[[141.04464,41.72553],[141.0447,41.7257],[141.04457,41.72565],[141.04464,41.72553]]],[[[141.05112,41.72602],[141.05125,41.72614],[141.05105,41.72619],[141.05112,41.72602]]],[[[141.0437,41.72598],[141.04374,41.7261],[141.04361,41.72604],[141.0437,41.72598]]],[[[141.03487,41.72658],[141.03494,41.7267],[141.03482,41.72673],[141.03487,41.72658]]],[[[141.03816,41.72669],[141.03837,41.72675],[141.03836,41.72696],[141.03816,41.72669]]],[[[141.04117,41.72684],[141.0413,41.72687],[141.0412,41.727],[141.04117,41.72684]]],[[[141.03858,41.72688],[141.03871,41.72703],[141.03848,41.72707],[141.03858,41.72688]]],[[[141.03536,41.72698],[141.03538,41.72714],[141.03517,41.72706],[141.03536,41.72698]]],[[[141.04169,41.72696],[141.04182,41.72717],[141.04154,41.72718],[141.04169,41.72696]]],[[[141.0387,41.72715],[141.03859,41.72709],[141.03877,41.72705],[141.0387,41.72715]]],[[[141.04085,41.72718],[141.04107,41.72734],[141.04081,41.72731],[141.04085,41.72718]]],[[[141.04183,41.7272],[141.04195,41.7274],[141.04172,41.7273],[141.04183,41.7272]]],[[[141.03806,41.72696],[141.03871,41.72735],[141.0384,41.72736],[141.03806,41.72696]]],[[[141.03891,41.72719],[141.03893,41.72738],[141.03872,41.72724],[141.03891,41.72719]]],[[[141.0425,41.72731],[141.04267,41.72749],[141.04243,41.72738],[141.0425,41.72731]]],[[[141.03919,41.72724],[141.03901,41.72746],[141.039,41.72723],[141.03919,41.72724]]],[[[141.04659,41.72527],[141.04629,41.72527],[141.04625,41.72498],[141.04659,41.72527]]],[[[141.04668,41.7253],[141.04666,41.72542],[141.04658,41.72531],[141.04668,41.7253]]],[[[141.0482,41.72559],[141.04721,41.72531],[141.04792,41.72518],[141.0482,41.72559]]],[[[141.07643,41.74145],[141.07646,41.7415],[141.07638,41.74157],[141.07643,41.74145]]],[[[141.07343,41.74124],[141.07346,41.74133],[141.0733,41.7413],[141.07343,41.74124]]],[[[141.07556,41.74129],[141.07528,41.7414],[141.0751,41.74125],[141.07556,41.74129]]],[[[141.07616,41.7414],[141.07619,41.74152],[141.07607,41.7415],[141.07616,41.7414]]],[[[141.07557,41.7416],[141.07501,41.74164],[141.07488,41.74144],[141.07557,41.7416]]],[[[141.07934,41.74292],[141.07927,41.74297],[141.0783,41.74225],[141.07934,41.74292]]],[[[141.07355,41.74031],[141.07352,41.74098],[141.07266,41.74035],[141.07355,41.74031]]],[[[141.07904,41.7453],[141.0789,41.74539],[141.07882,41.74535],[141.07904,41.7453]]],[[[141.07821,41.74546],[141.07822,41.74553],[141.07805,41.74556],[141.07821,41.74546]]],[[[141.09203,41.76215],[141.0917,41.76222],[141.09189,41.76192],[141.09203,41.76215]]],[[[141.09357,41.76377],[141.09349,41.76381],[141.0935,41.76376],[141.09357,41.76377]]],[[[141.09226,41.76497],[141.09242,41.76502],[141.09218,41.76504],[141.09226,41.76497]]],[[[141.09568,41.76732],[141.09574,41.76736],[141.09566,41.76739],[141.09568,41.76732]]],[[[141.09566,41.76744],[141.09585,41.76757],[141.09559,41.76752],[141.09566,41.76744]]],[[[141.089,41.76102],[141.089,41.76109],[141.08891,41.76108],[141.089,41.76102]]],[[[141.08875,41.76097],[141.08851,41.76114],[141.08854,41.76102],[141.08875,41.76097]]],[[[141.0894,41.76112],[141.08944,41.76123],[141.0893,41.7612],[141.0894,41.76112]]],[[[141.0896,41.76129],[141.08967,41.76135],[141.08954,41.76131],[141.0896,41.76129]]],[[[141.08721,41.7587],[141.08716,41.75877],[141.08664,41.75858],[141.08721,41.7587]]],[[[141.08812,41.76081],[141.08814,41.76089],[141.08803,41.76086],[141.08812,41.76081]]],[[[141.08834,41.76082],[141.08834,41.76091],[141.08826,41.76091],[141.08834,41.76082]]],[[[141.09222,41.76172],[141.09254,41.76189],[141.09213,41.76182],[141.09222,41.76172]]],[[[141.09623,41.76748],[141.09631,41.76765],[141.0961,41.76772],[141.09623,41.76748]]],[[[141.15602,41.78403],[141.15612,41.78413],[141.15555,41.78414],[141.15602,41.78403]]],[[[141.1396,41.78322],[141.13969,41.78338],[141.13947,41.78328],[141.1396,41.78322]]],[[[141.15599,41.78381],[141.15602,41.78394],[141.15589,41.78387],[141.15599,41.78381]]],[[[141.15569,41.78386],[141.15566,41.78397],[141.15558,41.78387],[141.15569,41.78386]]],[[[141.15629,41.78389],[141.15628,41.78401],[141.1562,41.78394],[141.15629,41.78389]]],[[[141.17714,41.79839],[141.17725,41.79842],[141.17724,41.79855],[141.17714,41.79839]]],[[[141.17489,41.79603],[141.17488,41.79609],[141.1748,41.79604],[141.17489,41.79603]]],[[[141.175,41.7959],[141.17502,41.79599],[141.17493,41.79595],[141.175,41.7959]]],[[[141.17676,41.79766],[141.17686,41.79768],[141.17667,41.7978],[141.17676,41.79766]]],[[[141.04829,41.8929],[141.04838,41.89306],[141.04816,41.89306],[141.04829,41.8929]]],[[[140.93269,41.95012],[140.9326,41.94871],[140.93267,41.9487],[140.93269,41.95012]]],[[[140.92857,41.95901],[140.92852,41.9591],[140.9285,41.95901],[140.92857,41.95901]]],[[[140.92837,41.95927],[140.92842,41.95934],[140.92834,41.95938],[140.92837,41.95927]]],[[[140.91991,41.96555],[140.91996,41.96566],[140.91987,41.96564],[140.91991,41.96555]]],[[[140.92019,41.96581],[140.92028,41.9659],[140.92001,41.96588],[140.92019,41.96581]]],[[[140.91998,41.96609],[140.91999,41.96619],[140.91993,41.9661],[140.91998,41.96609]]],[[[140.88939,41.99866],[140.88934,41.99921],[140.88921,41.99875],[140.88939,41.99866]]]]}},{"type":"Feature","properties":{"nm":"北斗市","b":[140.4274,41.7228,140.7196,41.9999],"c":[140.5542,41.86412]},"geometry":{"type":"Polygon","coordinates":[[[140.71268,41.81156],[140.71233,41.81185],[140.71567,41.81466],[140.71663,41.81373],[140.71773,41.81484],[140.71811,41.81524],[140.71958,41.81676],[140.71846,41.81787],[140.71296,41.82236],[140.71147,41.82374],[140.70985,41.82574],[140.70862,41.8256],[140.7096,41.82605],[140.70624,41.83007],[140.70547,41.83214],[140.70369,41.83556],[140.70292,41.837],[140.70187,41.83975],[140.70001,41.84073],[140.69723,41.84118],[140.6946,41.84219],[140.69573,41.84367],[140.69701,41.8443],[140.6991,41.84605],[140.70006,41.84637],[140.69965,41.84779],[140.70037,41.84787],[140.70007,41.84895],[140.70076,41.84907],[140.70042,41.85023],[140.70132,41.85037],[140.70096,41.85156],[140.70264,41.85182],[140.7024,41.8542],[140.70251,41.85554],[140.69571,41.8542],[140.69446,41.85414],[140.69426,41.85373],[140.69384,41.85208],[140.69324,41.8512],[140.69309,41.85039],[140.69318,41.84913],[140.69316,41.84898],[140.68619,41.84749],[140.68578,41.84828],[140.68537,41.8491],[140.68484,41.85015],[140.68289,41.85405],[140.68166,41.85574],[140.68161,41.85596],[140.68181,41.85649],[140.682,41.85683],[140.68653,41.86444],[140.68677,41.86429],[140.69014,41.86656],[140.69025,41.86663],[140.68887,41.86816],[140.6926,41.8706],[140.69262,41.87062],[140.69222,41.87082],[140.69034,41.87101],[140.69001,41.87105],[140.68997,41.87105],[140.6891,41.87033],[140.68326,41.86692],[140.67988,41.8695],[140.6809,41.87184],[140.68177,41.87252],[140.6806,41.87315],[140.67022,41.87125],[140.66844,41.87233],[140.66734,41.87339],[140.66685,41.8757],[140.6664,41.8762],[140.66872,41.87635],[140.66617,41.88333],[140.6665,41.88339],[140.66457,41.88748],[140.66549,41.88736],[140.66616,41.88644],[140.66904,41.88548],[140.6744,41.88531],[140.67465,41.88593],[140.6782,41.88557],[140.67835,41.88529],[140.6815,41.88527],[140.68154,41.88555],[140.68159,41.88572],[140.68106,41.88685],[140.68048,41.88774],[140.67967,41.88785],[140.67578,41.88841],[140.67577,41.88887],[140.67558,41.89031],[140.6729,41.89198],[140.67321,41.89263],[140.67284,41.89279],[140.67214,41.89286],[140.67184,41.89294],[140.67112,41.89305],[140.67057,41.89301],[140.67022,41.89296],[140.6698,41.89304],[140.66858,41.89309],[140.6682,41.89316],[140.66719,41.89265],[140.66652,41.89289],[140.66516,41.89302],[140.66814,41.89355],[140.6698,41.89354],[140.66929,41.896],[140.66877,41.89809],[140.66686,41.89781],[140.66568,41.89765],[140.66495,41.90097],[140.66501,41.90099],[140.66654,41.9014],[140.66678,41.90148],[140.66963,41.90241],[140.66941,41.90296],[140.66871,41.90509],[140.66789,41.90755],[140.66747,41.90886],[140.66657,41.9116],[140.66678,41.9117],[140.6652,41.91325],[140.6624,41.91338],[140.66106,41.91394],[140.66002,41.91234],[140.65801,41.9123],[140.6549,41.91262],[140.6496,41.91412],[140.64864,41.91427],[140.64599,41.91594],[140.64238,41.91794],[140.64079,41.9185],[140.64066,41.91851],[140.63994,41.91879],[140.63969,41.91896],[140.63922,41.91926],[140.6392,41.91948],[140.63913,41.91965],[140.63916,41.91994],[140.63907,41.92],[140.63897,41.92002],[140.63891,41.92018],[140.63884,41.9205],[140.63874,41.92062],[140.63877,41.92073],[140.63864,41.9208],[140.6383,41.92134],[140.63796,41.92137],[140.63741,41.92177],[140.63644,41.92214],[140.63464,41.92243],[140.63361,41.92283],[140.63304,41.92308],[140.63061,41.92279],[140.6291,41.92294],[140.62814,41.9231],[140.62659,41.92363],[140.6243,41.92414],[140.62366,41.92468],[140.62351,41.92475],[140.62144,41.92526],[140.62059,41.92554],[140.61857,41.92529],[140.6169,41.92631],[140.61482,41.92815],[140.61407,41.92993],[140.61417,41.9306],[140.61387,41.93182],[140.61402,41.93311],[140.61408,41.93521],[140.61469,41.93674],[140.61472,41.93954],[140.61497,41.94187],[140.61634,41.94329],[140.61635,41.94472],[140.61417,41.94779],[140.61338,41.9493],[140.61332,41.9499],[140.61286,41.95166],[140.61204,41.95275],[140.61157,41.95305],[140.61065,41.95425],[140.60934,41.95423],[140.60828,41.95376],[140.60662,41.95386],[140.60487,41.95316],[140.6038,41.95325],[140.60181,41.95371],[140.60144,41.95446],[140.60182,41.95607],[140.60157,41.9571],[140.60176,41.95782],[140.60131,41.95936],[140.60135,41.96043],[140.60064,41.96084],[140.5986,41.96103],[140.59784,41.96179],[140.59576,41.96267],[140.59403,41.96204],[140.59112,41.9599],[140.58941,41.95883],[140.58843,41.95921],[140.58458,41.96146],[140.5829,41.9609],[140.58281,41.96083],[140.58095,41.96062],[140.57978,41.961],[140.57775,41.96279],[140.57602,41.96752],[140.57421,41.96875],[140.57249,41.96829],[140.57,41.96851],[140.56949,41.97026],[140.56853,41.9705],[140.5676,41.97224],[140.5677,41.97381],[140.56702,41.97503],[140.56458,41.97701],[140.56458,41.9777],[140.56586,41.9785],[140.56534,41.97891],[140.56394,41.97932],[140.56202,41.97913],[140.56072,41.97936],[140.55952,41.97908],[140.55902,41.9787],[140.55739,41.97882],[140.55534,41.97845],[140.55381,41.97929],[140.55197,41.9785],[140.55062,41.97749],[140.54925,41.97738],[140.54614,41.97655],[140.54459,41.97688],[140.54292,41.97908],[140.543,41.97935],[140.54466,41.9815],[140.54464,41.98197],[140.54454,41.98326],[140.54604,41.98391],[140.54602,41.98475],[140.54496,41.98602],[140.54453,41.98775],[140.54407,41.98898],[140.54413,41.98922],[140.5443,41.99026],[140.54357,41.99093],[140.54399,41.99203],[140.54514,41.99259],[140.54626,41.99345],[140.54685,41.99358],[140.54663,41.99536],[140.54571,41.99519],[140.54429,41.99516],[140.54407,41.99466],[140.54394,41.99447],[140.54342,41.99404],[140.53969,41.99293],[140.53796,41.99233],[140.53688,41.99181],[140.53606,41.99224],[140.53464,41.99216],[140.53392,41.99275],[140.5322,41.99339],[140.53066,41.99384],[140.52769,41.99554],[140.52612,41.99579],[140.52499,41.99636],[140.52444,41.99716],[140.52419,41.99849],[140.52285,41.99923],[140.52162,41.99992],[140.51897,41.99945],[140.51631,41.99941],[140.51632,41.99914],[140.51661,41.99852],[140.51661,41.99729],[140.51719,41.99557],[140.51561,41.99377],[140.51518,41.99275],[140.5156,41.99125],[140.51616,41.99046],[140.51628,41.99012],[140.516,41.98959],[140.51578,41.98835],[140.51443,41.98736],[140.51214,41.98657],[140.51027,41.98509],[140.50903,41.98553],[140.50818,41.98645],[140.50511,41.98791],[140.50372,41.98768],[140.50257,41.98773],[140.50176,41.98828],[140.49944,41.98844],[140.49833,41.9881],[140.49721,41.98719],[140.49581,41.98714],[140.49435,41.98653],[140.49314,41.98628],[140.49157,41.98686],[140.48939,41.98769],[140.4864,41.98752],[140.48505,41.98748],[140.48408,41.98764],[140.48277,41.9889],[140.47978,41.99076],[140.47841,41.99136],[140.47786,41.99151],[140.47433,41.99188],[140.4722,41.99276],[140.47086,41.99344],[140.47052,41.99313],[140.4681,41.99104],[140.46708,41.99077],[140.46622,41.98921],[140.46516,41.98731],[140.46463,41.9868],[140.46448,41.98454],[140.46448,41.9834],[140.46438,41.98156],[140.46506,41.98063],[140.46578,41.97955],[140.46553,41.9787],[140.46515,41.97764],[140.46505,41.97658],[140.46451,41.97603],[140.46569,41.97287],[140.46737,41.97205],[140.46769,41.97177],[140.46773,41.97077],[140.46712,41.97028],[140.46693,41.96963],[140.46876,41.96608],[140.46908,41.965],[140.46814,41.96248],[140.46784,41.95994],[140.4683,41.9591],[140.4691,41.95846],[140.47036,41.95741],[140.46973,41.9564],[140.47064,41.95328],[140.46865,41.95249],[140.46789,41.95191],[140.46714,41.95245],[140.46396,41.95274],[140.46041,41.95184],[140.45991,41.95134],[140.45913,41.94952],[140.45883,41.94792],[140.45783,41.94662],[140.45696,41.94481],[140.45543,41.94437],[140.4539,41.94402],[140.45257,41.94329],[140.45052,41.94166],[140.44979,41.94117],[140.44964,41.94021],[140.44947,41.94006],[140.44932,41.9399],[140.44821,41.93964],[140.44719,41.93902],[140.4464,41.93839],[140.44475,41.93832],[140.44334,41.9375],[140.44307,41.93632],[140.44379,41.93558],[140.44514,41.93471],[140.44653,41.93475],[140.44928,41.93326],[140.45006,41.93235],[140.45308,41.93239],[140.45293,41.93161],[140.45397,41.9302],[140.45251,41.92958],[140.45223,41.92823],[140.45141,41.92744],[140.451,41.92661],[140.45102,41.92493],[140.45099,41.92462],[140.44991,41.92363],[140.44992,41.92209],[140.45167,41.9209],[140.45302,41.91924],[140.45361,41.91771],[140.45359,41.91751],[140.45305,41.91675],[140.45501,41.91629],[140.4562,41.91613],[140.45662,41.91599],[140.45811,41.9147],[140.45776,41.91297],[140.45818,41.91236],[140.45882,41.9108],[140.45998,41.91043],[140.46188,41.90962],[140.46302,41.90938],[140.46451,41.90799],[140.46677,41.90394],[140.46863,41.90346],[140.47022,41.90285],[140.4735,41.9008],[140.47257,41.9001],[140.4715,41.89827],[140.47144,41.89756],[140.47176,41.89667],[140.47158,41.89523],[140.47203,41.89413],[140.47151,41.89335],[140.47043,41.89177],[140.47062,41.88978],[140.46955,41.88877],[140.46845,41.88841],[140.46714,41.88836],[140.46631,41.88785],[140.46688,41.88594],[140.46704,41.88484],[140.46639,41.88429],[140.46694,41.88331],[140.46846,41.88282],[140.46705,41.88115],[140.46541,41.87966],[140.46455,41.87912],[140.46433,41.87827],[140.46516,41.87629],[140.46454,41.87443],[140.46307,41.8736],[140.46168,41.87211],[140.46185,41.87105],[140.46144,41.87006],[140.46189,41.86935],[140.46176,41.86741],[140.46083,41.86541],[140.46104,41.86431],[140.46071,41.86363],[140.45936,41.86394],[140.45764,41.86453],[140.45719,41.86421],[140.45621,41.8624],[140.45569,41.86208],[140.45358,41.86174],[140.45137,41.86224],[140.45061,41.86261],[140.4498,41.86198],[140.44919,41.8616],[140.44705,41.86135],[140.44797,41.85987],[140.44754,41.85923],[140.44692,41.85731],[140.44841,41.85678],[140.4504,41.85764],[140.45305,41.85609],[140.45333,41.85524],[140.45481,41.85439],[140.45558,41.85351],[140.45899,41.85257],[140.46109,41.85078],[140.46128,41.84713],[140.45961,41.84628],[140.4604,41.8447],[140.45937,41.8436],[140.4571,41.84252],[140.4567,41.84157],[140.45475,41.84187],[140.45262,41.84136],[140.45085,41.84132],[140.44988,41.84166],[140.44761,41.84346],[140.4458,41.84277],[140.44477,41.83974],[140.44327,41.83901],[140.44186,41.83883],[140.44048,41.83813],[140.43902,41.83679],[140.43971,41.83513],[140.43835,41.83539],[140.43662,41.83513],[140.4346,41.8341],[140.43213,41.83227],[140.43008,41.83226],[140.42815,41.8316],[140.42743,41.83092],[140.42842,41.82996],[140.42831,41.82861],[140.42905,41.82744],[140.42808,41.82636],[140.42744,41.82494],[140.42789,41.82365],[140.42926,41.82272],[140.42935,41.8215],[140.43069,41.82072],[140.4326,41.82042],[140.43305,41.81961],[140.43279,41.81865],[140.43364,41.81751],[140.43318,41.8163],[140.43463,41.81499],[140.43368,41.81395],[140.433,41.81213],[140.43157,41.81065],[140.43148,41.80874],[140.43046,41.80805],[140.43146,41.80655],[140.43259,41.80558],[140.43295,41.80539],[140.43415,41.80506],[140.43492,41.80372],[140.43456,41.80085],[140.43502,41.79995],[140.43483,41.79926],[140.43474,41.79908],[140.43509,41.79625],[140.43576,41.79636],[140.43711,41.79632],[140.43976,41.79598],[140.44153,41.79359],[140.442,41.79235],[140.44406,41.79054],[140.4437,41.78978],[140.44371,41.78808],[140.44411,41.78796],[140.44474,41.78795],[140.44619,41.7882],[140.44736,41.78887],[140.44857,41.78828],[140.45017,41.78782],[140.45192,41.78859],[140.45512,41.78901],[140.45771,41.78871],[140.45968,41.78906],[140.46256,41.78892],[140.4641,41.78918],[140.46439,41.78915],[140.46532,41.78869],[140.46621,41.78812],[140.46709,41.78643],[140.46874,41.78608],[140.47022,41.78462],[140.47211,41.78455],[140.47405,41.78399],[140.47641,41.78279],[140.47766,41.78226],[140.47937,41.78164],[140.48199,41.78061],[140.48332,41.78046],[140.48628,41.77921],[140.48827,41.77897],[140.49226,41.77712],[140.49466,41.77596],[140.49468,41.77511],[140.49543,41.77278],[140.4964,41.77256],[140.49794,41.77244],[140.49823,41.77248],[140.50017,41.77297],[140.50217,41.77309],[140.50447,41.77253],[140.50675,41.77154],[140.50693,41.77139],[140.50815,41.76877],[140.50927,41.76748],[140.51039,41.76723],[140.51178,41.76634],[140.51303,41.765],[140.5146,41.76331],[140.51694,41.7621],[140.51788,41.76215],[140.51838,41.76069],[140.52144,41.75944],[140.52222,41.75852],[140.52267,41.75723],[140.52379,41.7569],[140.52567,41.75522],[140.52605,41.75431],[140.52751,41.75377],[140.52881,41.75227],[140.52994,41.75185],[140.53134,41.75202],[140.53265,41.75076],[140.53409,41.75041],[140.53508,41.74995],[140.53612,41.74867],[140.53934,41.74789],[140.54033,41.74766],[140.54144,41.74799],[140.5428,41.74783],[140.54463,41.74812],[140.54619,41.74759],[140.54804,41.74717],[140.54925,41.74557],[140.55026,41.74526],[140.55038,41.74484],[140.5504,41.74458],[140.55043,41.74404],[140.54974,41.74223],[140.5475,41.74114],[140.54604,41.73798],[140.54577,41.73622],[140.54609,41.73486],[140.54767,41.73192],[140.54831,41.73097],[140.5496,41.72932],[140.55081,41.72836],[140.55102,41.72831],[140.55145,41.72825],[140.55183,41.72807],[140.55266,41.72707],[140.55279,41.72676],[140.55281,41.72651],[140.55278,41.72631],[140.55279,41.72618],[140.55285,41.72605],[140.55299,41.7259],[140.55309,41.72578],[140.55313,41.72571],[140.5532,41.72559],[140.55331,41.72543],[140.55346,41.72529],[140.55353,41.72523],[140.55362,41.72512],[140.55365,41.72507],[140.55382,41.72495],[140.55391,41.7249],[140.55408,41.72482],[140.55424,41.72469],[140.55436,41.72451],[140.55445,41.72438],[140.55457,41.72421],[140.55461,41.72414],[140.55467,41.72402],[140.5547,41.72396],[140.55477,41.72388],[140.55487,41.72378],[140.55498,41.72371],[140.55515,41.72364],[140.55528,41.72358],[140.55549,41.72341],[140.55556,41.72328],[140.55547,41.7229],[140.55543,41.7228],[140.55818,41.72384],[140.5594,41.72488],[140.56079,41.72729],[140.56146,41.72786],[140.56713,41.72963],[140.57188,41.73049],[140.5743,41.73065],[140.57595,41.73124],[140.57776,41.73139],[140.57778,41.73202],[140.57879,41.73265],[140.5798,41.73585],[140.58025,41.73686],[140.58125,41.73755],[140.58333,41.73756],[140.58351,41.73711],[140.58685,41.73784],[140.58722,41.73866],[140.58847,41.73974],[140.58921,41.73973],[140.58839,41.74058],[140.589,41.74159],[140.58966,41.74128],[140.59123,41.74121],[140.59301,41.74037],[140.59497,41.74018],[140.59847,41.74093],[140.60043,41.74142],[140.60149,41.74216],[140.60205,41.74327],[140.60168,41.74519],[140.60182,41.74975],[140.60267,41.75258],[140.60401,41.75516],[140.60534,41.75492],[140.60563,41.75603],[140.60495,41.75618],[140.60522,41.75858],[140.60575,41.76045],[140.6042,41.76074],[140.6038,41.76139],[140.60462,41.76286],[140.60657,41.76463],[140.60743,41.76536],[140.6091,41.76601],[140.60993,41.76696],[140.61173,41.76818],[140.61351,41.7715],[140.61331,41.77314],[140.61338,41.77705],[140.6136,41.77765],[140.61496,41.77849],[140.61522,41.78045],[140.61673,41.78291],[140.61868,41.78466],[140.62016,41.78706],[140.62008,41.78823],[140.61975,41.78996],[140.61886,41.79064],[140.61859,41.79348],[140.61799,41.79512],[140.61841,41.79722],[140.61966,41.79964],[140.62165,41.80236],[140.6223,41.80499],[140.62655,41.80914],[140.62721,41.80984],[140.63145,41.81251],[140.63502,41.81455],[140.63703,41.81535],[140.64016,41.81653],[140.63956,41.81664],[140.64126,41.81695],[140.64426,41.81781],[140.64646,41.81829],[140.6473,41.81624],[140.64716,41.81746],[140.64877,41.81797],[140.64865,41.81861],[140.65067,41.81935],[140.64923,41.82007],[140.64977,41.8203],[140.65112,41.81945],[140.65292,41.81987],[140.65333,41.82137],[140.65463,41.82204],[140.65352,41.82038],[140.65539,41.82113],[140.66078,41.82196],[140.66654,41.8222],[140.67514,41.82173],[140.68098,41.82117],[140.68203,41.82126],[140.68889,41.82011],[140.69315,41.81902],[140.69378,41.81946],[140.69356,41.81898],[140.69851,41.81735],[140.70149,41.8157],[140.70269,41.81477],[140.70432,41.81273],[140.70394,41.81227],[140.70543,41.81163],[140.70532,41.81051],[140.70982,41.80844],[140.71191,41.81095],[140.71268,41.81156]],[[140.67547,41.82367],[140.67274,41.82377],[140.6739,41.82375],[140.67547,41.82367]],[[140.62,41.80446],[140.61978,41.80354],[140.61962,41.80396],[140.62,41.80446]],[[140.62059,41.80264],[140.6212,41.80238],[140.62061,41.80235],[140.62059,41.80264]],[[140.59929,41.7727],[140.60031,41.77231],[140.59949,41.7726],[140.59929,41.7727]],[[140.63469,41.89144],[140.63449,41.89179],[140.63462,41.89195],[140.63469,41.89144]],[[140.63419,41.89152],[140.63317,41.89226],[140.63362,41.892],[140.63419,41.89152]],[[140.6364,41.87784],[140.63601,41.87798],[140.63604,41.87799],[140.6364,41.87784]]]}},{"type":"Feature","properties":{"nm":"七飯町","b":[140.5751,41.8464,140.7875,42.0628],"c":[140.7002,41.94878]},"geometry":{"type":"MultiPolygon","coordinates":[[[[140.66747,41.90886],[140.66789,41.90755],[140.66871,41.90509],[140.66941,41.90296],[140.66963,41.90241],[140.66678,41.90148],[140.66654,41.9014],[140.66501,41.90099],[140.66495,41.90097],[140.66568,41.89765],[140.66686,41.89781],[140.66877,41.89809],[140.66929,41.896],[140.6698,41.89354],[140.66814,41.89355],[140.66516,41.89302],[140.66652,41.89289],[140.66719,41.89265],[140.6682,41.89316],[140.66858,41.89309],[140.6698,41.89304],[140.67022,41.89296],[140.67057,41.89301],[140.67112,41.89305],[140.67184,41.89294],[140.67214,41.89286],[140.67284,41.89279],[140.67321,41.89263],[140.6729,41.89198],[140.67558,41.89031],[140.67577,41.88887],[140.67578,41.88841],[140.67967,41.88785],[140.68041,41.8878],[140.68048,41.88774],[140.68106,41.88685],[140.68159,41.88572],[140.68154,41.88555],[140.6815,41.88527],[140.67835,41.88529],[140.6782,41.88557],[140.67465,41.88593],[140.6744,41.88531],[140.66904,41.88548],[140.66616,41.88644],[140.66549,41.88736],[140.66457,41.88748],[140.6665,41.88339],[140.66617,41.88333],[140.66872,41.87635],[140.6664,41.8762],[140.66685,41.8757],[140.66734,41.87339],[140.66844,41.87233],[140.67022,41.87125],[140.6806,41.87315],[140.68177,41.87252],[140.6809,41.87184],[140.67988,41.8695],[140.68326,41.86692],[140.6891,41.87033],[140.68997,41.87105],[140.68931,41.87172],[140.69001,41.87105],[140.69034,41.87101],[140.69222,41.87082],[140.69262,41.87062],[140.69295,41.87034],[140.6926,41.8706],[140.68887,41.86816],[140.69025,41.86663],[140.69014,41.86656],[140.68677,41.86429],[140.68653,41.86444],[140.682,41.85683],[140.68161,41.85596],[140.68166,41.85574],[140.68289,41.85405],[140.68484,41.85015],[140.68537,41.8491],[140.68578,41.84828],[140.68619,41.84749],[140.69316,41.84898],[140.69318,41.84913],[140.69309,41.85039],[140.69324,41.8512],[140.69384,41.85208],[140.69426,41.85373],[140.69446,41.85414],[140.69449,41.85414],[140.69571,41.8542],[140.70251,41.85554],[140.7024,41.8542],[140.70264,41.85182],[140.70096,41.85156],[140.70132,41.85037],[140.70042,41.85023],[140.70076,41.84907],[140.70007,41.84895],[140.70037,41.84787],[140.69965,41.84779],[140.70006,41.84637],[140.70237,41.84659],[140.70644,41.84786],[140.70935,41.84791],[140.71174,41.8483],[140.71414,41.84812],[140.71788,41.84912],[140.72107,41.85058],[140.72111,41.85059],[140.72202,41.85085],[140.72346,41.8509],[140.72758,41.85231],[140.72946,41.85224],[140.72949,41.85224],[140.73192,41.85305],[140.73282,41.85353],[140.73386,41.85646],[140.73519,41.85902],[140.73538,41.86082],[140.737,41.86208],[140.73744,41.8614],[140.73768,41.86259],[140.73829,41.86306],[140.73943,41.86347],[140.73996,41.86376],[140.74147,41.86477],[140.74247,41.86526],[140.74207,41.86629],[140.74249,41.86671],[140.74264,41.86693],[140.74288,41.86725],[140.74316,41.86783],[140.74407,41.86896],[140.7458,41.87009],[140.74752,41.87121],[140.75053,41.87323],[140.75542,41.87316],[140.75593,41.8732],[140.75618,41.8733],[140.75642,41.87339],[140.75675,41.8735],[140.75683,41.87364],[140.75699,41.87373],[140.75706,41.87374],[140.75778,41.87392],[140.75812,41.87407],[140.7583,41.87406],[140.75851,41.87399],[140.7586,41.87398],[140.75892,41.87395],[140.75932,41.8738],[140.75967,41.87393],[140.76058,41.87406],[140.76106,41.87402],[140.76138,41.87403],[140.76173,41.87401],[140.76192,41.87431],[140.76262,41.87438],[140.76276,41.87443],[140.76304,41.87485],[140.76335,41.87524],[140.76344,41.87529],[140.76377,41.87542],[140.76418,41.87563],[140.76448,41.8756],[140.76468,41.87598],[140.7648,41.87604],[140.76487,41.87608],[140.76515,41.87618],[140.76527,41.87624],[140.76563,41.87648],[140.76575,41.87675],[140.7658,41.87689],[140.76601,41.8772],[140.76608,41.87725],[140.76631,41.8773],[140.76645,41.87738],[140.76678,41.87746],[140.76697,41.87755],[140.76744,41.87812],[140.76764,41.87846],[140.76763,41.87869],[140.76752,41.87885],[140.76752,41.87891],[140.76759,41.87903],[140.76755,41.87923],[140.76764,41.87943],[140.76758,41.87961],[140.7676,41.87976],[140.76773,41.88017],[140.76776,41.88048],[140.76778,41.88062],[140.76812,41.88117],[140.76824,41.88122],[140.76828,41.88153],[140.76806,41.88175],[140.76794,41.882],[140.7682,41.8828],[140.7683,41.88354],[140.76838,41.88398],[140.76851,41.88433],[140.76886,41.88449],[140.76888,41.88492],[140.76884,41.88502],[140.76906,41.88548],[140.76921,41.88601],[140.76956,41.88619],[140.7697,41.88652],[140.76996,41.8868],[140.77015,41.88722],[140.77003,41.88752],[140.77004,41.88788],[140.77002,41.88803],[140.77025,41.88832],[140.7703,41.88859],[140.77041,41.88883],[140.77046,41.88908],[140.7705,41.88955],[140.77055,41.88963],[140.77075,41.88999],[140.77068,41.89009],[140.77063,41.89034],[140.7709,41.89123],[140.77093,41.89157],[140.7712,41.8921],[140.77215,41.89309],[140.77235,41.89344],[140.7724,41.89352],[140.77272,41.89394],[140.77315,41.89415],[140.77329,41.89442],[140.77369,41.89515],[140.7737,41.8953],[140.77368,41.8957],[140.77373,41.89576],[140.77402,41.89608],[140.7747,41.89684],[140.77473,41.89724],[140.77503,41.89801],[140.77514,41.89811],[140.77554,41.8989],[140.77528,41.89947],[140.7752,41.89989],[140.77521,41.90023],[140.77526,41.90173],[140.77573,41.90215],[140.77613,41.90323],[140.77713,41.90376],[140.77752,41.9042],[140.77818,41.90514],[140.77845,41.90566],[140.77848,41.90593],[140.77856,41.90626],[140.77877,41.9065],[140.77921,41.90687],[140.77927,41.90701],[140.77944,41.90723],[140.77963,41.90741],[140.77996,41.90765],[140.78015,41.9078],[140.78054,41.90824],[140.78072,41.90847],[140.78134,41.90911],[140.78206,41.90959],[140.7825,41.90989],[140.78284,41.91028],[140.78319,41.91082],[140.78348,41.9117],[140.78354,41.91225],[140.78372,41.91343],[140.7837,41.91379],[140.78343,41.91482],[140.78328,41.91521],[140.78291,41.91594],[140.78266,41.91712],[140.78303,41.91784],[140.78352,41.91823],[140.7845,41.91921],[140.78459,41.9195],[140.7846,41.92004],[140.78462,41.92014],[140.78493,41.92052],[140.78521,41.92099],[140.78552,41.92205],[140.78581,41.92365],[140.78586,41.92411],[140.78598,41.9258],[140.78621,41.92751],[140.78652,41.9291],[140.78685,41.93046],[140.78692,41.93068],[140.78707,41.9314],[140.78683,41.93149],[140.78643,41.93153],[140.78598,41.93178],[140.78356,41.93343],[140.78255,41.93368],[140.78233,41.93422],[140.78374,41.93542],[140.78465,41.9362],[140.78519,41.93744],[140.78538,41.93822],[140.78571,41.93972],[140.78613,41.94161],[140.78472,41.94233],[140.78406,41.9432],[140.78397,41.94408],[140.78382,41.94603],[140.78438,41.94717],[140.7841,41.9491],[140.78405,41.95076],[140.78367,41.95126],[140.78334,41.95215],[140.78421,41.95321],[140.78432,41.95354],[140.78481,41.95509],[140.7846,41.9563],[140.78646,41.95827],[140.78649,41.95948],[140.78653,41.96053],[140.78709,41.96174],[140.78577,41.96788],[140.78543,41.9688],[140.78706,41.97059],[140.78688,41.97117],[140.78658,41.97156],[140.78745,41.97296],[140.78635,41.9759],[140.78548,41.97657],[140.78419,41.97727],[140.78409,41.97796],[140.78359,41.98015],[140.7834,41.98067],[140.78381,41.98212],[140.78419,41.98291],[140.78474,41.98412],[140.78486,41.98452],[140.78415,41.98641],[140.78315,41.98731],[140.78261,41.98862],[140.7815,41.98971],[140.77978,41.98997],[140.77811,41.99103],[140.77716,41.99096],[140.77625,41.99199],[140.77522,41.99434],[140.77436,41.99462],[140.77322,41.997],[140.77242,41.99725],[140.77071,41.99923],[140.76997,42.00048],[140.76832,42.00133],[140.76705,42.00236],[140.76483,42.0023],[140.76495,42.00143],[140.76276,42.00208],[140.76114,42.00173],[140.76013,42.00281],[140.75895,42.00305],[140.75659,42.0023],[140.75553,42.00227],[140.75451,42.00295],[140.75216,42.00376],[140.75141,42.00502],[140.74995,42.00556],[140.74759,42.00541],[140.74644,42.00585],[140.74144,42.00594],[140.73953,42.00509],[140.73827,42.00566],[140.73608,42.00751],[140.73467,42.0073],[140.73327,42.0081],[140.73446,42.00924],[140.74131,42.015],[140.74157,42.01554],[140.73994,42.01897],[140.73639,42.02067],[140.73454,42.02122],[140.73531,42.02267],[140.73725,42.02336],[140.74246,42.0264],[140.74314,42.02748],[140.74033,42.02874],[140.73364,42.02491],[140.73328,42.0249],[140.73177,42.03007],[140.73004,42.0374],[140.72901,42.04222],[140.72609,42.04081],[140.7255,42.04031],[140.72163,42.04114],[140.72093,42.04145],[140.71918,42.04349],[140.71633,42.04461],[140.71395,42.04576],[140.71123,42.04947],[140.7092,42.05034],[140.70801,42.05025],[140.70446,42.04944],[140.7038,42.05064],[140.70272,42.05166],[140.70048,42.05287],[140.6977,42.05384],[140.69373,42.05462],[140.69296,42.05496],[140.67736,42.06284],[140.67747,42.06255],[140.68008,42.05557],[140.6829,42.04868],[140.68874,42.03471],[140.68958,42.03246],[140.69333,42.02282],[140.69927,42.00823],[140.69931,42.00654],[140.69924,42.00544],[140.69859,42.00513],[140.69761,42.0066],[140.6964,42.00734],[140.69539,42.00739],[140.69312,42.00655],[140.6922,42.00576],[140.68948,42.0047],[140.68644,42.00259],[140.68606,42.00177],[140.68377,42.00137],[140.68124,42.00195],[140.67921,42.00149],[140.67703,42.00037],[140.67528,42.00115],[140.67427,42.0022],[140.67283,42.00211],[140.67254,42.0014],[140.67261,41.99912],[140.67165,41.99971],[140.66908,42.0002],[140.6669,41.99984],[140.6663,42.00105],[140.66471,42.00152],[140.66194,42.00116],[140.66104,42.00211],[140.6582,42.00288],[140.65771,42.00349],[140.65562,42.00231],[140.6519,42.0023],[140.65111,42.0032],[140.64986,42.00227],[140.64774,42.00174],[140.64692,42.00057],[140.64551,41.99976],[140.64504,42.00053],[140.64359,42.00057],[140.64322,42.00017],[140.64083,42.00023],[140.6387,41.99994],[140.63802,42.00054],[140.63686,41.99987],[140.63575,42.00052],[140.63456,42],[140.63461,41.99911],[140.63325,41.99871],[140.63362,41.99808],[140.63336,41.99678],[140.63426,41.99639],[140.6331,41.99605],[140.63221,41.99469],[140.63239,41.99422],[140.62927,41.99532],[140.62762,41.99531],[140.62546,41.99717],[140.62571,41.99874],[140.62735,42.00002],[140.62709,42.00083],[140.62405,42.00068],[140.62281,42.00038],[140.62201,42.00076],[140.61972,42.00061],[140.61843,42.00212],[140.61746,42.00219],[140.6177,42.00433],[140.61628,42.00538],[140.61539,42.00553],[140.61273,42.00459],[140.61177,42.00394],[140.60904,42.00433],[140.60886,42.00355],[140.60782,42.00402],[140.60656,42.00242],[140.60497,42.00233],[140.60492,42.00163],[140.60162,41.99985],[140.59816,41.99891],[140.59664,41.99818],[140.59604,41.99748],[140.59383,41.99685],[140.59254,41.9969],[140.59115,41.99647],[140.58976,41.99607],[140.58801,41.99334],[140.58666,41.99272],[140.58624,41.99122],[140.58694,41.9899],[140.58719,41.9883],[140.58832,41.98717],[140.58804,41.98583],[140.58647,41.9845],[140.58673,41.98356],[140.58624,41.98232],[140.58486,41.98197],[140.58095,41.97757],[140.57971,41.97682],[140.57742,41.97642],[140.57592,41.97579],[140.57505,41.9747],[140.57541,41.97349],[140.57709,41.97188],[140.57711,41.97041],[140.57787,41.96581],[140.57875,41.96528],[140.58108,41.96474],[140.58151,41.96403],[140.58343,41.9638],[140.58422,41.9629],[140.58458,41.96146],[140.58843,41.95921],[140.58941,41.95883],[140.59112,41.9599],[140.59403,41.96204],[140.59576,41.96267],[140.59784,41.96179],[140.5986,41.96103],[140.60064,41.96084],[140.60135,41.96043],[140.60131,41.95936],[140.60176,41.95782],[140.60157,41.9571],[140.60182,41.95607],[140.60144,41.95446],[140.60181,41.95371],[140.6038,41.95325],[140.60487,41.95316],[140.60662,41.95386],[140.60828,41.95376],[140.60934,41.95423],[140.61015,41.95448],[140.61065,41.95425],[140.61157,41.95305],[140.61204,41.95275],[140.61286,41.95166],[140.61332,41.9499],[140.61338,41.9493],[140.61417,41.94779],[140.61635,41.94472],[140.61634,41.94329],[140.61497,41.94187],[140.61472,41.93954],[140.61469,41.93674],[140.61408,41.93521],[140.61402,41.93311],[140.61387,41.93182],[140.61417,41.9306],[140.61407,41.92993],[140.61482,41.92815],[140.6169,41.92631],[140.61857,41.92529],[140.62059,41.92554],[140.62144,41.92526],[140.62351,41.92475],[140.62366,41.92468],[140.6243,41.92414],[140.62659,41.92363],[140.62814,41.9231],[140.6291,41.92294],[140.63061,41.92279],[140.63304,41.92308],[140.63361,41.92283],[140.63464,41.92243],[140.63644,41.92214],[140.63741,41.92177],[140.63796,41.92137],[140.6383,41.92134],[140.63864,41.9208],[140.63877,41.92073],[140.63874,41.92062],[140.63884,41.9205],[140.63891,41.92018],[140.63897,41.92002],[140.63907,41.92],[140.63916,41.91994],[140.63913,41.91965],[140.6392,41.91948],[140.63922,41.91926],[140.63969,41.91896],[140.63994,41.91879],[140.64079,41.9185],[140.64238,41.91794],[140.64599,41.91594],[140.64864,41.91427],[140.6496,41.91412],[140.6549,41.91262],[140.65801,41.9123],[140.66002,41.91234],[140.66106,41.91394],[140.6624,41.91338],[140.6652,41.91325],[140.66678,41.9117],[140.66823,41.91217],[140.66657,41.9116],[140.66747,41.90886]],[[140.69487,41.90088],[140.69635,41.90092],[140.69552,41.90086],[140.69487,41.90088]],[[140.71872,41.92423],[140.72225,41.92717],[140.7215,41.9264],[140.71872,41.92423]],[[140.76818,41.92235],[140.76819,41.92227],[140.76627,41.91935],[140.76818,41.92235]],[[140.70981,41.89224],[140.7112,41.89013],[140.70983,41.8922],[140.70981,41.89224]],[[140.71286,41.88318],[140.71043,41.88192],[140.71267,41.88309],[140.71286,41.88318]],[[140.68683,41.88071],[140.68509,41.88436],[140.6857,41.8832],[140.68683,41.88071]],[[140.72882,41.87025],[140.72902,41.86995],[140.72797,41.86909],[140.72882,41.87025]],[[140.69474,41.85685],[140.69491,41.85766],[140.69533,41.85932],[140.69474,41.85685]],[[140.66256,41.91838],[140.66018,41.9198],[140.66114,41.91928],[140.66256,41.91838]],[[140.7145,41.87272],[140.71522,41.87294],[140.71467,41.8725],[140.7145,41.87272]],[[140.71702,41.87394],[140.7176,41.87427],[140.71771,41.87424],[140.71702,41.87394]],[[140.7162,41.87581],[140.7164,41.87553],[140.71648,41.8753],[140.7162,41.87581]]],[[[140.71606,41.86415],[140.71728,41.86156],[140.71756,41.86097],[140.71606,41.86415]]]]}}]}