{"type":"FeatureCollection","features":[{"type":"Feature","properties":{"nm":"小田原市","b":[139.0595,35.178,139.2384,35.33],"c":[139.1441,35.26312]},"geometry":{"type":"MultiPolygon","coordinates":[[[[139.17142,35.2541],[139.17328,35.2551],[139.17574,35.256],[139.1767,35.25625],[139.17757,35.25667],[139.18083,35.25812],[139.18457,35.26045],[139.1861,35.26139],[139.18683,35.26173],[139.18865,35.26311],[139.19145,35.2649],[139.19344,35.26606],[139.19525,35.26742],[139.19653,35.26861],[139.19697,35.26922],[139.19784,35.26993],[139.19957,35.27122],[139.20072,35.27193],[139.20158,35.2726],[139.20291,35.27344],[139.20402,35.27435],[139.20559,35.27536],[139.20641,35.27605],[139.20932,35.27754],[139.21021,35.27797],[139.21272,35.27892],[139.21366,35.27919],[139.21529,35.27977],[139.21791,35.28023],[139.21914,35.28053],[139.22066,35.28089],[139.2222,35.28141],[139.22326,35.28196],[139.22528,35.28282],[139.22588,35.28299],[139.2295,35.28452],[139.23155,35.28544],[139.2324,35.28571],[139.23544,35.28687],[139.23491,35.28784],[139.23446,35.28773],[139.23411,35.28819],[139.23439,35.28848],[139.23504,35.28878],[139.2348,35.28925],[139.23501,35.2897],[139.23423,35.28948],[139.23401,35.28999],[139.2344,35.29017],[139.23552,35.29013],[139.23591,35.29002],[139.23606,35.28922],[139.2354,35.28859],[139.23555,35.28831],[139.23662,35.28867],[139.23646,35.28936],[139.23685,35.28945],[139.23707,35.28884],[139.23733,35.2899],[139.23676,35.29059],[139.23621,35.29134],[139.23676,35.29219],[139.23715,35.29276],[139.23666,35.29287],[139.23554,35.29253],[139.23534,35.29286],[139.23553,35.29346],[139.2365,35.29399],[139.23726,35.29513],[139.23747,35.29612],[139.23711,35.29669],[139.23595,35.29684],[139.23533,35.29855],[139.23527,35.29932],[139.2351,35.2994],[139.23541,35.29931],[139.23588,35.2993],[139.23543,35.30025],[139.236,35.30042],[139.23692,35.30059],[139.23732,35.30057],[139.23725,35.30022],[139.23758,35.29983],[139.23785,35.30019],[139.23792,35.30066],[139.23841,35.30092],[139.23789,35.3015],[139.23733,35.30138],[139.2376,35.30169],[139.23781,35.30207],[139.23789,35.30346],[139.23837,35.3043],[139.23812,35.30507],[139.23767,35.30614],[139.23688,35.30716],[139.23616,35.30708],[139.23645,35.30729],[139.23669,35.30801],[139.23706,35.30811],[139.23663,35.30987],[139.23666,35.3106],[139.23622,35.31071],[139.23635,35.31128],[139.23731,35.31158],[139.2374,35.31202],[139.23714,35.31249],[139.23753,35.3125],[139.23771,35.31292],[139.23744,35.31344],[139.23762,35.31414],[139.23816,35.31478],[139.238,35.31509],[139.23717,35.31565],[139.23556,35.31752],[139.23404,35.31824],[139.23385,35.3187],[139.23276,35.32002],[139.23229,35.32033],[139.23182,35.32026],[139.23126,35.31955],[139.23013,35.31883],[139.22949,35.3189],[139.22766,35.31829],[139.22615,35.31767],[139.22594,35.31717],[139.22609,35.31657],[139.22473,35.31768],[139.22413,35.31737],[139.22375,35.31718],[139.2241,35.31643],[139.22343,35.31621],[139.2233,35.31579],[139.22216,35.31575],[139.22076,35.31624],[139.21878,35.31619],[139.21802,35.31635],[139.21666,35.3169],[139.21628,35.31677],[139.21526,35.31694],[139.21276,35.31644],[139.21229,35.31554],[139.21287,35.31553],[139.21349,35.3152],[139.2123,35.31439],[139.21179,35.31428],[139.2112,35.31384],[139.21069,35.31397],[139.20967,35.31356],[139.20799,35.31329],[139.20763,35.31278],[139.20638,35.31197],[139.20517,35.31184],[139.2045,35.31129],[139.2038,35.31105],[139.20417,35.31022],[139.20334,35.30937],[139.20389,35.30859],[139.20343,35.30767],[139.20248,35.30841],[139.20233,35.30876],[139.20282,35.31003],[139.20307,35.31126],[139.20295,35.31191],[139.20203,35.31272],[139.20073,35.31348],[139.20009,35.31412],[139.19978,35.3148],[139.19999,35.31579],[139.19915,35.3161],[139.19893,35.31612],[139.19849,35.31632],[139.19835,35.31669],[139.19799,35.31693],[139.19704,35.31696],[139.19663,35.31709],[139.19589,35.31709],[139.19461,35.31739],[139.19287,35.31779],[139.19202,35.3182],[139.1914,35.31869],[139.19121,35.31898],[139.1905,35.3193],[139.18978,35.31965],[139.18945,35.31983],[139.18856,35.32081],[139.18839,35.321],[139.18719,35.32343],[139.18707,35.32346],[139.18695,35.32352],[139.18667,35.32379],[139.18653,35.32389],[139.18614,35.32405],[139.18581,35.32439],[139.18533,35.32486],[139.18486,35.3252],[139.18477,35.32527],[139.18448,35.32557],[139.18429,35.32588],[139.18414,35.32603],[139.18262,35.32729],[139.18233,35.32762],[139.18225,35.32813],[139.18185,35.32867],[139.18161,35.32885],[139.18041,35.32889],[139.18089,35.32945],[139.18086,35.32986],[139.18047,35.33002],[139.17975,35.32978],[139.17929,35.32949],[139.17891,35.32849],[139.17832,35.32827],[139.17727,35.32825],[139.17662,35.32762],[139.17463,35.32766],[139.17405,35.32731],[139.17335,35.32722],[139.17304,35.32676],[139.17198,35.32718],[139.17042,35.327],[139.17045,35.32646],[139.16997,35.32577],[139.16996,35.3253],[139.16956,35.32526],[139.16906,35.32459],[139.16966,35.32394],[139.16899,35.32341],[139.16923,35.32289],[139.16957,35.3229],[139.16918,35.32173],[139.16831,35.32124],[139.16808,35.32068],[139.16647,35.31996],[139.16646,35.31874],[139.16591,35.31875],[139.16555,35.31806],[139.16548,35.31704],[139.16566,35.31659],[139.16504,35.31652],[139.1645,35.31745],[139.16451,35.31899],[139.16398,35.31917],[139.1629,35.31874],[139.16335,35.31825],[139.16332,35.31781],[139.16171,35.31755],[139.16083,35.3173],[139.16054,35.31703],[139.16092,35.31631],[139.15912,35.31594],[139.15761,35.31528],[139.1577,35.31437],[139.15526,35.31383],[139.15578,35.31316],[139.14872,35.31355],[139.1474,35.31602],[139.14651,35.31776],[139.14596,35.3189],[139.14544,35.31963],[139.14401,35.32222],[139.14336,35.32327],[139.14281,35.32397],[139.14049,35.32268],[139.13988,35.32262],[139.13887,35.32303],[139.13868,35.32258],[139.13736,35.32239],[139.13687,35.32269],[139.13597,35.32281],[139.13623,35.32219],[139.13596,35.32201],[139.13613,35.32141],[139.13549,35.32126],[139.13572,35.32047],[139.1356,35.31939],[139.13504,35.31963],[139.13491,35.31966],[139.13447,35.31997],[139.1344,35.31944],[139.1337,35.31951],[139.13337,35.31958],[139.13258,35.31925],[139.1329,35.31839],[139.13053,35.31774],[139.13014,35.31831],[139.12965,35.31815],[139.12984,35.31771],[139.12913,35.31798],[139.129,35.31852],[139.12852,35.31869],[139.12927,35.31887],[139.12897,35.31913],[139.12814,35.31901],[139.12821,35.31864],[139.1278,35.3185],[139.12772,35.31817],[139.12796,35.31812],[139.12818,35.31768],[139.12846,35.31684],[139.12863,35.31618],[139.129,35.31631],[139.12919,35.31593],[139.12971,35.3157],[139.12991,35.31527],[139.13055,35.31548],[139.13008,35.31583],[139.12935,35.31593],[139.12962,35.31611],[139.12923,35.31681],[139.12864,35.3172],[139.12895,35.31736],[139.12849,35.31794],[139.12976,35.31764],[139.12993,35.31685],[139.13017,35.31688],[139.13005,35.31765],[139.13091,35.31646],[139.13152,35.31517],[139.13103,35.31498],[139.13186,35.31415],[139.13188,35.31373],[139.13257,35.31284],[139.13277,35.31208],[139.13351,35.31064],[139.13281,35.31024],[139.13294,35.30982],[139.13246,35.30995],[139.13194,35.30934],[139.13177,35.30806],[139.13214,35.30655],[139.13258,35.30527],[139.13243,35.3031],[139.13284,35.30222],[139.13228,35.30108],[139.13255,35.29998],[139.13313,35.2983],[139.1333,35.29754],[139.13313,35.29727],[139.13369,35.29646],[139.13417,35.29506],[139.13425,35.29475],[139.13463,35.29354],[139.13495,35.29292],[139.13453,35.2927],[139.13426,35.29175],[139.13467,35.29134],[139.13515,35.29161],[139.13569,35.29138],[139.13624,35.29169],[139.1378,35.29015],[139.13743,35.2899],[139.13756,35.28914],[139.13712,35.28891],[139.13602,35.28993],[139.13512,35.29038],[139.13447,35.29125],[139.13343,35.29193],[139.13217,35.29376],[139.13183,35.2937],[139.13154,35.29433],[139.13042,35.29444],[139.13025,35.29402],[139.13046,35.29316],[139.13042,35.29241],[139.13067,35.29172],[139.13206,35.29188],[139.13228,35.29105],[139.13255,35.29089],[139.13206,35.29062],[139.13135,35.28924],[139.13098,35.28898],[139.13079,35.28828],[139.13048,35.28847],[139.13021,35.28815],[139.12949,35.28836],[139.12885,35.28743],[139.12722,35.2872],[139.12549,35.28722],[139.12411,35.28771],[139.12327,35.28757],[139.12189,35.28701],[139.1218,35.28682],[139.12064,35.28636],[139.12038,35.28553],[139.12012,35.28538],[139.1205,35.28451],[139.12043,35.28379],[139.12085,35.28257],[139.12122,35.28201],[139.1221,35.28125],[139.12028,35.28139],[139.1189,35.28094],[139.11838,35.2802],[139.11572,35.27973],[139.11245,35.27935],[139.10971,35.27962],[139.10857,35.27998],[139.10676,35.28055],[139.10475,35.28092],[139.10283,35.28055],[139.10195,35.28051],[139.09955,35.28053],[139.09836,35.28007],[139.09672,35.27888],[139.09618,35.27878],[139.09272,35.27821],[139.09155,35.27794],[139.08984,35.27729],[139.08813,35.27586],[139.08752,35.2753],[139.08705,35.27594],[139.08592,35.27626],[139.0845,35.27569],[139.08249,35.27501],[139.07983,35.27439],[139.07837,35.2737],[139.07733,35.27304],[139.07636,35.27279],[139.07504,35.2727],[139.07376,35.27259],[139.07207,35.27209],[139.06978,35.27224],[139.06827,35.27229],[139.06702,35.27265],[139.06598,35.27281],[139.06334,35.272],[139.0606,35.27167],[139.06031,35.27063],[139.06018,35.26959],[139.06067,35.26757],[139.06203,35.26558],[139.0642,35.26035],[139.06414,35.25868],[139.06447,35.25713],[139.06499,35.25605],[139.06534,35.25595],[139.06693,35.25527],[139.06703,35.25434],[139.06578,35.25254],[139.06373,35.25076],[139.06165,35.24958],[139.05988,35.24804],[139.05998,35.24783],[139.06001,35.24743],[139.05961,35.2471],[139.05946,35.24675],[139.05985,35.24665],[139.06024,35.24547],[139.06049,35.24538],[139.06162,35.24584],[139.06236,35.24559],[139.06294,35.24493],[139.06405,35.24545],[139.06451,35.24527],[139.06454,35.24471],[139.06401,35.24372],[139.06425,35.24347],[139.06502,35.24374],[139.06601,35.24347],[139.06622,35.2431],[139.06622,35.24251],[139.06678,35.2422],[139.06703,35.24174],[139.06717,35.24109],[139.06785,35.24126],[139.06914,35.24123],[139.06988,35.24091],[139.06993,35.24051],[139.07043,35.24031],[139.07085,35.24032],[139.07144,35.24084],[139.07151,35.24146],[139.07217,35.24215],[139.07265,35.24202],[139.0733,35.24132],[139.07411,35.24093],[139.07445,35.24065],[139.07469,35.23999],[139.07494,35.23981],[139.07597,35.23981],[139.07672,35.23903],[139.07707,35.23889],[139.07795,35.23838],[139.07806,35.2379],[139.07817,35.23719],[139.07973,35.23642],[139.08069,35.23549],[139.08206,35.23535],[139.08278,35.23388],[139.08329,35.23385],[139.08456,35.23436],[139.08639,35.23532],[139.08848,35.23754],[139.08994,35.23908],[139.09027,35.24017],[139.08978,35.24207],[139.09034,35.24321],[139.0912,35.24349],[139.09402,35.24286],[139.09522,35.2424],[139.09626,35.24215],[139.09731,35.24215],[139.09795,35.24129],[139.09857,35.2407],[139.09886,35.24016],[139.09957,35.2394],[139.09999,35.23923],[139.10098,35.23954],[139.10167,35.23992],[139.10314,35.24013],[139.10546,35.23911],[139.10754,35.23892],[139.10888,35.23844],[139.11036,35.23873],[139.11113,35.23923],[139.11272,35.23905],[139.1134,35.23926],[139.11431,35.23979],[139.11516,35.23974],[139.11592,35.23943],[139.11704,35.23967],[139.1179,35.23962],[139.11869,35.24012],[139.11938,35.23944],[139.12081,35.24021],[139.12075,35.23946],[139.12,35.23865],[139.11941,35.23773],[139.11982,35.2375],[139.1192,35.23693],[139.11842,35.2367],[139.1189,35.23596],[139.11907,35.23521],[139.11862,35.23476],[139.11842,35.23409],[139.11784,35.23363],[139.11653,35.23306],[139.11505,35.23199],[139.11389,35.23214],[139.11438,35.23003],[139.11604,35.22808],[139.11512,35.22766],[139.11299,35.22745],[139.11099,35.22637],[139.10906,35.22607],[139.1076,35.22634],[139.10601,35.22622],[139.10486,35.22597],[139.10378,35.2255],[139.10171,35.22437],[139.10014,35.22366],[139.09834,35.22265],[139.09647,35.22197],[139.09459,35.22141],[139.09449,35.22067],[139.09387,35.22025],[139.09076,35.21906],[139.09048,35.21795],[139.09019,35.21743],[139.08941,35.21672],[139.08862,35.21629],[139.08765,35.21609],[139.08744,35.21586],[139.08728,35.21427],[139.08761,35.21306],[139.08741,35.21192],[139.08741,35.21114],[139.08669,35.21065],[139.08669,35.20918],[139.08598,35.2086],[139.08418,35.20812],[139.08392,35.20731],[139.08394,35.20663],[139.0835,35.20582],[139.08433,35.2049],[139.08385,35.2039],[139.08243,35.20271],[139.08184,35.20274],[139.08101,35.20243],[139.08005,35.20233],[139.08028,35.20163],[139.08128,35.20084],[139.08061,35.19957],[139.07938,35.19927],[139.07882,35.19928],[139.07808,35.19897],[139.07759,35.19863],[139.07742,35.19832],[139.07748,35.19713],[139.07788,35.19666],[139.0786,35.19631],[139.08042,35.19593],[139.08167,35.19552],[139.0823,35.19508],[139.08408,35.19432],[139.08485,35.19401],[139.08561,35.19404],[139.08732,35.19353],[139.08816,35.19348],[139.09006,35.19366],[139.09101,35.19318],[139.09241,35.19174],[139.09253,35.19142],[139.09241,35.19016],[139.09267,35.18973],[139.09357,35.18965],[139.0948,35.18926],[139.09562,35.18889],[139.09665,35.18891],[139.09715,35.18884],[139.09773,35.18844],[139.0983,35.18784],[139.10023,35.18804],[139.10128,35.1877],[139.1022,35.1871],[139.10321,35.1867],[139.10394,35.18647],[139.10605,35.1866],[139.10884,35.18645],[139.11009,35.18618],[139.11115,35.18579],[139.11236,35.18517],[139.11357,35.18494],[139.11551,35.18495],[139.11742,35.18442],[139.11891,35.18378],[139.12061,35.1835],[139.12217,35.18293],[139.12301,35.18247],[139.12507,35.18186],[139.12555,35.18156],[139.1256,35.18056],[139.12642,35.18005],[139.12702,35.17997],[139.12713,35.18007],[139.12891,35.17876],[139.13011,35.17819],[139.13083,35.17803],[139.13154,35.17819],[139.13318,35.17819],[139.13441,35.17796],[139.13557,35.17816],[139.13681,35.17869],[139.13689,35.17958],[139.13626,35.18075],[139.1361,35.18251],[139.1368,35.18465],[139.13793,35.18566],[139.13839,35.18586],[139.13969,35.18716],[139.14021,35.18806],[139.14035,35.18901],[139.14011,35.19004],[139.1394,35.19056],[139.13855,35.19166],[139.13828,35.19153],[139.13791,35.19196],[139.13786,35.19266],[139.13859,35.19432],[139.1384,35.19547],[139.13855,35.196],[139.13875,35.19691],[139.13832,35.19873],[139.13849,35.19975],[139.14014,35.2012],[139.14141,35.20336],[139.14177,35.20359],[139.14127,35.20386],[139.14125,35.20456],[139.14175,35.20568],[139.14195,35.20685],[139.14234,35.20827],[139.1428,35.20879],[139.14239,35.20895],[139.14256,35.20965],[139.14309,35.21016],[139.14254,35.21055],[139.14218,35.21126],[139.14235,35.21167],[139.14201,35.2119],[139.14189,35.21269],[139.14202,35.21322],[139.14244,35.21347],[139.14236,35.21518],[139.14181,35.21516],[139.14172,35.21561],[139.1422,35.21626],[139.14264,35.21626],[139.14264,35.21669],[139.14319,35.21684],[139.14284,35.2172],[139.14286,35.21883],[139.14322,35.21903],[139.14284,35.21953],[139.14301,35.22049],[139.14271,35.22065],[139.14265,35.22126],[139.14287,35.22162],[139.1429,35.22245],[139.14266,35.22358],[139.14211,35.22468],[139.1422,35.22583],[139.14283,35.22643],[139.14333,35.22763],[139.14306,35.22878],[139.14278,35.22949],[139.14306,35.23092],[139.14292,35.23138],[139.14351,35.23283],[139.14436,35.23386],[139.14508,35.23456],[139.1457,35.23543],[139.14662,35.23627],[139.14697,35.23605],[139.1486,35.23775],[139.14843,35.23776],[139.14693,35.2362],[139.14625,35.23662],[139.14705,35.23748],[139.14795,35.23862],[139.14825,35.23863],[139.14645,35.23971],[139.14774,35.24088],[139.14869,35.24026],[139.14792,35.23947],[139.14863,35.23907],[139.14936,35.23941],[139.14962,35.23879],[139.1498,35.2394],[139.15179,35.24062],[139.15464,35.24213],[139.15642,35.24301],[139.15795,35.24399],[139.15907,35.24492],[139.16029,35.24574],[139.16126,35.24659],[139.16283,35.24771],[139.16468,35.24895],[139.16723,35.25085],[139.17077,35.25372],[139.17142,35.2541]],[[139.14279,35.25502],[139.1425,35.25538],[139.14279,35.25508],[139.14425,35.25616],[139.14279,35.25502]],[[139.15076,35.26102],[139.15083,35.26116],[139.15086,35.26109],[139.15076,35.26102]],[[139.15486,35.27827],[139.15504,35.2798],[139.15513,35.27976],[139.15486,35.27827]],[[139.16286,35.27522],[139.16336,35.27468],[139.16338,35.27466],[139.16331,35.27473],[139.16286,35.27522]],[[139.14509,35.25757],[139.14554,35.25762],[139.14551,35.25756],[139.14509,35.25757]]],[[[139.15471,35.27729],[139.15479,35.27784],[139.15481,35.27803],[139.15471,35.27729]]]]}},{"type":"Feature","properties":{"nm":"南足柄市","b":[139.0046,35.2717,139.1378,35.3522],"c":[139.07003,35.3101]},"geometry":{"type":"Polygon","coordinates":[[[139.04395,35.28185],[139.04483,35.28179],[139.04554,35.28202],[139.0458,35.28169],[139.04649,35.28157],[139.04818,35.28154],[139.04944,35.28117],[139.04992,35.28053],[139.05075,35.28018],[139.05183,35.27937],[139.05264,35.2783],[139.05315,35.27709],[139.05423,35.27679],[139.05418,35.2763],[139.05493,35.27547],[139.05533,35.27489],[139.05636,35.27409],[139.05672,35.27396],[139.05774,35.27361],[139.05825,35.27321],[139.05895,35.27236],[139.06011,35.27189],[139.0606,35.27167],[139.06334,35.272],[139.06598,35.27281],[139.06702,35.27265],[139.06827,35.27229],[139.06978,35.27224],[139.07207,35.27209],[139.07376,35.27259],[139.07504,35.2727],[139.07636,35.27279],[139.07733,35.27304],[139.07837,35.2737],[139.07983,35.27439],[139.08249,35.27501],[139.0845,35.27569],[139.08592,35.27626],[139.08705,35.27594],[139.08752,35.2753],[139.08813,35.27586],[139.08984,35.27729],[139.09155,35.27794],[139.09272,35.27821],[139.09618,35.27878],[139.09672,35.27888],[139.09836,35.28007],[139.09955,35.28053],[139.10195,35.28051],[139.10283,35.28055],[139.10475,35.28092],[139.10676,35.28055],[139.10793,35.28024],[139.10857,35.27998],[139.10971,35.27962],[139.11245,35.27935],[139.11572,35.27973],[139.11838,35.2802],[139.1189,35.28094],[139.12028,35.28139],[139.1221,35.28125],[139.12122,35.28201],[139.12085,35.28257],[139.12043,35.28379],[139.1205,35.28451],[139.12012,35.28538],[139.12038,35.28553],[139.12064,35.28636],[139.1218,35.28682],[139.12189,35.28701],[139.12327,35.28757],[139.12411,35.28771],[139.12549,35.28722],[139.12722,35.2872],[139.12885,35.28743],[139.12949,35.28836],[139.13021,35.28815],[139.13048,35.28847],[139.13079,35.28828],[139.13098,35.28898],[139.13135,35.28924],[139.13206,35.29062],[139.13255,35.29089],[139.13228,35.29105],[139.13206,35.29188],[139.13067,35.29172],[139.13042,35.29241],[139.13046,35.29316],[139.13025,35.29402],[139.13042,35.29444],[139.13154,35.29433],[139.13183,35.2937],[139.13217,35.29376],[139.13343,35.29193],[139.13447,35.29125],[139.13512,35.29038],[139.13602,35.28993],[139.13712,35.28891],[139.13756,35.28914],[139.13743,35.2899],[139.1378,35.29015],[139.13624,35.29169],[139.13569,35.29138],[139.13515,35.29161],[139.13467,35.29134],[139.13426,35.29175],[139.13453,35.2927],[139.13495,35.29292],[139.13463,35.29354],[139.13425,35.29475],[139.13417,35.29506],[139.13369,35.29646],[139.13313,35.29727],[139.1333,35.29754],[139.13313,35.2983],[139.13255,35.29998],[139.13228,35.30108],[139.13284,35.30222],[139.13243,35.3031],[139.13258,35.30527],[139.13214,35.30655],[139.13177,35.30806],[139.13194,35.30934],[139.13246,35.30995],[139.13294,35.30982],[139.13281,35.31024],[139.13351,35.31064],[139.13277,35.31208],[139.13257,35.31284],[139.13188,35.31373],[139.13186,35.31415],[139.13103,35.31498],[139.13152,35.31517],[139.13091,35.31646],[139.13005,35.31765],[139.13017,35.31688],[139.12993,35.31685],[139.12976,35.31764],[139.12849,35.31794],[139.12895,35.31736],[139.12864,35.3172],[139.12923,35.31681],[139.12962,35.31611],[139.12935,35.31593],[139.13008,35.31583],[139.13055,35.31548],[139.12991,35.31527],[139.12971,35.3157],[139.12919,35.31593],[139.129,35.31631],[139.12863,35.31618],[139.12846,35.31684],[139.12818,35.31768],[139.12796,35.31812],[139.12772,35.31817],[139.12692,35.3184],[139.12585,35.31834],[139.12515,35.31863],[139.12479,35.31878],[139.12429,35.319],[139.12445,35.31952],[139.12419,35.3198],[139.12399,35.31944],[139.12334,35.31931],[139.12234,35.3197],[139.12173,35.31956],[139.12123,35.31998],[139.12037,35.32168],[139.12084,35.32178],[139.12074,35.32235],[139.12067,35.3231],[139.12052,35.32371],[139.12094,35.32415],[139.12077,35.32451],[139.12029,35.32531],[139.12026,35.3254],[139.12024,35.32549],[139.1202,35.32561],[139.12027,35.32563],[139.12039,35.32566],[139.12042,35.32567],[139.1202,35.32588],[139.11996,35.32599],[139.11982,35.32611],[139.11951,35.32628],[139.11927,35.32676],[139.11879,35.32699],[139.11855,35.32726],[139.11831,35.32778],[139.11812,35.32832],[139.11807,35.32838],[139.1179,35.32849],[139.11784,35.32854],[139.11775,35.32876],[139.11754,35.32904],[139.1174,35.32918],[139.11735,35.32939],[139.11765,35.32946],[139.11764,35.32951],[139.11758,35.3296],[139.11753,35.32991],[139.11744,35.33011],[139.11739,35.33023],[139.11733,35.33036],[139.1173,35.33042],[139.11725,35.33053],[139.11723,35.33058],[139.11719,35.33066],[139.11717,35.3307],[139.11725,35.33083],[139.11717,35.33107],[139.11692,35.3321],[139.1169,35.33219],[139.11688,35.33236],[139.11666,35.33285],[139.1165,35.33386],[139.11649,35.33433],[139.11587,35.33499],[139.11519,35.33706],[139.11448,35.33867],[139.11404,35.33857],[139.11366,35.33903],[139.1122,35.33933],[139.11152,35.33968],[139.11024,35.33979],[139.11001,35.33963],[139.1096,35.34002],[139.10806,35.3423],[139.10775,35.3422],[139.10683,35.34397],[139.10677,35.34433],[139.10652,35.34488],[139.10687,35.34503],[139.10779,35.3459],[139.11058,35.34926],[139.11079,35.34931],[139.11135,35.35032],[139.111,35.35035],[139.11187,35.35132],[139.11223,35.35199],[139.11038,35.35218],[139.10578,35.35219],[139.10322,35.35183],[139.10196,35.35136],[139.1006,35.35039],[139.09984,35.34967],[139.09828,35.34781],[139.09771,35.34731],[139.09733,35.34682],[139.09725,35.34692],[139.09644,35.34641],[139.09542,35.34625],[139.09472,35.34636],[139.09366,35.34678],[139.09305,35.34776],[139.09246,35.34918],[139.09147,35.35096],[139.0906,35.35122],[139.08973,35.35087],[139.08773,35.3492],[139.08674,35.34871],[139.0845,35.34892],[139.08368,35.3492],[139.08336,35.34959],[139.08288,35.35085],[139.08139,35.35071],[139.08079,35.35054],[139.07882,35.35026],[139.07705,35.34966],[139.07496,35.3493],[139.07325,35.34943],[139.07242,35.34858],[139.07217,35.34795],[139.07134,35.34723],[139.07004,35.34733],[139.06906,35.34711],[139.06751,35.34746],[139.0661,35.34711],[139.06602,35.34781],[139.06505,35.34816],[139.06415,35.34814],[139.06335,35.34842],[139.06294,35.34899],[139.06181,35.3493],[139.06119,35.34993],[139.06087,35.35056],[139.0601,35.35112],[139.05917,35.35149],[139.05852,35.35149],[139.05648,35.35204],[139.05543,35.35185],[139.05495,35.35123],[139.05361,35.35136],[139.05315,35.35104],[139.05306,35.35037],[139.05202,35.35023],[139.05109,35.35035],[139.05015,35.34978],[139.05002,35.34898],[139.0492,35.34921],[139.04921,35.34872],[139.04982,35.3477],[139.04934,35.34621],[139.04944,35.34578],[139.0487,35.34479],[139.04762,35.34413],[139.04588,35.3437],[139.04501,35.34311],[139.04347,35.34251],[139.04249,35.34247],[139.04178,35.34226],[139.04098,35.34228],[139.03988,35.3426],[139.03903,35.34262],[139.03677,35.34196],[139.03599,35.34057],[139.03518,35.34004],[139.03453,35.33935],[139.03349,35.33871],[139.03273,35.33752],[139.03077,35.33722],[139.02994,35.33637],[139.0305,35.33526],[139.03077,35.33419],[139.0319,35.33236],[139.03159,35.33219],[139.03127,35.33222],[139.0302,35.33221],[139.02925,35.33205],[139.02874,35.33197],[139.02847,35.33199],[139.02823,35.33196],[139.0278,35.33166],[139.02764,35.33145],[139.02746,35.3312],[139.02731,35.33108],[139.02674,35.33098],[139.02644,35.33102],[139.02603,35.33108],[139.02493,35.33105],[139.02423,35.33135],[139.02338,35.33125],[139.02293,35.33145],[139.0225,35.33143],[139.02197,35.33131],[139.02174,35.33128],[139.02152,35.33128],[139.02089,35.33095],[139.02027,35.3309],[139.01923,35.33065],[139.01895,35.33018],[139.01854,35.32995],[139.0189,35.32952],[139.01902,35.32892],[139.01854,35.3282],[139.01807,35.32617],[139.01668,35.32434],[139.01648,35.32366],[139.01649,35.32261],[139.01546,35.3213],[139.01496,35.32092],[139.01215,35.31921],[139.01224,35.31712],[139.01141,35.31641],[139.0107,35.31511],[139.00993,35.31442],[139.00974,35.3137],[139.00927,35.3133],[139.00971,35.31243],[139.00971,35.3117],[139.01077,35.3103],[139.01011,35.3095],[139.00975,35.30766],[139.00931,35.30699],[139.00925,35.30552],[139.00859,35.30466],[139.00837,35.30398],[139.00824,35.30276],[139.00773,35.30147],[139.00714,35.30055],[139.00612,35.2981],[139.00696,35.29596],[139.00461,35.29277],[139.00493,35.2902],[139.00487,35.28986],[139.00507,35.28949],[139.00559,35.28938],[139.0063,35.28908],[139.00674,35.28856],[139.00735,35.28741],[139.00803,35.28643],[139.0084,35.28643],[139.00916,35.28546],[139.00991,35.28504],[139.01008,35.2832],[139.01045,35.28314],[139.01083,35.28235],[139.01084,35.28174],[139.01172,35.28233],[139.01341,35.28156],[139.01368,35.28157],[139.01484,35.28121],[139.01595,35.28133],[139.01626,35.28122],[139.01675,35.28001],[139.01733,35.2794],[139.0175,35.27922],[139.01849,35.27915],[139.01899,35.2791],[139.02004,35.27869],[139.02131,35.27894],[139.02215,35.2787],[139.0228,35.27852],[139.02318,35.27864],[139.0243,35.27791],[139.02438,35.27755],[139.02564,35.27768],[139.02744,35.27666],[139.02834,35.27635],[139.0293,35.27552],[139.02957,35.27553],[139.03008,35.27532],[139.0308,35.27588],[139.03191,35.27601],[139.03252,35.2762],[139.03268,35.27591],[139.03317,35.27554],[139.0338,35.27573],[139.03438,35.27645],[139.03448,35.27652],[139.03501,35.27629],[139.03537,35.27645],[139.03556,35.27676],[139.03602,35.27725],[139.03624,35.27799],[139.03675,35.27815],[139.03743,35.27825],[139.03771,35.2784],[139.03851,35.2786],[139.03982,35.27868],[139.04033,35.27925],[139.04127,35.2795],[139.04166,35.27948],[139.04207,35.27951],[139.04311,35.27997],[139.04357,35.28082],[139.04395,35.28185]],[[139.10549,35.31681],[139.10516,35.31686],[139.10504,35.31688],[139.10549,35.31681]],[[139.1124,35.30749],[139.11222,35.30756],[139.11193,35.30781],[139.1124,35.30749]],[[139.11473,35.30959],[139.11474,35.30938],[139.11469,35.30944],[139.11473,35.30959]],[[139.11443,35.30825],[139.11446,35.30801],[139.11439,35.30804],[139.11443,35.30825]],[[139.09849,35.34721],[139.09877,35.34736],[139.09859,35.34726],[139.09849,35.34721]],[[139.10054,35.34258],[139.10062,35.34299],[139.10054,35.34253],[139.10054,35.34258]],[[139.11035,35.29859],[139.11023,35.29853],[139.1102,35.29866],[139.11035,35.29859]]]}},{"type":"Feature","properties":{"nm":"大井町","b":[139.1353,35.3132,139.1969,35.3598],"c":[139.1652,35.33499]},"geometry":{"type":"Polygon","coordinates":[[[139.18185,35.32867],[139.18225,35.32813],[139.18233,35.32762],[139.18262,35.32729],[139.18414,35.32603],[139.18429,35.32588],[139.18448,35.32557],[139.18477,35.32527],[139.18486,35.3252],[139.18533,35.32486],[139.18581,35.32439],[139.18614,35.32405],[139.18653,35.32389],[139.18667,35.32379],[139.18695,35.32352],[139.18704,35.32348],[139.18735,35.32361],[139.18759,35.32369],[139.18934,35.32391],[139.19002,35.32457],[139.19006,35.32497],[139.19058,35.32548],[139.19197,35.32644],[139.19276,35.32756],[139.19292,35.32808],[139.1934,35.3284],[139.19379,35.32914],[139.19315,35.32965],[139.19201,35.33178],[139.19184,35.33283],[139.19246,35.33507],[139.19224,35.33563],[139.19179,35.3358],[139.19006,35.3352],[139.18962,35.3349],[139.18953,35.33557],[139.19001,35.33603],[139.1906,35.33609],[139.19016,35.3367],[139.19057,35.33704],[139.18996,35.33899],[139.19042,35.33944],[139.19107,35.33936],[139.19152,35.33961],[139.19227,35.3406],[139.19284,35.3416],[139.19271,35.34161],[139.1932,35.34175],[139.19357,35.34194],[139.19396,35.3419],[139.19406,35.34179],[139.19406,35.34171],[139.19399,35.34144],[139.19415,35.34115],[139.19454,35.34127],[139.19485,35.3414],[139.19507,35.34152],[139.19578,35.34142],[139.19605,35.34188],[139.19668,35.34213],[139.1969,35.3428],[139.19668,35.34316],[139.19608,35.34309],[139.19533,35.34267],[139.19518,35.34295],[139.19563,35.3437],[139.19496,35.343],[139.19388,35.34293],[139.19273,35.34485],[139.19151,35.34486],[139.19063,35.34531],[139.18998,35.34539],[139.18933,35.34598],[139.18896,35.34603],[139.18871,35.34658],[139.18784,35.34665],[139.18742,35.34733],[139.1874,35.34846],[139.18693,35.34927],[139.18659,35.35025],[139.18555,35.35121],[139.18533,35.35085],[139.18507,35.3503],[139.18487,35.3498],[139.18434,35.34934],[139.18384,35.3491],[139.18304,35.34864],[139.18246,35.34793],[139.18237,35.34759],[139.18235,35.34742],[139.18244,35.34708],[139.18224,35.34665],[139.18088,35.34618],[139.18007,35.3459],[139.17945,35.34622],[139.17898,35.34694],[139.178,35.34703],[139.17764,35.3472],[139.1775,35.3475],[139.17737,35.34789],[139.17713,35.34882],[139.17717,35.34911],[139.17712,35.3492],[139.17696,35.34942],[139.17648,35.34995],[139.176,35.35018],[139.17584,35.3503],[139.17572,35.35046],[139.17569,35.3505],[139.17551,35.3507],[139.17543,35.35086],[139.17493,35.3509],[139.17465,35.35093],[139.17438,35.35097],[139.17423,35.35102],[139.17389,35.35126],[139.17368,35.35152],[139.17356,35.35162],[139.17345,35.35181],[139.17332,35.3521],[139.17327,35.35252],[139.1732,35.35289],[139.17317,35.35297],[139.17296,35.35344],[139.17276,35.35362],[139.17253,35.35405],[139.17257,35.35428],[139.17271,35.35467],[139.17264,35.35502],[139.17246,35.35538],[139.17243,35.35543],[139.1721,35.35593],[139.17199,35.35697],[139.17141,35.35757],[139.17087,35.35866],[139.17028,35.35928],[139.17012,35.3598],[139.17,35.35974],[139.1698,35.3594],[139.16976,35.35937],[139.16966,35.35922],[139.16965,35.35921],[139.16929,35.35882],[139.16899,35.35859],[139.16886,35.35844],[139.16851,35.35828],[139.16843,35.3583],[139.16821,35.3583],[139.16807,35.35833],[139.16789,35.3585],[139.16745,35.35841],[139.16733,35.35835],[139.16692,35.35814],[139.1668,35.35814],[139.16596,35.35825],[139.16583,35.35817],[139.16552,35.35809],[139.1651,35.35774],[139.16494,35.35747],[139.1648,35.35731],[139.16465,35.35731],[139.16445,35.35727],[139.163,35.35657],[139.16261,35.35667],[139.16242,35.3567],[139.16188,35.3567],[139.16152,35.35681],[139.1615,35.35669],[139.1618,35.35609],[139.16183,35.35559],[139.16217,35.35518],[139.16236,35.35489],[139.16178,35.3545],[139.162,35.35385],[139.16142,35.35338],[139.16118,35.35328],[139.16073,35.3532],[139.16046,35.35319],[139.1602,35.35299],[139.16017,35.35268],[139.16017,35.35253],[139.16031,35.35234],[139.16053,35.35183],[139.16062,35.35159],[139.16077,35.35088],[139.16074,35.35082],[139.16099,35.35087],[139.16123,35.35089],[139.16127,35.35059],[139.16159,35.35033],[139.16231,35.34941],[139.16216,35.34926],[139.16193,35.34858],[139.1609,35.34815],[139.16076,35.34779],[139.16077,35.34764],[139.16023,35.34667],[139.15991,35.34649],[139.15961,35.34613],[139.15939,35.34574],[139.15918,35.34591],[139.15857,35.34567],[139.15824,35.34596],[139.15764,35.34603],[139.15411,35.34552],[139.15339,35.34542],[139.15282,35.34557],[139.1519,35.34544],[139.15088,35.34506],[139.1507,35.34458],[139.1495,35.34435],[139.14943,35.34419],[139.14826,35.34368],[139.14719,35.34212],[139.14718,35.34166],[139.14658,35.34122],[139.14588,35.34039],[139.14541,35.33953],[139.14488,35.33966],[139.14469,35.33924],[139.14386,35.33867],[139.14303,35.33848],[139.14198,35.33784],[139.14107,35.33753],[139.14052,35.33781],[139.13953,35.33704],[139.13897,35.33767],[139.13838,35.33718],[139.1373,35.33656],[139.13531,35.33618],[139.13564,35.33531],[139.13661,35.33273],[139.13741,35.33135],[139.13926,35.32844],[139.14125,35.32574],[139.14187,35.32521],[139.14231,35.32458],[139.14281,35.32397],[139.14336,35.32327],[139.14401,35.32222],[139.14544,35.31963],[139.14596,35.3189],[139.14651,35.31776],[139.1474,35.31602],[139.14872,35.31355],[139.15578,35.31316],[139.15526,35.31383],[139.1577,35.31437],[139.15761,35.31528],[139.15912,35.31594],[139.16092,35.31631],[139.16054,35.31703],[139.16083,35.3173],[139.16171,35.31755],[139.16332,35.31781],[139.16335,35.31825],[139.1629,35.31874],[139.16398,35.31917],[139.16451,35.31899],[139.1645,35.31745],[139.16504,35.31652],[139.16566,35.31659],[139.16548,35.31704],[139.16555,35.31806],[139.16591,35.31875],[139.16646,35.31874],[139.16647,35.31996],[139.16808,35.32068],[139.16831,35.32124],[139.16918,35.32173],[139.16957,35.3229],[139.16923,35.32289],[139.16899,35.32341],[139.16966,35.32394],[139.16906,35.32459],[139.16956,35.32526],[139.16996,35.3253],[139.16997,35.32577],[139.17045,35.32646],[139.17042,35.327],[139.17198,35.32718],[139.17304,35.32676],[139.17335,35.32722],[139.17405,35.32731],[139.17463,35.32766],[139.17662,35.32762],[139.17727,35.32825],[139.17832,35.32827],[139.17891,35.32849],[139.17929,35.32949],[139.17975,35.32978],[139.18047,35.33002],[139.18086,35.32986],[139.18089,35.32945],[139.18041,35.32889],[139.18161,35.32885],[139.18185,35.32867]],[[139.1835,35.34104],[139.1838,35.34113],[139.18423,35.34101],[139.1835,35.34104]],[[139.14738,35.32522],[139.14706,35.32513],[139.14731,35.32537],[139.14738,35.32522]]]}},{"type":"Feature","properties":{"nm":"松田町","b":[139.0987,35.3362,139.1624,35.4458],"c":[139.13063,35.39221]},"geometry":{"type":"MultiPolygon","coordinates":[[[[139.12599,35.34656],[139.1292,35.3447],[139.12824,35.34553],[139.12613,35.34671],[139.12599,35.34656]]],[[[139.13151,35.34492],[139.13184,35.34463],[139.13368,35.34101],[139.13475,35.33866],[139.13478,35.3386],[139.13507,35.33793],[139.13531,35.33618],[139.1373,35.33656],[139.13838,35.33718],[139.13897,35.33767],[139.13953,35.33704],[139.14052,35.33781],[139.14107,35.33753],[139.14198,35.33784],[139.14303,35.33848],[139.14386,35.33867],[139.14469,35.33924],[139.14488,35.33966],[139.14541,35.33953],[139.14588,35.34039],[139.14658,35.34122],[139.14718,35.34166],[139.14719,35.34212],[139.14826,35.34368],[139.14943,35.34419],[139.1495,35.34435],[139.1507,35.34458],[139.15088,35.34506],[139.1519,35.34544],[139.15282,35.34557],[139.15339,35.34542],[139.15411,35.34552],[139.15764,35.34603],[139.15824,35.34596],[139.15857,35.34567],[139.15918,35.34591],[139.15961,35.34613],[139.15991,35.34649],[139.16023,35.34667],[139.16077,35.34764],[139.16076,35.34779],[139.1609,35.34815],[139.16193,35.34858],[139.16216,35.34926],[139.16231,35.34941],[139.16159,35.35033],[139.16127,35.35059],[139.16123,35.35089],[139.16099,35.35087],[139.16074,35.35082],[139.16077,35.35088],[139.16062,35.35159],[139.16053,35.35183],[139.16031,35.35234],[139.16017,35.35253],[139.16017,35.35268],[139.1602,35.35299],[139.16046,35.35319],[139.16073,35.3532],[139.16118,35.35328],[139.16142,35.35338],[139.162,35.35385],[139.16178,35.3545],[139.16236,35.35489],[139.16217,35.35518],[139.16183,35.35559],[139.1618,35.35609],[139.1615,35.35669],[139.16137,35.35671],[139.16023,35.35633],[139.15977,35.35629],[139.15911,35.35651],[139.15875,35.35627],[139.1583,35.35655],[139.15829,35.35696],[139.15866,35.35707],[139.15942,35.35745],[139.15968,35.35898],[139.15877,35.3602],[139.15887,35.3607],[139.1591,35.36121],[139.15895,35.36155],[139.15876,35.36211],[139.15784,35.36356],[139.15698,35.36421],[139.15776,35.3648],[139.15684,35.36552],[139.15726,35.36584],[139.1561,35.36659],[139.15426,35.3675],[139.15367,35.3688],[139.15223,35.36979],[139.15157,35.37089],[139.14969,35.37237],[139.14918,35.37286],[139.14881,35.37392],[139.1484,35.3743],[139.14817,35.37558],[139.14748,35.37616],[139.14733,35.37661],[139.14648,35.37799],[139.14521,35.37884],[139.14463,35.37938],[139.14464,35.3803],[139.14404,35.38196],[139.14444,35.38264],[139.14458,35.38355],[139.14517,35.384],[139.14588,35.38533],[139.14575,35.38659],[139.1451,35.38791],[139.14461,35.38859],[139.14472,35.38892],[139.14639,35.38939],[139.14711,35.38985],[139.148,35.3902],[139.14855,35.39101],[139.14948,35.39144],[139.15025,35.39183],[139.15137,35.39348],[139.15179,35.39429],[139.15055,35.39554],[139.15049,35.39585],[139.14883,35.39952],[139.14912,35.40089],[139.14935,35.40108],[139.1493,35.40131],[139.14997,35.40342],[139.15,35.40447],[139.14944,35.40491],[139.14838,35.40524],[139.14695,35.40626],[139.14631,35.40703],[139.14615,35.40781],[139.14604,35.40878],[139.14561,35.40968],[139.14565,35.4106],[139.14683,35.4125],[139.14758,35.41352],[139.14793,35.41425],[139.14735,35.41582],[139.14747,35.41675],[139.14719,35.41777],[139.14727,35.41857],[139.148,35.41934],[139.14836,35.42019],[139.14828,35.42133],[139.14708,35.42258],[139.14659,35.42487],[139.14672,35.42616],[139.14562,35.42735],[139.14526,35.42983],[139.14392,35.43099],[139.14347,35.43182],[139.14312,35.43368],[139.14254,35.43448],[139.14172,35.4352],[139.14146,35.4362],[139.14162,35.43722],[139.14217,35.43893],[139.14224,35.4399],[139.14163,35.44096],[139.14138,35.44254],[139.14155,35.44422],[139.14015,35.44431],[139.13988,35.44505],[139.13941,35.4452],[139.13861,35.44498],[139.1369,35.44562],[139.13535,35.44468],[139.1337,35.44504],[139.13296,35.44525],[139.13164,35.44515],[139.13052,35.44578],[139.12973,35.44581],[139.12774,35.44498],[139.12664,35.4441],[139.12765,35.44213],[139.12729,35.441],[139.124,35.43845],[139.12372,35.43774],[139.12164,35.43754],[139.12061,35.43689],[139.11929,35.43681],[139.11749,35.43535],[139.11567,35.43208],[139.11408,35.43011],[139.11237,35.42978],[139.11033,35.4283],[139.10916,35.42816],[139.10825,35.42694],[139.10576,35.42655],[139.10531,35.42596],[139.10564,35.42503],[139.10525,35.42406],[139.10541,35.423],[139.10496,35.42251],[139.10191,35.42014],[139.10149,35.41972],[139.10102,35.41847],[139.10122,35.41618],[139.10094,35.41515],[139.10201,35.41407],[139.10279,35.41382],[139.1032,35.4126],[139.10558,35.40916],[139.10406,35.40784],[139.10094,35.40655],[139.1,35.40567],[139.10031,35.40437],[139.101,35.40303],[139.10124,35.4018],[139.10112,35.4006],[139.09929,35.39686],[139.09972,35.39483],[139.0997,35.39351],[139.09872,35.39207],[139.10075,35.38897],[139.10173,35.38846],[139.10336,35.38763],[139.10684,35.38669],[139.1105,35.38462],[139.11114,35.38394],[139.11424,35.38402],[139.11625,35.38222],[139.11712,35.38188],[139.1216,35.38059],[139.12271,35.37766],[139.12479,35.37706],[139.12506,35.3772],[139.12733,35.37639],[139.1291,35.37462],[139.12939,35.37409],[139.12911,35.3738],[139.12864,35.37441],[139.12661,35.37446],[139.12577,35.37412],[139.12439,35.37434],[139.12388,35.37271],[139.12451,35.37179],[139.12467,35.37107],[139.12352,35.37023],[139.12384,35.36955],[139.12337,35.36766],[139.12377,35.3667],[139.12364,35.36581],[139.12376,35.36526],[139.12306,35.36502],[139.12249,35.36252],[139.12163,35.36165],[139.11965,35.36088],[139.11911,35.35938],[139.1174,35.35858],[139.11604,35.35806],[139.11531,35.35719],[139.1152,35.35615],[139.11486,35.35504],[139.11496,35.35439],[139.11468,35.35352],[139.1144,35.35195],[139.11678,35.3517],[139.11819,35.35129],[139.12581,35.34836],[139.1273,35.34769],[139.12912,35.34682],[139.13007,35.34618],[139.13151,35.34492]],[[139.14937,35.34744],[139.14892,35.34753],[139.14901,35.3478],[139.14937,35.34744]]],[[[139.11785,35.3501],[139.11511,35.35086],[139.11391,35.35103],[139.11384,35.35083],[139.12167,35.34857],[139.11785,35.3501]]]]}},{"type":"Feature","properties":{"nm":"山北町","b":[138.9155,35.3299,139.166,35.5105],"c":[139.04518,35.42496]},"geometry":{"type":"Polygon","coordinates":[[[139.11223,35.35199],[139.11234,35.35208],[139.1144,35.35195],[139.11468,35.35352],[139.11496,35.35439],[139.11486,35.35504],[139.1152,35.35615],[139.11531,35.35719],[139.11604,35.35806],[139.1174,35.35858],[139.11911,35.35938],[139.11965,35.36088],[139.12163,35.36165],[139.12249,35.36252],[139.12306,35.36502],[139.12376,35.36526],[139.12364,35.36581],[139.12377,35.3667],[139.12337,35.36766],[139.12384,35.36955],[139.12352,35.37023],[139.12467,35.37107],[139.12451,35.37179],[139.12388,35.37271],[139.12439,35.37434],[139.12577,35.37412],[139.12661,35.37446],[139.12864,35.37441],[139.12911,35.3738],[139.12939,35.37409],[139.1291,35.37462],[139.12733,35.37639],[139.12506,35.3772],[139.12479,35.37706],[139.12271,35.37766],[139.1216,35.38059],[139.11712,35.38188],[139.11625,35.38222],[139.11424,35.38402],[139.11114,35.38394],[139.1105,35.38462],[139.10684,35.38669],[139.10336,35.38763],[139.10173,35.38846],[139.10075,35.38897],[139.09872,35.39207],[139.0997,35.39351],[139.09972,35.39483],[139.09929,35.39686],[139.10112,35.4006],[139.10124,35.4018],[139.101,35.40303],[139.10031,35.40437],[139.1,35.40567],[139.10094,35.40655],[139.10406,35.40784],[139.10558,35.40916],[139.1032,35.4126],[139.10279,35.41382],[139.10201,35.41407],[139.10094,35.41515],[139.10122,35.41618],[139.10102,35.41847],[139.10149,35.41972],[139.10191,35.42014],[139.10496,35.42251],[139.10541,35.423],[139.10525,35.42406],[139.10564,35.42503],[139.10531,35.42596],[139.10576,35.42655],[139.10825,35.42694],[139.10916,35.42816],[139.11033,35.4283],[139.11237,35.42978],[139.11408,35.43011],[139.11567,35.43208],[139.11749,35.43535],[139.11929,35.43681],[139.12061,35.43689],[139.12164,35.43754],[139.12372,35.43774],[139.124,35.43845],[139.12729,35.441],[139.12765,35.44213],[139.12664,35.4441],[139.12774,35.44498],[139.12973,35.44581],[139.13052,35.44578],[139.13164,35.44515],[139.13296,35.44525],[139.1337,35.44504],[139.13535,35.44468],[139.1369,35.44562],[139.13861,35.44498],[139.13941,35.4452],[139.13988,35.44505],[139.14015,35.44431],[139.14155,35.44422],[139.14166,35.44467],[139.14251,35.44495],[139.1436,35.44512],[139.14496,35.44514],[139.14649,35.44503],[139.14845,35.44452],[139.14966,35.44476],[139.15072,35.44513],[139.15175,35.44516],[139.15266,35.44557],[139.15301,35.4456],[139.15425,35.44525],[139.1551,35.44548],[139.15567,35.44589],[139.15632,35.44736],[139.15707,35.44772],[139.15795,35.4494],[139.15903,35.44959],[139.16071,35.45011],[139.161,35.45036],[139.16114,35.45066],[139.16142,35.45133],[139.16187,35.45182],[139.16231,35.4529],[139.16254,35.45328],[139.16371,35.45421],[139.16408,35.45546],[139.16544,35.45709],[139.16527,35.45728],[139.1652,35.4574],[139.16473,35.4586],[139.16486,35.45981],[139.16522,35.46145],[139.16559,35.46241],[139.16587,35.46423],[139.166,35.46548],[139.16523,35.46701],[139.16495,35.46839],[139.16475,35.46895],[139.16364,35.47037],[139.1634,35.47139],[139.16363,35.47254],[139.16336,35.47402],[139.16295,35.4746],[139.16249,35.47524],[139.16131,35.4758],[139.15942,35.47735],[139.15831,35.47813],[139.15728,35.47869],[139.15617,35.47866],[139.15259,35.47748],[139.15033,35.47727],[139.14849,35.47798],[139.14753,35.47939],[139.14647,35.48034],[139.14651,35.48179],[139.14678,35.48285],[139.14634,35.48362],[139.14409,35.48452],[139.14255,35.48535],[139.14125,35.48634],[139.13966,35.48649],[139.13823,35.48623],[139.13742,35.48619],[139.13637,35.48614],[139.12988,35.4848],[139.12933,35.48341],[139.12913,35.48171],[139.12837,35.48043],[139.12699,35.47939],[139.12643,35.47829],[139.12438,35.4787],[139.1231,35.47837],[139.12157,35.4778],[139.12025,35.47753],[139.1192,35.47763],[139.11661,35.47811],[139.11535,35.47788],[139.11404,35.47733],[139.11321,35.47741],[139.11051,35.47827],[139.10952,35.47877],[139.10856,35.47905],[139.10711,35.47901],[139.10579,35.47914],[139.10303,35.47928],[139.10246,35.47915],[139.10126,35.47968],[139.1006,35.48051],[139.10014,35.48146],[139.09985,35.48253],[139.09903,35.48406],[139.09751,35.48502],[139.09728,35.48613],[139.09634,35.4869],[139.0956,35.48715],[139.09367,35.48685],[139.09292,35.48746],[139.09176,35.48789],[139.09106,35.48873],[139.09,35.49096],[139.08921,35.49162],[139.08744,35.49275],[139.0841,35.49349],[139.0829,35.49365],[139.08091,35.49452],[139.07919,35.49487],[139.07727,35.49506],[139.07615,35.49504],[139.07464,35.49609],[139.07382,35.4973],[139.07323,35.50003],[139.07228,35.50111],[139.0711,35.50209],[139.06843,35.50326],[139.06779,35.50418],[139.06758,35.50533],[139.06644,35.50847],[139.06601,35.50928],[139.06546,35.50933],[139.06447,35.50907],[139.06299,35.50849],[139.06129,35.50794],[139.0597,35.50769],[139.05876,35.50814],[139.05641,35.50842],[139.05532,35.50893],[139.05405,35.50901],[139.05294,35.50944],[139.05255,35.51011],[139.05149,35.51048],[139.04724,35.51036],[139.04615,35.50943],[139.04591,35.50787],[139.04487,35.50395],[139.04422,35.50257],[139.04398,35.50101],[139.04346,35.49907],[139.04039,35.49644],[139.03951,35.49539],[139.03886,35.49442],[139.03839,35.49315],[139.03747,35.49153],[139.03512,35.49067],[139.0339,35.49034],[139.03163,35.48935],[139.03027,35.48848],[139.02946,35.48753],[139.02861,35.4863],[139.02752,35.48351],[139.02756,35.48121],[139.02761,35.48079],[139.0266,35.48076],[139.02523,35.48089],[139.02379,35.48063],[139.02167,35.47907],[139.02004,35.47896],[139.01869,35.47928],[139.01707,35.47921],[139.01529,35.47997],[139.01414,35.47936],[139.01086,35.47647],[139.00889,35.47518],[139.00629,35.47457],[139.00386,35.47436],[139.00123,35.47462],[138.99878,35.47499],[138.99706,35.47462],[138.99532,35.47384],[138.99208,35.47448],[138.98972,35.47394],[138.98827,35.47318],[138.98649,35.47177],[138.9857,35.47058],[138.98511,35.46924],[138.98424,35.46824],[138.98207,35.4675],[138.98067,35.46565],[138.97953,35.464],[138.97792,35.46439],[138.97725,35.46549],[138.97617,35.46641],[138.97451,35.46684],[138.97233,35.46606],[138.9709,35.46507],[138.96921,35.46379],[138.96732,35.46384],[138.96574,35.46372],[138.96558,35.46302],[138.96219,35.46231],[138.96035,35.46226],[138.95848,35.46204],[138.95618,35.46082],[138.95458,35.46021],[138.95394,35.45923],[138.95249,35.45815],[138.95031,35.45696],[138.9484,35.45575],[138.94723,35.4546],[138.94307,35.45171],[138.94051,35.44988],[138.9372,35.44894],[138.93746,35.44846],[138.93702,35.44737],[138.93551,35.44621],[138.93371,35.44503],[138.9322,35.44346],[138.93098,35.44127],[138.93028,35.4403],[138.92885,35.43972],[138.92758,35.43862],[138.92745,35.43778],[138.92795,35.43592],[138.92747,35.43457],[138.92641,35.43309],[138.92602,35.43195],[138.9263,35.43161],[138.9264,35.43079],[138.92786,35.42974],[138.92968,35.42816],[138.93053,35.42641],[138.93019,35.42531],[138.92994,35.42403],[138.92988,35.42177],[138.92943,35.42096],[138.92798,35.42096],[138.9267,35.42019],[138.92631,35.41796],[138.92571,35.41694],[138.92526,35.41504],[138.92366,35.41443],[138.92132,35.41289],[138.91858,35.41167],[138.91723,35.41045],[138.91608,35.40762],[138.91547,35.40506],[138.91584,35.4034],[138.91643,35.4018],[138.91602,35.40094],[138.91635,35.40055],[138.91804,35.40065],[138.91947,35.40097],[138.92147,35.40095],[138.92333,35.40072],[138.92487,35.3999],[138.92686,35.40015],[138.92915,35.40061],[138.93122,35.40068],[138.93259,35.40018],[138.9352,35.39943],[138.9377,35.39901],[138.93971,35.39949],[138.94153,35.39935],[138.94321,35.3991],[138.94462,35.39955],[138.9468,35.40038],[138.94872,35.40096],[138.9505,35.40096],[138.95293,35.40122],[138.95546,35.40138],[138.95783,35.40196],[138.95953,35.4022],[138.96153,35.40147],[138.96332,35.40152],[138.96559,35.40184],[138.96723,35.40276],[138.96859,35.40403],[138.96971,35.40482],[138.97174,35.40499],[138.9733,35.40461],[138.97757,35.40455],[138.98028,35.40447],[138.98171,35.4036],[138.98291,35.40272],[138.98365,35.40174],[138.98545,35.40188],[138.98751,35.40222],[138.98932,35.40281],[138.99122,35.4029],[138.99343,35.40313],[138.99569,35.40304],[138.99743,35.40238],[138.9991,35.40163],[139.00069,35.40043],[139.00127,35.3987],[139.00164,35.39865],[139.00144,35.39788],[139.00132,35.39649],[139.00089,35.39588],[139.00076,35.3952],[139.00097,35.3944],[139.00077,35.39254],[139.00071,35.39121],[139.00022,35.38997],[139.00003,35.38836],[138.99923,35.38662],[138.9992,35.3854],[138.99867,35.38412],[138.99921,35.38325],[138.99922,35.38213],[139.00065,35.38187],[139.0013,35.38009],[139.00296,35.37869],[139.00359,35.37786],[139.00465,35.37676],[139.00598,35.37517],[139.00532,35.37407],[139.00459,35.37357],[139.0055,35.372],[139.00583,35.37085],[139.00597,35.36975],[139.00657,35.36837],[139.00624,35.36758],[139.00651,35.36601],[139.00779,35.36406],[139.00701,35.36355],[139.00675,35.36197],[139.00717,35.36092],[139.00774,35.36024],[139.00848,35.35974],[139.0089,35.35903],[139.00974,35.3591],[139.01017,35.35976],[139.0109,35.35962],[139.01238,35.35908],[139.01316,35.35891],[139.01301,35.3585],[139.01245,35.3582],[139.0122,35.35775],[139.01189,35.35587],[139.0115,35.355],[139.01107,35.35446],[139.01001,35.35373],[139.00946,35.3531],[139.00931,35.35247],[139.00852,35.35151],[139.00819,35.35071],[139.00824,35.35027],[139.00927,35.34904],[139.0093,35.34829],[139.00875,35.34749],[139.00923,35.34656],[139.0096,35.3462],[139.01002,35.34498],[139.01109,35.34396],[139.01131,35.34308],[139.01075,35.34231],[139.01008,35.34181],[139.01007,35.34148],[139.01113,35.34078],[139.01068,35.33874],[139.01095,35.3383],[139.01218,35.33736],[139.01239,35.33638],[139.01439,35.33495],[139.01535,35.33367],[139.01599,35.33336],[139.01633,35.33282],[139.01693,35.33114],[139.01742,35.33055],[139.01847,35.32987],[139.01854,35.32995],[139.01895,35.33018],[139.01923,35.33065],[139.02027,35.3309],[139.02089,35.33095],[139.02152,35.33128],[139.02174,35.33128],[139.02197,35.33131],[139.0225,35.33143],[139.02293,35.33145],[139.02338,35.33125],[139.02423,35.33135],[139.02493,35.33105],[139.02603,35.33108],[139.02644,35.33102],[139.02674,35.33098],[139.02731,35.33108],[139.02746,35.3312],[139.02764,35.33145],[139.0278,35.33166],[139.02823,35.33196],[139.02847,35.33199],[139.02874,35.33197],[139.02925,35.33205],[139.0302,35.33221],[139.03127,35.33222],[139.03159,35.33219],[139.0319,35.33236],[139.03077,35.33419],[139.0305,35.33526],[139.02994,35.33637],[139.03077,35.33722],[139.03273,35.33752],[139.03349,35.33871],[139.03453,35.33935],[139.03518,35.34004],[139.03599,35.34057],[139.03677,35.34196],[139.03903,35.34262],[139.03988,35.3426],[139.04098,35.34228],[139.04178,35.34226],[139.04249,35.34247],[139.04347,35.34251],[139.04501,35.34311],[139.04588,35.3437],[139.04762,35.34413],[139.0487,35.34479],[139.04944,35.34578],[139.04934,35.34621],[139.04982,35.3477],[139.04921,35.34872],[139.0492,35.34921],[139.05002,35.34898],[139.05015,35.34978],[139.05109,35.35035],[139.05202,35.35023],[139.05306,35.35037],[139.05315,35.35104],[139.05361,35.35136],[139.05495,35.35123],[139.05543,35.35185],[139.05648,35.35204],[139.05852,35.35149],[139.05917,35.35149],[139.0601,35.35112],[139.06087,35.35056],[139.06119,35.34993],[139.06181,35.3493],[139.06294,35.34899],[139.06335,35.34842],[139.06415,35.34814],[139.06505,35.34816],[139.06602,35.34781],[139.0661,35.34711],[139.06751,35.34746],[139.06906,35.34711],[139.07004,35.34733],[139.07134,35.34723],[139.07217,35.34795],[139.07242,35.34858],[139.07325,35.34943],[139.07496,35.3493],[139.07705,35.34966],[139.07882,35.35026],[139.08079,35.35054],[139.08139,35.35071],[139.08288,35.35085],[139.08336,35.34959],[139.08368,35.3492],[139.0845,35.34892],[139.08674,35.34871],[139.08773,35.3492],[139.08973,35.35087],[139.0906,35.35122],[139.09147,35.35096],[139.09246,35.34918],[139.09305,35.34776],[139.09366,35.34678],[139.09472,35.34636],[139.09542,35.34625],[139.09644,35.34641],[139.09725,35.34692],[139.09771,35.34731],[139.09828,35.34781],[139.09984,35.34967],[139.1006,35.35039],[139.10196,35.35136],[139.10322,35.35183],[139.10578,35.35219],[139.11038,35.35218],[139.11223,35.35199]],[[139.10303,35.35744],[139.10202,35.35727],[139.10307,35.35758],[139.10303,35.35744]],[[139.05562,35.3948],[139.05535,35.39502],[139.05625,35.39433],[139.05562,35.3948]],[[139.04281,35.40436],[139.04316,35.4044],[139.04304,35.40432],[139.04281,35.40436]],[[139.04012,35.40954],[139.04094,35.40993],[139.04249,35.41052],[139.04012,35.40954]]]}},{"type":"Feature","properties":{"nm":"開成町","b":[139.1065,35.3177,139.1428,35.3521],"c":[139.12471,35.33518]},"geometry":{"type":"Polygon","coordinates":[[[139.10677,35.34433],[139.10683,35.34397],[139.10775,35.3422],[139.10806,35.3423],[139.1096,35.34002],[139.11001,35.33963],[139.11024,35.33979],[139.11152,35.33968],[139.1122,35.33933],[139.11366,35.33903],[139.11404,35.33857],[139.11448,35.33867],[139.11519,35.33706],[139.11587,35.33499],[139.11649,35.33433],[139.1165,35.33386],[139.11666,35.33285],[139.11688,35.33236],[139.1169,35.33219],[139.11692,35.3321],[139.11717,35.33107],[139.11725,35.33083],[139.11717,35.3307],[139.11719,35.33066],[139.11723,35.33058],[139.11725,35.33053],[139.1173,35.33042],[139.11733,35.33036],[139.11739,35.33023],[139.11744,35.33011],[139.11753,35.32991],[139.11758,35.3296],[139.11764,35.32951],[139.11765,35.32946],[139.11735,35.32939],[139.1174,35.32918],[139.11754,35.32904],[139.11775,35.32876],[139.11784,35.32854],[139.1179,35.32849],[139.11807,35.32838],[139.11812,35.32832],[139.11831,35.32778],[139.11855,35.32726],[139.11879,35.32699],[139.11927,35.32676],[139.11951,35.32628],[139.11982,35.32611],[139.11996,35.32599],[139.1202,35.32588],[139.12042,35.32567],[139.12039,35.32566],[139.12027,35.32563],[139.1202,35.32561],[139.12024,35.32549],[139.12026,35.3254],[139.12029,35.32531],[139.12077,35.32451],[139.12094,35.32415],[139.12052,35.32371],[139.12067,35.3231],[139.12074,35.32235],[139.12084,35.32178],[139.12037,35.32168],[139.12123,35.31998],[139.12173,35.31956],[139.12234,35.3197],[139.12334,35.31931],[139.12399,35.31944],[139.12419,35.3198],[139.12445,35.31952],[139.12429,35.319],[139.12479,35.31878],[139.12515,35.31863],[139.12585,35.31834],[139.12692,35.3184],[139.12772,35.31817],[139.1278,35.3185],[139.12821,35.31864],[139.12814,35.31901],[139.12897,35.31913],[139.12927,35.31887],[139.12852,35.31869],[139.129,35.31852],[139.12913,35.31798],[139.12984,35.31771],[139.12965,35.31815],[139.13014,35.31831],[139.13053,35.31774],[139.1329,35.31839],[139.13258,35.31925],[139.13337,35.31958],[139.13348,35.31965],[139.1337,35.31951],[139.1344,35.31944],[139.13447,35.31997],[139.13491,35.31966],[139.13504,35.31963],[139.1356,35.31939],[139.13572,35.32047],[139.13549,35.32126],[139.13613,35.32141],[139.13596,35.32201],[139.13623,35.32219],[139.13597,35.32281],[139.13687,35.32269],[139.13736,35.32239],[139.13868,35.32258],[139.13887,35.32303],[139.13988,35.32262],[139.14049,35.32268],[139.14281,35.32397],[139.14231,35.32458],[139.14187,35.32521],[139.14125,35.32574],[139.13926,35.32844],[139.13741,35.33135],[139.13661,35.33273],[139.13564,35.33531],[139.13531,35.33618],[139.13507,35.33793],[139.13478,35.3386],[139.13475,35.33866],[139.13368,35.34101],[139.13184,35.34463],[139.13151,35.34492],[139.13007,35.34618],[139.12912,35.34682],[139.1273,35.34769],[139.12581,35.34836],[139.11819,35.35129],[139.11678,35.3517],[139.1144,35.35195],[139.11234,35.35208],[139.11223,35.35199],[139.11187,35.35132],[139.111,35.35035],[139.11135,35.35032],[139.11079,35.34931],[139.11058,35.34926],[139.10779,35.3459],[139.10687,35.34503],[139.10652,35.34488],[139.10677,35.34433]],[[139.12613,35.34671],[139.12824,35.34553],[139.1292,35.3447],[139.12599,35.34656],[139.12613,35.34671]],[[139.12619,35.33353],[139.12757,35.33248],[139.1283,35.33182],[139.12619,35.33353]],[[139.11785,35.3501],[139.12167,35.34857],[139.11384,35.35083],[139.11391,35.35103],[139.11511,35.35086],[139.11785,35.3501]]]}},{"type":"Feature","properties":{"nm":"箱根町","b":[138.9742,35.1755,139.1208,35.2899],"c":[139.03151,35.23225]},"geometry":{"type":"Polygon","coordinates":[[[139.03317,35.27554],[139.03268,35.27591],[139.03252,35.2762],[139.03191,35.27601],[139.0308,35.27588],[139.03008,35.27532],[139.02957,35.27553],[139.0293,35.27552],[139.02834,35.27635],[139.02744,35.27666],[139.02564,35.27768],[139.02438,35.27755],[139.0243,35.27791],[139.02318,35.27864],[139.0228,35.27852],[139.02215,35.2787],[139.02131,35.27894],[139.02004,35.27869],[139.01899,35.2791],[139.01849,35.27915],[139.0175,35.27922],[139.01733,35.2794],[139.01675,35.28001],[139.01626,35.28122],[139.01595,35.28133],[139.01484,35.28121],[139.01368,35.28157],[139.01341,35.28156],[139.01172,35.28233],[139.01084,35.28174],[139.01083,35.28235],[139.01045,35.28314],[139.01008,35.2832],[139.00991,35.28504],[139.00916,35.28546],[139.0084,35.28643],[139.00803,35.28643],[139.00735,35.28741],[139.00674,35.28856],[139.0063,35.28908],[139.00559,35.28938],[139.00507,35.28949],[139.00487,35.28986],[139.0039,35.28956],[139.00197,35.28928],[139.00083,35.28939],[139.00031,35.28962],[138.99764,35.28897],[138.99614,35.28792],[138.99545,35.28702],[138.99429,35.286],[138.99381,35.28526],[138.99273,35.28468],[138.99182,35.28353],[138.98906,35.28134],[138.98845,35.28027],[138.98781,35.27995],[138.98771,35.27937],[138.98719,35.27878],[138.9858,35.27834],[138.98524,35.27775],[138.98497,35.27696],[138.9846,35.27661],[138.98353,35.27485],[138.98221,35.27331],[138.98224,35.27225],[138.98179,35.27146],[138.982,35.27043],[138.98171,35.27007],[138.98025,35.269],[138.97859,35.26806],[138.97781,35.26717],[138.97665,35.2653],[138.97558,35.26399],[138.97529,35.26229],[138.97534,35.26174],[138.9757,35.26099],[138.97567,35.26051],[138.97513,35.25957],[138.97503,35.25873],[138.97422,35.25762],[138.97425,35.25601],[138.97457,35.25455],[138.97484,35.25414],[138.97504,35.25257],[138.97568,35.25174],[138.97496,35.2512],[138.97495,35.25023],[138.97441,35.24895],[138.97442,35.24773],[138.97543,35.24664],[138.9754,35.24552],[138.97566,35.24501],[138.97627,35.24442],[138.97627,35.24334],[138.97594,35.24202],[138.97642,35.24134],[138.97752,35.24038],[138.97791,35.23986],[138.97867,35.23941],[138.97803,35.23862],[138.97711,35.23788],[138.97626,35.2358],[138.97678,35.23508],[138.9783,35.23424],[138.97936,35.23326],[138.97943,35.23297],[138.97895,35.23206],[138.97882,35.23102],[138.97891,35.22988],[138.97934,35.22869],[138.9805,35.22826],[138.98089,35.22745],[138.98077,35.22669],[138.98165,35.22601],[138.98202,35.22543],[138.98215,35.22423],[138.98337,35.22336],[138.98346,35.22248],[138.98334,35.22169],[138.98294,35.22101],[138.98181,35.2197],[138.98223,35.21901],[138.98209,35.21799],[138.98373,35.21617],[138.98467,35.21539],[138.98571,35.2141],[138.9867,35.21339],[138.98744,35.21325],[138.98789,35.21296],[138.98799,35.2119],[138.98843,35.21136],[138.98799,35.20999],[138.98784,35.20906],[138.98665,35.20834],[138.98639,35.20735],[138.98607,35.20523],[138.98643,35.20471],[138.9876,35.20374],[138.98791,35.20284],[138.98769,35.20163],[138.9878,35.20122],[138.98926,35.20064],[138.98954,35.20071],[138.99028,35.20008],[138.99323,35.19876],[138.99371,35.1982],[138.99473,35.1973],[138.99527,35.19633],[138.99613,35.19532],[138.9968,35.19474],[138.9982,35.19406],[138.99951,35.19278],[139.00005,35.1915],[139.00055,35.19074],[139.0016,35.19031],[139.00161,35.1897],[139.00223,35.18833],[139.00323,35.18739],[139.00486,35.18651],[139.00549,35.18629],[139.0063,35.18566],[139.00685,35.18492],[139.00796,35.18443],[139.0092,35.18333],[139.0105,35.18268],[139.01215,35.18205],[139.01327,35.18185],[139.01415,35.18183],[139.01425,35.18218],[139.01556,35.18197],[139.01655,35.18215],[139.01744,35.18211],[139.01817,35.1825],[139.01901,35.1824],[139.01959,35.18204],[139.02026,35.18199],[139.02162,35.18212],[139.02209,35.18189],[139.02276,35.18088],[139.02394,35.17954],[139.02454,35.17922],[139.02548,35.17818],[139.02748,35.17668],[139.0285,35.17554],[139.03025,35.17566],[139.03175,35.17565],[139.03256,35.17625],[139.03387,35.17699],[139.03536,35.17615],[139.03609,35.17612],[139.0367,35.17635],[139.03779,35.177],[139.0394,35.17718],[139.04001,35.17735],[139.0407,35.17786],[139.04169,35.17794],[139.04225,35.17926],[139.042,35.17971],[139.04263,35.18045],[139.04324,35.1808],[139.0438,35.18087],[139.04438,35.18067],[139.04611,35.1813],[139.04614,35.18293],[139.04629,35.18318],[139.04738,35.18352],[139.04821,35.18358],[139.04874,35.1841],[139.04888,35.18478],[139.04949,35.1852],[139.05034,35.18552],[139.05114,35.18648],[139.05117,35.18679],[139.0518,35.18769],[139.05292,35.18808],[139.05324,35.18863],[139.05475,35.18876],[139.0553,35.18937],[139.05625,35.18962],[139.0568,35.19006],[139.05769,35.1898],[139.05884,35.19022],[139.05947,35.19079],[139.06059,35.19061],[139.06154,35.19141],[139.06231,35.19185],[139.06254,35.19234],[139.06364,35.19289],[139.06454,35.19309],[139.06474,35.19334],[139.06502,35.19354],[139.06521,35.19439],[139.06555,35.19493],[139.06634,35.19553],[139.06724,35.19558],[139.068,35.19568],[139.0687,35.19669],[139.06976,35.19698],[139.0704,35.19698],[139.07163,35.19795],[139.07182,35.19859],[139.07217,35.19937],[139.0727,35.19987],[139.07301,35.20031],[139.07396,35.20056],[139.07437,35.20096],[139.07493,35.20102],[139.07584,35.20062],[139.07677,35.19996],[139.07754,35.19927],[139.07808,35.19897],[139.07882,35.19928],[139.07938,35.19927],[139.08061,35.19957],[139.08128,35.20084],[139.08028,35.20163],[139.08005,35.20233],[139.08101,35.20243],[139.08184,35.20274],[139.08243,35.20271],[139.08385,35.2039],[139.08433,35.2049],[139.0835,35.20582],[139.08394,35.20663],[139.08392,35.20731],[139.08418,35.20812],[139.08598,35.2086],[139.08669,35.20918],[139.08669,35.21065],[139.08741,35.21114],[139.08741,35.21192],[139.08761,35.21306],[139.08728,35.21427],[139.08744,35.21586],[139.08765,35.21609],[139.08862,35.21629],[139.08941,35.21672],[139.09019,35.21743],[139.09048,35.21795],[139.09076,35.21906],[139.09387,35.22025],[139.09449,35.22067],[139.09459,35.22141],[139.09647,35.22197],[139.09834,35.22265],[139.10014,35.22366],[139.10171,35.22437],[139.10378,35.2255],[139.10486,35.22597],[139.10601,35.22622],[139.1076,35.22634],[139.10906,35.22607],[139.11099,35.22637],[139.11299,35.22745],[139.11512,35.22766],[139.11604,35.22808],[139.11438,35.23003],[139.11389,35.23214],[139.11505,35.23199],[139.11653,35.23306],[139.11784,35.23363],[139.11842,35.23409],[139.11862,35.23476],[139.11907,35.23521],[139.1189,35.23596],[139.11842,35.2367],[139.1192,35.23693],[139.11982,35.2375],[139.11941,35.23773],[139.12,35.23865],[139.12075,35.23946],[139.12081,35.24021],[139.11938,35.23944],[139.11869,35.24012],[139.1179,35.23962],[139.11704,35.23967],[139.11592,35.23943],[139.11516,35.23974],[139.11431,35.23979],[139.1134,35.23926],[139.11272,35.23905],[139.11113,35.23923],[139.11036,35.23873],[139.10888,35.23844],[139.10754,35.23892],[139.10546,35.23911],[139.10314,35.24013],[139.10167,35.23992],[139.10098,35.23954],[139.09999,35.23923],[139.09957,35.2394],[139.09886,35.24016],[139.09857,35.2407],[139.09795,35.24129],[139.09731,35.24215],[139.09626,35.24215],[139.09522,35.2424],[139.09402,35.24286],[139.0912,35.24349],[139.09034,35.24321],[139.08978,35.24207],[139.09027,35.24017],[139.08994,35.23908],[139.08848,35.23754],[139.08639,35.23532],[139.08456,35.23436],[139.08329,35.23385],[139.08278,35.23388],[139.08206,35.23535],[139.08069,35.23549],[139.07973,35.23642],[139.07817,35.23719],[139.07806,35.2379],[139.07795,35.23838],[139.07707,35.23889],[139.07672,35.23903],[139.07597,35.23981],[139.07494,35.23981],[139.07469,35.23999],[139.07445,35.24065],[139.07411,35.24093],[139.0733,35.24132],[139.07265,35.24202],[139.07217,35.24215],[139.07151,35.24146],[139.07144,35.24084],[139.07085,35.24032],[139.07043,35.24031],[139.06993,35.24051],[139.06988,35.24091],[139.06914,35.24123],[139.06785,35.24126],[139.06717,35.24109],[139.06703,35.24174],[139.06678,35.2422],[139.06622,35.24251],[139.06622,35.2431],[139.06601,35.24347],[139.06502,35.24374],[139.06425,35.24347],[139.06401,35.24372],[139.06454,35.24471],[139.06451,35.24527],[139.06405,35.24545],[139.06294,35.24493],[139.06236,35.24559],[139.06162,35.24584],[139.06049,35.24538],[139.06024,35.24547],[139.05985,35.24665],[139.05946,35.24675],[139.05961,35.2471],[139.06001,35.24743],[139.05998,35.24783],[139.05988,35.24804],[139.06165,35.24958],[139.06373,35.25076],[139.06578,35.25254],[139.06703,35.25434],[139.06693,35.25527],[139.06534,35.25595],[139.06499,35.25605],[139.06447,35.25713],[139.06414,35.25868],[139.0642,35.26035],[139.06203,35.26558],[139.06067,35.26757],[139.06018,35.26959],[139.06031,35.27063],[139.0606,35.27167],[139.06011,35.27189],[139.05895,35.27236],[139.05825,35.27321],[139.05774,35.27361],[139.05672,35.27396],[139.05636,35.27409],[139.05533,35.27489],[139.05493,35.27547],[139.05418,35.2763],[139.05423,35.27679],[139.05315,35.27709],[139.05264,35.2783],[139.05183,35.27937],[139.05075,35.28018],[139.04992,35.28053],[139.04944,35.28117],[139.04818,35.28154],[139.04649,35.28157],[139.0458,35.28169],[139.04554,35.28202],[139.04483,35.28179],[139.04395,35.28185],[139.04357,35.28082],[139.04311,35.27997],[139.04207,35.27951],[139.04166,35.27948],[139.04127,35.2795],[139.04033,35.27925],[139.03982,35.27868],[139.03851,35.2786],[139.03771,35.2784],[139.03743,35.27825],[139.03675,35.27815],[139.03624,35.27799],[139.03602,35.27725],[139.03556,35.27676],[139.03537,35.27645],[139.03501,35.27629],[139.03448,35.27652],[139.03442,35.27648],[139.03438,35.27645],[139.0338,35.27573],[139.03317,35.27554]]]}},{"type":"Feature","properties":{"nm":"真鶴町","b":[139.1032,35.1369,139.1638,35.1867],"c":[139.13352,35.16538]},"geometry":{"type":"Polygon","coordinates":[[[139.14384,35.15785],[139.14412,35.15861],[139.14407,35.1599],[139.14355,35.16047],[139.143,35.16176],[139.1424,35.16133],[139.14269,35.16116],[139.14302,35.16031],[139.14217,35.16052],[139.14042,35.1615],[139.14015,35.16242],[139.14073,35.16357],[139.14184,35.16398],[139.14234,35.16516],[139.14339,35.16616],[139.1444,35.16685],[139.14528,35.16767],[139.14512,35.16868],[139.14472,35.16878],[139.14424,35.1695],[139.14352,35.17129],[139.1433,35.17272],[139.14295,35.17328],[139.14191,35.17436],[139.13958,35.17539],[139.13903,35.17576],[139.13856,35.17674],[139.13878,35.17679],[139.1379,35.17772],[139.13716,35.17884],[139.13681,35.17869],[139.13557,35.17816],[139.13441,35.17796],[139.13318,35.17819],[139.13154,35.17819],[139.13083,35.17803],[139.13011,35.17819],[139.12891,35.17876],[139.12713,35.18007],[139.12702,35.17997],[139.12642,35.18005],[139.1256,35.18056],[139.12555,35.18156],[139.12507,35.18186],[139.12301,35.18247],[139.12217,35.18293],[139.12061,35.1835],[139.11891,35.18378],[139.11742,35.18442],[139.11551,35.18495],[139.11357,35.18494],[139.11236,35.18517],[139.11115,35.18579],[139.11009,35.18618],[139.10884,35.18645],[139.10605,35.1866],[139.10394,35.18647],[139.10321,35.1867],[139.10324,35.18661],[139.10417,35.18466],[139.10433,35.1844],[139.10513,35.18398],[139.1063,35.1834],[139.10641,35.18318],[139.10723,35.18287],[139.10783,35.1824],[139.10912,35.18175],[139.10975,35.18161],[139.11018,35.18124],[139.11213,35.18045],[139.11302,35.17991],[139.11339,35.17949],[139.11436,35.17867],[139.11568,35.17741],[139.11573,35.17723],[139.11589,35.177],[139.11593,35.17677],[139.11607,35.176],[139.11687,35.17516],[139.11691,35.17479],[139.11754,35.17441],[139.11762,35.17411],[139.11933,35.1733],[139.11996,35.17263],[139.12021,35.1719],[139.12272,35.17029],[139.12309,35.16963],[139.12389,35.16866],[139.12452,35.16832],[139.12575,35.16804],[139.12633,35.16751],[139.127,35.16716],[139.12776,35.16712],[139.12915,35.16564],[139.12906,35.16432],[139.12981,35.16356],[139.12965,35.16344],[139.12857,35.16292],[139.12888,35.16231],[139.12811,35.16196],[139.12746,35.16133],[139.12665,35.16127],[139.12695,35.16099],[139.12662,35.16044],[139.1263,35.16045],[139.12659,35.15947],[139.12743,35.15854],[139.12734,35.15838],[139.12813,35.15758],[139.12904,35.15698],[139.12961,35.15622],[139.12975,35.15553],[139.13064,35.1557],[139.13116,35.15562],[139.13128,35.15499],[139.13257,35.15479],[139.13306,35.15516],[139.13339,35.15497],[139.13324,35.15408],[139.13373,35.15374],[139.13437,35.15365],[139.13399,35.15338],[139.13435,35.15278],[139.13512,35.15232],[139.13563,35.15121],[139.13669,35.1506],[139.13667,35.15016],[139.13728,35.14962],[139.13767,35.1481],[139.1378,35.14907],[139.13847,35.14914],[139.13875,35.14887],[139.13873,35.14828],[139.13943,35.14809],[139.13954,35.14762],[139.14116,35.1462],[139.14161,35.14638],[139.14161,35.14603],[139.14235,35.14546],[139.14264,35.14492],[139.14342,35.14532],[139.14367,35.14475],[139.14418,35.14438],[139.14483,35.14427],[139.14656,35.14479],[139.14775,35.14449],[139.14834,35.14418],[139.14841,35.14357],[139.1493,35.14384],[139.14905,35.14323],[139.14945,35.14306],[139.14962,35.14188],[139.15003,35.14107],[139.15069,35.14077],[139.15139,35.14099],[139.15161,35.14142],[139.1523,35.1414],[139.1529,35.1406],[139.15346,35.14068],[139.15421,35.14009],[139.15414,35.14056],[139.15529,35.14065],[139.15531,35.14179],[139.15587,35.14207],[139.15699,35.14192],[139.15687,35.14157],[139.15858,35.14117],[139.15894,35.14055],[139.15929,35.1409],[139.16016,35.14033],[139.16071,35.14081],[139.16219,35.14],[139.16256,35.13956],[139.16268,35.13853],[139.16307,35.13797],[139.16341,35.13693],[139.16383,35.13719],[139.16382,35.13784],[139.16333,35.13879],[139.16255,35.13984],[139.16155,35.14083],[139.16111,35.14095],[139.16123,35.14186],[139.16178,35.14237],[139.16134,35.14233],[139.16086,35.14281],[139.15907,35.14323],[139.15849,35.14354],[139.15792,35.1442],[139.15838,35.1444],[139.15923,35.14517],[139.15817,35.14627],[139.15773,35.14714],[139.15706,35.14731],[139.15644,35.14699],[139.15638,35.14753],[139.15587,35.14777],[139.15587,35.14745],[139.15525,35.14776],[139.15397,35.14741],[139.15353,35.14757],[139.15212,35.14668],[139.15108,35.1469],[139.15091,35.14677],[139.14954,35.14704],[139.14903,35.14777],[139.14817,35.15004],[139.14708,35.15036],[139.14698,35.15069],[139.14601,35.15081],[139.14579,35.15127],[139.14518,35.15153],[139.14492,35.15132],[139.14358,35.15187],[139.14165,35.15221],[139.14212,35.15279],[139.14178,35.15294],[139.14232,35.15388],[139.14279,35.15408],[139.14318,35.15388],[139.14372,35.15317],[139.14433,35.15291],[139.1449,35.15305],[139.14574,35.15242],[139.14509,35.15358],[139.14463,35.15378],[139.14433,35.1562],[139.14386,35.15664],[139.14367,35.15719],[139.14384,35.15785]]]}},{"type":"Feature","properties":{"nm":"湯河原町","b":[139.026,35.1403,139.1377,35.201],"c":[139.07886,35.16619]},"geometry":{"type":"Polygon","coordinates":[[[139.0285,35.17554],[139.02758,35.1754],[139.02687,35.17504],[139.02669,35.17387],[139.0262,35.17307],[139.02625,35.17249],[139.02668,35.17204],[139.02838,35.17073],[139.02873,35.17029],[139.02756,35.16916],[139.02751,35.16817],[139.02711,35.16701],[139.02932,35.16627],[139.02914,35.165],[139.02851,35.16339],[139.02806,35.16304],[139.02716,35.16201],[139.02662,35.16159],[139.02631,35.161],[139.02596,35.16086],[139.02618,35.1601],[139.02749,35.15965],[139.02913,35.15926],[139.03067,35.15873],[139.03033,35.15737],[139.02993,35.15644],[139.02932,35.15557],[139.02868,35.15497],[139.02881,35.15371],[139.02905,35.15329],[139.02863,35.15269],[139.02861,35.15166],[139.02882,35.15058],[139.02939,35.15001],[139.03039,35.14971],[139.03161,35.14974],[139.03301,35.1499],[139.03494,35.14972],[139.03816,35.14988],[139.03987,35.15059],[139.04194,35.14998],[139.04266,35.14988],[139.04315,35.15007],[139.04412,35.1498],[139.04525,35.14973],[139.04702,35.14977],[139.04918,35.14943],[139.05016,35.14909],[139.05083,35.14814],[139.0511,35.14747],[139.05164,35.14703],[139.05325,35.14679],[139.05433,35.14731],[139.05538,35.1472],[139.05833,35.14656],[139.0587,35.14693],[139.0595,35.14708],[139.06006,35.14684],[139.06047,35.14593],[139.06098,35.14567],[139.06181,35.14557],[139.06244,35.14511],[139.06408,35.14468],[139.06458,35.14443],[139.06515,35.14447],[139.06583,35.14404],[139.06739,35.14465],[139.06833,35.14445],[139.07056,35.14498],[139.07146,35.14458],[139.0725,35.14514],[139.07298,35.14493],[139.07458,35.14502],[139.07489,35.14525],[139.07639,35.14491],[139.07733,35.14379],[139.07874,35.14304],[139.07964,35.1426],[139.0811,35.14244],[139.0821,35.14176],[139.08317,35.14129],[139.08439,35.14106],[139.08553,35.1411],[139.08736,35.14098],[139.08833,35.1408],[139.08952,35.14035],[139.09024,35.14037],[139.09258,35.14071],[139.09354,35.14076],[139.09562,35.14055],[139.09687,35.14061],[139.09807,35.14045],[139.0987,35.14054],[139.10076,35.14039],[139.1029,35.14098],[139.10488,35.14124],[139.10681,35.14148],[139.10802,35.14199],[139.11055,35.14178],[139.11181,35.14152],[139.11234,35.14125],[139.11432,35.14296],[139.11427,35.14307],[139.11439,35.14305],[139.11564,35.14417],[139.11692,35.14518],[139.11711,35.14552],[139.1163,35.14623],[139.11745,35.14731],[139.12017,35.14904],[139.12122,35.14952],[139.12336,35.15028],[139.12395,35.14989],[139.12506,35.14955],[139.12619,35.14961],[139.12636,35.14906],[139.12664,35.1494],[139.12719,35.14929],[139.12835,35.14967],[139.12873,35.14954],[139.12913,35.14993],[139.13108,35.15054],[139.13149,35.15021],[139.13143,35.15084],[139.13215,35.1507],[139.13254,35.15018],[139.13166,35.14993],[139.13178,35.14968],[139.13278,35.14996],[139.13347,35.14999],[139.13396,35.15048],[139.13542,35.15033],[139.13565,35.14997],[139.1361,35.15],[139.13613,35.14924],[139.13697,35.14901],[139.13696,35.14866],[139.13767,35.1481],[139.13728,35.14962],[139.13667,35.15016],[139.13669,35.1506],[139.13563,35.15121],[139.13512,35.15232],[139.13435,35.15278],[139.13399,35.15338],[139.13437,35.15365],[139.13373,35.15374],[139.13324,35.15408],[139.13339,35.15497],[139.13306,35.15516],[139.13257,35.15479],[139.13128,35.15499],[139.13116,35.15562],[139.13064,35.1557],[139.12975,35.15553],[139.12961,35.15622],[139.12904,35.15698],[139.12813,35.15758],[139.12734,35.15838],[139.12743,35.15854],[139.12659,35.15947],[139.1263,35.16045],[139.12662,35.16044],[139.12695,35.16099],[139.12665,35.16127],[139.12746,35.16133],[139.12811,35.16196],[139.12888,35.16231],[139.12857,35.16292],[139.12965,35.16344],[139.12981,35.16356],[139.12906,35.16432],[139.12915,35.16564],[139.12776,35.16712],[139.127,35.16716],[139.12633,35.16751],[139.12575,35.16804],[139.12452,35.16832],[139.12389,35.16866],[139.12309,35.16963],[139.12272,35.17029],[139.12021,35.1719],[139.11996,35.17263],[139.11933,35.1733],[139.11762,35.17411],[139.11754,35.17441],[139.11691,35.17479],[139.11687,35.17516],[139.11607,35.176],[139.11593,35.17677],[139.11589,35.177],[139.11573,35.17723],[139.11568,35.17741],[139.11436,35.17867],[139.11339,35.17949],[139.11302,35.17991],[139.11213,35.18045],[139.11018,35.18124],[139.10975,35.18161],[139.10912,35.18175],[139.10783,35.1824],[139.10723,35.18287],[139.10641,35.18318],[139.1063,35.1834],[139.10513,35.18398],[139.10433,35.1844],[139.10417,35.18466],[139.10324,35.18661],[139.10321,35.1867],[139.1022,35.1871],[139.10128,35.1877],[139.10023,35.18804],[139.0983,35.18784],[139.09773,35.18844],[139.09715,35.18884],[139.09665,35.18891],[139.09562,35.18889],[139.0948,35.18926],[139.09357,35.18965],[139.09267,35.18973],[139.09241,35.19016],[139.09253,35.19142],[139.09241,35.19174],[139.09101,35.19318],[139.09006,35.19366],[139.08816,35.19348],[139.08732,35.19353],[139.08561,35.19404],[139.08485,35.19401],[139.08408,35.19432],[139.0823,35.19508],[139.08167,35.19552],[139.08042,35.19593],[139.0786,35.19631],[139.07788,35.19666],[139.07748,35.19713],[139.07742,35.19832],[139.07759,35.19863],[139.07808,35.19897],[139.07754,35.19927],[139.07677,35.19996],[139.07584,35.20062],[139.07493,35.20102],[139.07437,35.20096],[139.07396,35.20056],[139.07301,35.20031],[139.0727,35.19987],[139.07217,35.19937],[139.07182,35.19859],[139.07163,35.19795],[139.0704,35.19698],[139.06976,35.19698],[139.0687,35.19669],[139.068,35.19568],[139.06724,35.19558],[139.06634,35.19553],[139.06555,35.19493],[139.06521,35.19439],[139.06502,35.19354],[139.06474,35.19334],[139.06454,35.19309],[139.06364,35.19289],[139.06254,35.19234],[139.06231,35.19185],[139.06154,35.19141],[139.06059,35.19061],[139.05947,35.19079],[139.05884,35.19022],[139.05769,35.1898],[139.0568,35.19006],[139.05625,35.18962],[139.0553,35.18937],[139.05475,35.18876],[139.05324,35.18863],[139.05292,35.18808],[139.0518,35.18769],[139.05117,35.18679],[139.05114,35.18648],[139.05034,35.18552],[139.04949,35.1852],[139.04888,35.18478],[139.04874,35.1841],[139.04821,35.18358],[139.04738,35.18352],[139.04629,35.18318],[139.04614,35.18293],[139.04611,35.1813],[139.04438,35.18067],[139.0438,35.18087],[139.04324,35.1808],[139.04263,35.18045],[139.042,35.17971],[139.04225,35.17926],[139.04169,35.17794],[139.0407,35.17786],[139.04001,35.17735],[139.0394,35.17718],[139.03779,35.177],[139.0367,35.17635],[139.03609,35.17612],[139.03536,35.17615],[139.03387,35.17699],[139.03256,35.17625],[139.03175,35.17565],[139.03025,35.17566],[139.0285,35.17554]],[[139.0971,35.16511],[139.09697,35.16571],[139.09737,35.16498],[139.0971,35.16511]]]}}]}