{"type":"FeatureCollection","features":[{"type":"Feature","properties":{"n":"大字阪本","b":[135.9787,33.8459,136.0092,33.8913],"m":"大字阪本","ci":0,"c":[135.99595,33.86898]},"geometry":{"type":"Polygon","coordinates":[[[135.99121,33.88739],[135.9913,33.88788],[135.99108,33.88862],[135.99093,33.88888],[135.99062,33.88913],[135.99062,33.88942],[135.99075,33.88987],[135.9909,33.89028],[135.99065,33.89088],[135.99003,33.89104],[135.98908,33.89104],[135.98859,33.89114],[135.9883,33.89121],[135.98792,33.89044],[135.98835,33.88989],[135.98832,33.88968],[135.98783,33.88863],[135.98769,33.88853],[135.98761,33.88839],[135.98769,33.88742],[135.9876,33.8872],[135.98739,33.88712],[135.98694,33.88741],[135.98645,33.88793],[135.98511,33.88914],[135.98492,33.8893],[135.98481,33.88944],[135.98464,33.88962],[135.98458,33.88967],[135.98435,33.88979],[135.98394,33.88997],[135.98339,33.89013],[135.98205,33.89051],[135.98162,33.89044],[135.98132,33.89035],[135.98091,33.88997],[135.9805,33.8895],[135.98031,33.8893],[135.98001,33.88908],[135.97968,33.88891],[135.9796,33.88885],[135.97955,33.88872],[135.9795,33.88813],[135.97906,33.88752],[135.9787,33.88729],[135.9795,33.88652],[135.97989,33.88611],[135.98211,33.88414],[135.98491,33.88156],[135.98601,33.88044],[135.98703,33.87876],[135.98777,33.87777],[135.98879,33.87649],[135.98983,33.87556],[135.98989,33.87545],[135.98997,33.87514],[135.99004,33.87465],[135.99053,33.87398],[135.99048,33.87357],[135.99017,33.87319],[135.98994,33.87283],[135.98965,33.87193],[135.98932,33.87078],[135.98933,33.87057],[135.98941,33.86983],[135.98894,33.86958],[135.98875,33.86942],[135.98801,33.86825],[135.98872,33.86033],[135.98948,33.85823],[135.98967,33.85762],[135.9901,33.85659],[135.99056,33.85554],[135.99153,33.8539],[135.99191,33.85302],[135.99264,33.85113],[135.99276,33.85085],[135.99303,33.85032],[135.99395,33.84881],[135.9942,33.84854],[135.99464,33.84821],[135.99612,33.84729],[135.99715,33.84681],[135.99738,33.84667],[135.99825,33.8459],[135.99864,33.84738],[135.99864,33.8479],[135.99863,33.84835],[135.99869,33.84859],[135.99881,33.85012],[135.99883,33.8503],[135.99899,33.8507],[135.99933,33.85112],[136.00049,33.85216],[136.00067,33.85239],[136.00103,33.85313],[136.00187,33.85415],[136.00208,33.85433],[136.00279,33.85489],[136.00296,33.85506],[136.00331,33.8555],[136.00384,33.85642],[136.00409,33.857],[136.00428,33.85756],[136.00501,33.8591],[136.0053,33.86],[136.00582,33.86129],[136.00618,33.86206],[136.00642,33.86312],[136.00676,33.8637],[136.00774,33.8645],[136.00858,33.8652],[136.00901,33.86569],[136.0088,33.86629],[136.00878,33.8664],[136.00879,33.86672],[136.00883,33.86702],[136.00892,33.86854],[136.00893,33.86871],[136.00919,33.86978],[136.00919,33.86984],[136.00911,33.87],[136.00861,33.8705],[136.00758,33.87147],[136.00744,33.87161],[136.00725,33.87194],[136.00721,33.87217],[136.00717,33.87245],[136.00711,33.87296],[136.00704,33.87329],[136.00662,33.8749],[136.00638,33.87553],[136.00633,33.87564],[136.00618,33.87579],[136.00561,33.87617],[136.00453,33.87698],[136.00441,33.8771],[136.00431,33.87777],[136.00429,33.8779],[136.00411,33.87839],[136.00404,33.87852],[136.00379,33.87891],[136.00358,33.87909],[136.00258,33.87949],[136.0024,33.87962],[136.00226,33.8798],[136.00199,33.88043],[136.0017,33.88094],[136.00154,33.88111],[136.00118,33.88131],[136.00001,33.88205],[135.9992,33.88238],[135.99861,33.88247],[135.99802,33.88276],[135.99776,33.88273],[135.99768,33.88268],[135.99677,33.882],[135.99636,33.88175],[135.99589,33.88137],[135.99556,33.8812],[135.99457,33.88083],[135.9936,33.88035],[135.99313,33.88004],[135.99245,33.87953],[135.9919,33.87943],[135.99151,33.87947],[135.99126,33.87959],[135.99063,33.88008],[135.99036,33.88036],[135.9902,33.88057],[135.98962,33.8816],[135.98923,33.88223],[135.98881,33.88312],[135.98846,33.88362],[135.98838,33.88381],[135.98931,33.88462],[135.9904,33.88596],[135.99107,33.88705],[135.99121,33.88739]]]}},{"type":"Feature","properties":{"n":"大字上野","b":[135.9701,33.8368,135.9983,33.8873],"m":"大字上野","ci":0,"c":[135.98531,33.86014]},"geometry":{"type":"Polygon","coordinates":[[[135.98211,33.88414],[135.97989,33.88611],[135.9795,33.88652],[135.9787,33.88729],[135.97833,33.88719],[135.97781,33.88605],[135.97714,33.88526],[135.97614,33.88605],[135.97469,33.88697],[135.97384,33.88638],[135.97339,33.88581],[135.97338,33.88523],[135.9732,33.88487],[135.97165,33.8833],[135.97055,33.88284],[135.9701,33.88214],[135.97023,33.88122],[135.97128,33.88113],[135.97203,33.88079],[135.97228,33.88065],[135.97262,33.88053],[135.97291,33.8805],[135.97325,33.88057],[135.97344,33.88063],[135.9741,33.88085],[135.97422,33.88086],[135.97446,33.88081],[135.97475,33.88058],[135.97549,33.87982],[135.97595,33.87936],[135.97628,33.87893],[135.97639,33.87878],[135.9774,33.8772],[135.97803,33.87632],[135.97872,33.87508],[135.97911,33.87403],[135.97955,33.87328],[135.98059,33.87185],[135.98123,33.87112],[135.98162,33.87047],[135.98191,33.86989],[135.98196,33.86971],[135.98199,33.86935],[135.98153,33.86883],[135.98139,33.86868],[135.98127,33.8682],[135.98118,33.86796],[135.98071,33.86749],[135.98015,33.8666],[135.97974,33.8662],[135.97947,33.86596],[135.97929,33.86566],[135.97933,33.86498],[135.97929,33.86485],[135.97891,33.8645],[135.97865,33.86418],[135.97903,33.8637],[135.97928,33.86341],[135.97926,33.86307],[135.97913,33.86284],[135.97915,33.86268],[135.97932,33.86221],[135.97898,33.8618],[135.97869,33.86172],[135.97857,33.86165],[135.97837,33.86117],[135.97839,33.86105],[135.97845,33.86099],[135.97867,33.86087],[135.97966,33.86004],[135.97983,33.85931],[135.97971,33.85916],[135.97952,33.85898],[135.97949,33.85874],[135.97969,33.85865],[135.9803,33.85844],[135.98042,33.8583],[135.98046,33.85792],[135.98044,33.85784],[135.98016,33.85761],[135.98004,33.85731],[135.98005,33.85712],[135.98015,33.85695],[135.98018,33.85667],[135.97985,33.85566],[135.98011,33.85516],[135.97986,33.85445],[135.98008,33.85395],[135.98078,33.85327],[135.98009,33.85253],[135.97983,33.8521],[135.97974,33.85095],[135.97988,33.84991],[135.97903,33.84947],[135.97876,33.84856],[135.97962,33.84858],[135.97937,33.84805],[135.97954,33.84719],[135.9795,33.84641],[135.97897,33.8457],[135.97957,33.84538],[135.98143,33.84469],[135.98195,33.84456],[135.98324,33.84366],[135.98506,33.84312],[135.98547,33.84287],[135.9846,33.84201],[135.98467,33.84154],[135.98459,33.84059],[135.98487,33.84034],[135.98518,33.83956],[135.9854,33.83835],[135.98625,33.83746],[135.98646,33.83681],[135.98701,33.83692],[135.98788,33.8371],[135.99,33.83787],[135.99089,33.83801],[135.99132,33.83795],[135.99192,33.83776],[135.99247,33.83746],[135.99355,33.83713],[135.99434,33.83726],[135.99625,33.8377],[135.99772,33.83829],[135.99782,33.843],[135.99787,33.84382],[135.99818,33.84532],[135.99825,33.8459],[135.99738,33.84667],[135.99715,33.84681],[135.99612,33.84729],[135.99464,33.84821],[135.9942,33.84854],[135.99395,33.84881],[135.99303,33.85032],[135.99276,33.85085],[135.99264,33.85113],[135.99191,33.85302],[135.99153,33.8539],[135.99056,33.85554],[135.9901,33.85659],[135.98967,33.85762],[135.98948,33.85823],[135.98872,33.86033],[135.98801,33.86825],[135.98875,33.86942],[135.98894,33.86958],[135.98941,33.86983],[135.98933,33.87057],[135.98932,33.87078],[135.98965,33.87193],[135.98994,33.87283],[135.99017,33.87319],[135.99048,33.87357],[135.99053,33.87398],[135.99004,33.87465],[135.98997,33.87514],[135.98989,33.87545],[135.98983,33.87556],[135.98879,33.87649],[135.98777,33.87777],[135.98703,33.87876],[135.98601,33.88044],[135.98491,33.88156],[135.98211,33.88414]]]}},{"type":"Feature","properties":{"n":"大字川瀬","b":[135.9677,33.8564,135.982,33.8813],"m":"大字川瀬","ci":0,"c":[135.97462,33.86889]},"geometry":{"type":"Polygon","coordinates":[[[135.97023,33.88122],[135.97026,33.88107],[135.96773,33.87978],[135.96786,33.87924],[135.96787,33.87908],[135.96786,33.87891],[135.96815,33.87855],[135.96823,33.87841],[135.96831,33.87782],[135.96831,33.87765],[135.96833,33.87758],[135.96847,33.87741],[135.96864,33.87716],[135.96879,33.87693],[135.96917,33.87542],[135.96916,33.87517],[135.96923,33.87482],[135.96911,33.87454],[135.96917,33.8743],[135.96925,33.87421],[135.96937,33.87414],[135.9694,33.87408],[135.96947,33.87385],[135.96981,33.87366],[135.96995,33.87353],[135.97017,33.87335],[135.96989,33.87289],[135.96955,33.87262],[135.96943,33.87247],[135.96942,33.87226],[135.9695,33.8718],[135.96958,33.87156],[135.96957,33.87144],[135.96954,33.87109],[135.96969,33.87089],[135.96977,33.87076],[135.96983,33.87047],[135.96984,33.87019],[135.96993,33.86993],[135.97009,33.86974],[135.97011,33.86967],[135.97,33.86945],[135.97003,33.86918],[135.97038,33.86858],[135.9705,33.86848],[135.97065,33.86817],[135.97063,33.86801],[135.97031,33.86767],[135.97026,33.86736],[135.97019,33.86723],[135.97001,33.86694],[135.96971,33.86631],[135.96968,33.86606],[135.96967,33.86597],[135.96953,33.86551],[135.9695,33.86533],[135.9694,33.86493],[135.97012,33.86365],[135.97053,33.86342],[135.97056,33.86338],[135.97056,33.86334],[135.97053,33.8631],[135.9705,33.86298],[135.97012,33.86182],[135.96998,33.8615],[135.96985,33.86138],[135.9711,33.85784],[135.97162,33.85778],[135.97196,33.85774],[135.97255,33.85773],[135.97308,33.85824],[135.97366,33.85879],[135.97376,33.85875],[135.97449,33.85833],[135.97501,33.85779],[135.9755,33.8572],[135.97626,33.85654],[135.97681,33.85641],[135.97878,33.8564],[135.97948,33.85644],[135.97975,33.85648],[135.98018,33.85667],[135.98015,33.85695],[135.98005,33.85712],[135.98004,33.85731],[135.98016,33.85761],[135.98044,33.85784],[135.98046,33.85792],[135.98042,33.8583],[135.9803,33.85844],[135.97969,33.85865],[135.97949,33.85874],[135.97952,33.85898],[135.97971,33.85916],[135.97983,33.85931],[135.97966,33.86004],[135.97867,33.86087],[135.97845,33.86099],[135.97839,33.86105],[135.97837,33.86117],[135.97857,33.86165],[135.97869,33.86172],[135.97898,33.8618],[135.97932,33.86221],[135.97915,33.86268],[135.97913,33.86284],[135.97926,33.86307],[135.97928,33.86341],[135.97903,33.8637],[135.97865,33.86418],[135.97891,33.8645],[135.97929,33.86485],[135.97933,33.86498],[135.97929,33.86566],[135.97947,33.86596],[135.97974,33.8662],[135.98015,33.8666],[135.98071,33.86749],[135.98118,33.86796],[135.98127,33.8682],[135.98139,33.86868],[135.98153,33.86883],[135.98199,33.86935],[135.98196,33.86971],[135.98191,33.86989],[135.98162,33.87047],[135.98123,33.87112],[135.98059,33.87185],[135.97955,33.87328],[135.97911,33.87403],[135.97872,33.87508],[135.97803,33.87632],[135.9774,33.8772],[135.97639,33.87878],[135.97628,33.87893],[135.97595,33.87936],[135.97549,33.87982],[135.97475,33.88058],[135.97446,33.88081],[135.97422,33.88086],[135.9741,33.88085],[135.97344,33.88063],[135.97325,33.88057],[135.97291,33.8805],[135.97262,33.88053],[135.97228,33.88065],[135.97203,33.88079],[135.97128,33.88113],[135.97023,33.88122]]]}},{"type":"Feature","properties":{"n":"大字栗須","b":[135.9595,33.8368,135.9865,33.8614],"m":"大字栗須","ci":0,"c":[135.97138,33.85015]},"geometry":{"type":"Polygon","coordinates":[[[135.96985,33.86138],[135.96907,33.86107],[135.96777,33.86127],[135.96706,33.86127],[135.96632,33.86089],[135.96238,33.85854],[135.962,33.85794],[135.96201,33.85725],[135.96228,33.8568],[135.96213,33.85507],[135.96237,33.85409],[135.96294,33.85344],[135.96209,33.85308],[135.96139,33.85256],[135.96101,33.85149],[135.9614,33.84971],[135.96196,33.84837],[135.96171,33.84737],[135.96178,33.84679],[135.96132,33.84648],[135.96052,33.8465],[135.96005,33.84629],[135.95956,33.84517],[135.96179,33.84401],[135.96301,33.84357],[135.96341,33.84344],[135.96427,33.84321],[135.96476,33.84302],[135.96548,33.84289],[135.96572,33.84284],[135.96639,33.84249],[135.96667,33.84251],[135.96743,33.84311],[135.96766,33.84324],[135.96842,33.84343],[135.96961,33.84364],[135.97,33.84364],[135.9703,33.8436],[135.97142,33.84337],[135.97179,33.84336],[135.97314,33.84346],[135.97348,33.84341],[135.97409,33.84325],[135.97457,33.84315],[135.97494,33.84306],[135.97768,33.84253],[135.9792,33.84159],[135.97978,33.84142],[135.98058,33.84156],[135.98082,33.8415],[135.98146,33.84089],[135.98211,33.84],[135.98251,33.83962],[135.98266,33.8391],[135.9835,33.83797],[135.98392,33.83752],[135.98423,33.83757],[135.98482,33.83733],[135.98564,33.83686],[135.98646,33.83681],[135.98625,33.83746],[135.9854,33.83835],[135.98518,33.83956],[135.98487,33.84034],[135.98459,33.84059],[135.98467,33.84154],[135.9846,33.84201],[135.98547,33.84287],[135.98506,33.84312],[135.98324,33.84366],[135.98195,33.84456],[135.98143,33.84469],[135.97957,33.84538],[135.97897,33.8457],[135.9795,33.84641],[135.97954,33.84719],[135.97937,33.84805],[135.97962,33.84858],[135.97876,33.84856],[135.97903,33.84947],[135.97988,33.84991],[135.97974,33.85095],[135.97983,33.8521],[135.98009,33.85253],[135.98078,33.85327],[135.98008,33.85395],[135.97986,33.85445],[135.98011,33.85516],[135.97985,33.85566],[135.98018,33.85667],[135.97975,33.85648],[135.97948,33.85644],[135.97878,33.8564],[135.97681,33.85641],[135.97626,33.85654],[135.9755,33.8572],[135.97501,33.85779],[135.97449,33.85833],[135.97376,33.85875],[135.97366,33.85879],[135.97308,33.85824],[135.97255,33.85773],[135.97196,33.85774],[135.97162,33.85778],[135.9711,33.85784],[135.96985,33.86138]]]}},{"type":"Feature","properties":{"n":"大字片川","b":[135.9358,33.8163,135.984,33.8474],"m":"大字片川","ci":0,"c":[135.9611,33.8335]},"geometry":{"type":"Polygon","coordinates":[[[135.95956,33.84517],[135.95926,33.84517],[135.95834,33.84523],[135.95787,33.84535],[135.95774,33.84538],[135.95714,33.84545],[135.95627,33.84563],[135.95599,33.84568],[135.95585,33.84566],[135.9552,33.84551],[135.95476,33.8455],[135.95409,33.84557],[135.95406,33.84575],[135.95388,33.84615],[135.95368,33.84663],[135.95364,33.8467],[135.95335,33.84688],[135.9524,33.84731],[135.9519,33.84722],[135.95132,33.84712],[135.95022,33.84677],[135.94934,33.84663],[135.94896,33.84646],[135.94854,33.84624],[135.94839,33.84622],[135.94785,33.84622],[135.94659,33.84597],[135.9462,33.84603],[135.94562,33.84614],[135.94547,33.8462],[135.94482,33.84658],[135.94451,33.84661],[135.94429,33.84669],[135.94403,33.84672],[135.94382,33.8467],[135.94335,33.84674],[135.94284,33.84666],[135.94257,33.84663],[135.94196,33.84643],[135.94173,33.8463],[135.94142,33.8462],[135.94094,33.8461],[135.94046,33.8459],[135.94019,33.8459],[135.93887,33.84558],[135.9384,33.84526],[135.93808,33.84503],[135.93777,33.84452],[135.93764,33.84421],[135.9377,33.84355],[135.93794,33.84317],[135.93809,33.84309],[135.93829,33.84295],[135.93845,33.84279],[135.93856,33.84254],[135.93865,33.84235],[135.93877,33.84213],[135.93878,33.84205],[135.93875,33.84191],[135.93859,33.84161],[135.93858,33.84115],[135.93856,33.84098],[135.93832,33.84069],[135.93828,33.84064],[135.93818,33.84018],[135.93805,33.83965],[135.93795,33.83939],[135.93756,33.83907],[135.93744,33.83866],[135.93694,33.83744],[135.93671,33.83708],[135.93662,33.83703],[135.93637,33.83694],[135.936,33.8368],[135.93586,33.83648],[135.93602,33.83611],[135.93629,33.83592],[135.93657,33.83567],[135.93777,33.83466],[135.93802,33.83455],[135.9384,33.83447],[135.93854,33.83429],[135.93865,33.83402],[135.93871,33.83393],[135.93899,33.83362],[135.93923,33.83317],[135.93933,33.83286],[135.93956,33.83238],[135.93973,33.83195],[135.93984,33.83179],[135.94019,33.8318],[135.9407,33.83185],[135.94125,33.83186],[135.94163,33.83164],[135.94183,33.83141],[135.94188,33.83136],[135.94215,33.83091],[135.94236,33.83021],[135.94309,33.8296],[135.94347,33.82917],[135.94411,33.82862],[135.94438,33.82826],[135.94454,33.82809],[135.94516,33.82762],[135.94524,33.82756],[135.9454,33.8275],[135.94578,33.82748],[135.94674,33.82774],[135.94681,33.82789],[135.94687,33.82803],[135.94709,33.82843],[135.9473,33.82889],[135.94771,33.82966],[135.94787,33.82999],[135.94803,33.83021],[135.94815,33.83032],[135.94856,33.83035],[135.94907,33.83017],[135.9493,33.82999],[135.94935,33.82995],[135.94945,33.8299],[135.94956,33.82986],[135.95007,33.82969],[135.95083,33.82904],[135.9509,33.82866],[135.95078,33.82765],[135.95075,33.82708],[135.95079,33.82609],[135.9509,33.82567],[135.95095,33.82559],[135.95137,33.8252],[135.95148,33.82513],[135.95196,33.82489],[135.95213,33.82484],[135.95233,33.8248],[135.95244,33.8248],[135.95302,33.82492],[135.95323,33.82479],[135.95331,33.82476],[135.95335,33.82477],[135.95352,33.82484],[135.95368,33.82484],[135.95388,33.82475],[135.95407,33.82449],[135.95439,33.82442],[135.95464,33.82439],[135.95523,33.82423],[135.95556,33.82406],[135.95591,33.82377],[135.95615,33.82365],[135.95641,33.82359],[135.95678,33.82357],[135.95734,33.82352],[135.95766,33.82329],[135.95818,33.82297],[135.9583,33.82296],[135.95886,33.82295],[135.95944,33.82277],[135.95991,33.82254],[135.96028,33.82226],[135.96035,33.8219],[135.96127,33.82133],[135.96191,33.82093],[135.96203,33.82079],[135.96181,33.82044],[135.96179,33.82038],[135.96232,33.82013],[135.96234,33.81996],[135.96249,33.81969],[135.96273,33.8195],[135.96284,33.81947],[135.96336,33.81941],[135.96357,33.81932],[135.96371,33.81912],[135.96368,33.81885],[135.96369,33.81879],[135.96382,33.81864],[135.96413,33.8184],[135.96428,33.81825],[135.96429,33.81793],[135.96398,33.81761],[135.96402,33.81732],[135.96598,33.817],[135.96695,33.81712],[135.96766,33.81788],[135.96815,33.81813],[135.96883,33.81756],[135.96945,33.81678],[135.97008,33.81638],[135.97118,33.81644],[135.97178,33.8166],[135.97267,33.81737],[135.97329,33.81776],[135.97365,33.81831],[135.97407,33.81823],[135.97638,33.81799],[135.97687,33.81823],[135.97763,33.81846],[135.97845,33.8184],[135.97892,33.81848],[135.97914,33.81854],[135.9795,33.81851],[135.97975,33.81846],[135.98001,33.81847],[135.98022,33.81854],[135.98052,33.81881],[135.98066,33.81896],[135.98141,33.82005],[135.98256,33.82156],[135.98194,33.82166],[135.98041,33.82264],[135.97939,33.82307],[135.97619,33.82374],[135.97574,33.82421],[135.97618,33.8255],[135.97539,33.82673],[135.97676,33.8276],[135.97747,33.82855],[135.97918,33.83013],[135.98048,33.83127],[135.98066,33.83183],[135.98027,33.83279],[135.98054,33.8334],[135.98189,33.83431],[135.9828,33.83469],[135.9831,33.83513],[135.98298,33.83647],[135.98326,33.83706],[135.98392,33.83752],[135.9835,33.83797],[135.98266,33.8391],[135.98251,33.83962],[135.98211,33.84],[135.98146,33.84089],[135.98082,33.8415],[135.98058,33.84156],[135.97978,33.84142],[135.9792,33.84159],[135.97768,33.84253],[135.97494,33.84306],[135.97457,33.84315],[135.97409,33.84325],[135.97348,33.84341],[135.97314,33.84346],[135.97179,33.84336],[135.97142,33.84337],[135.9703,33.8436],[135.97,33.84364],[135.96961,33.84364],[135.96842,33.84343],[135.96766,33.84324],[135.96743,33.84311],[135.96667,33.84251],[135.96639,33.84249],[135.96572,33.84284],[135.96548,33.84289],[135.96476,33.84302],[135.96427,33.84321],[135.96341,33.84344],[135.96301,33.84357],[135.96179,33.84401],[135.95956,33.84517]]]}},{"type":"Feature","properties":{"n":"大字西原","b":[135.9753,33.8208,136.0025,33.8383],"m":"大字西原","ci":0,"c":[135.98903,33.82967]},"geometry":{"type":"Polygon","coordinates":[[[135.98282,33.82148],[135.98307,33.82139],[135.98327,33.82129],[135.98393,33.8209],[135.98449,33.82082],[135.98544,33.82093],[135.98626,33.8212],[135.98694,33.8216],[135.98726,33.82175],[135.98749,33.82182],[135.989,33.82225],[135.98947,33.82269],[135.99009,33.82306],[135.99069,33.82329],[135.9917,33.82358],[135.99241,33.8239],[135.99349,33.82469],[135.99368,33.82477],[135.99382,33.82477],[135.99492,33.82468],[135.99506,33.82471],[135.99583,33.82506],[135.99594,33.82517],[135.99615,33.82538],[135.99741,33.82604],[135.99748,33.82608],[135.99863,33.8261],[135.99913,33.82615],[135.99961,33.82628],[135.99993,33.8267],[136.00045,33.82769],[136.00104,33.82853],[136.00209,33.82976],[136.0024,33.83029],[136.00248,33.83083],[136.00245,33.83142],[136.00219,33.83185],[136.00192,33.83219],[136.0017,33.83264],[136.00147,33.83304],[136.00069,33.833],[136.00014,33.83315],[135.99971,33.83355],[135.99961,33.83368],[135.99942,33.83395],[135.99871,33.83496],[135.9984,33.83569],[135.99803,33.83687],[135.99772,33.83829],[135.99625,33.8377],[135.99434,33.83726],[135.99355,33.83713],[135.99247,33.83746],[135.99192,33.83776],[135.99132,33.83795],[135.99089,33.83801],[135.99,33.83787],[135.98788,33.8371],[135.98701,33.83692],[135.98646,33.83681],[135.98564,33.83686],[135.98482,33.83733],[135.98423,33.83757],[135.98392,33.83752],[135.98326,33.83706],[135.98298,33.83647],[135.9831,33.83513],[135.9828,33.83469],[135.98189,33.83431],[135.98054,33.8334],[135.98027,33.83279],[135.98066,33.83183],[135.98048,33.83127],[135.97918,33.83013],[135.97747,33.82855],[135.97676,33.8276],[135.97539,33.82673],[135.97618,33.8255],[135.97574,33.82421],[135.97619,33.82374],[135.97939,33.82307],[135.98041,33.82264],[135.98194,33.82166],[135.98256,33.82156],[135.98277,33.82149],[135.98282,33.82148]]]}},{"type":"Feature","properties":{"n":"大字中立","b":[135.9828,33.8078,136.0223,33.8459],"m":"大字中立","ci":0,"c":[136.00491,33.82116]},"geometry":{"type":"Polygon","coordinates":[[[136.00628,33.83302],[136.00597,33.83315],[136.00582,33.83326],[136.00491,33.83356],[136.0048,33.83364],[136.0041,33.83414],[136.00366,33.83448],[136.00328,33.83495],[136.00319,33.83528],[136.00312,33.83656],[136.00315,33.83697],[136.0032,33.83724],[136.00314,33.83785],[136.00295,33.83821],[136.00248,33.83941],[136.00247,33.8399],[136.00227,33.84027],[136.00191,33.84061],[136.00177,33.84114],[136.00174,33.84143],[136.0017,33.84206],[136.00161,33.8422],[136.00106,33.84273],[136.00095,33.84278],[136.0006,33.84282],[136.00048,33.84283],[135.99969,33.84313],[135.99971,33.8436],[135.99968,33.84384],[135.99961,33.84391],[135.99886,33.84455],[135.99875,33.84476],[135.9985,33.84545],[135.99836,33.84577],[135.99825,33.8459],[135.99818,33.84532],[135.99787,33.84382],[135.99782,33.843],[135.99772,33.83829],[135.99803,33.83687],[135.9984,33.83569],[135.99871,33.83496],[135.99942,33.83395],[135.99961,33.83368],[135.99971,33.83355],[136.00014,33.83315],[136.00069,33.833],[136.00147,33.83304],[136.0017,33.83264],[136.00192,33.83219],[136.00219,33.83185],[136.00245,33.83142],[136.00248,33.83083],[136.0024,33.83029],[136.00209,33.82976],[136.00104,33.82853],[136.00045,33.82769],[135.99993,33.8267],[135.99961,33.82628],[135.99913,33.82615],[135.99863,33.8261],[135.99748,33.82608],[135.99741,33.82604],[135.99615,33.82538],[135.99594,33.82517],[135.99583,33.82506],[135.99506,33.82471],[135.99492,33.82468],[135.99382,33.82477],[135.99368,33.82477],[135.99349,33.82469],[135.99241,33.8239],[135.9917,33.82358],[135.99069,33.82329],[135.99009,33.82306],[135.98947,33.82269],[135.989,33.82225],[135.98749,33.82182],[135.98726,33.82175],[135.98694,33.8216],[135.98626,33.8212],[135.98544,33.82093],[135.98449,33.82082],[135.98393,33.8209],[135.98327,33.82129],[135.98307,33.82139],[135.98282,33.82148],[135.98338,33.82064],[135.98398,33.82019],[135.98408,33.81947],[135.98426,33.8191],[135.98568,33.81871],[135.98618,33.81837],[135.98649,33.81774],[135.98724,33.81767],[135.98879,33.81713],[135.9891,33.81682],[135.9901,33.81627],[135.99036,33.81585],[135.99033,33.81438],[135.99066,33.81325],[135.99047,33.81232],[135.99058,33.81195],[135.99131,33.81108],[135.99202,33.81152],[135.99411,33.81162],[135.995,33.81082],[135.99613,33.81034],[135.9972,33.81005],[135.99777,33.81017],[135.99851,33.81082],[135.99867,33.81159],[135.9989,33.81199],[135.9993,33.81226],[135.99991,33.8123],[136.00037,33.81173],[136.00258,33.80938],[136.00288,33.80918],[136.00343,33.80916],[136.00447,33.80948],[136.0054,33.80955],[136.00705,33.8092],[136.00983,33.80891],[136.01048,33.80877],[136.01113,33.80847],[136.01293,33.80798],[136.01422,33.8078],[136.01525,33.8079],[136.01944,33.80985],[136.02065,33.81053],[136.02153,33.81116],[136.02226,33.81135],[136.02225,33.81188],[136.02135,33.81281],[136.02007,33.81367],[136.01976,33.81382],[136.01819,33.8145],[136.01735,33.81492],[136.0168,33.81518],[136.01626,33.8158],[136.01618,33.81601],[136.01605,33.81653],[136.01611,33.81704],[136.0168,33.81879],[136.01703,33.81908],[136.01724,33.81931],[136.01742,33.82021],[136.01721,33.82064],[136.0171,33.82102],[136.0173,33.82147],[136.01773,33.82155],[136.01834,33.82159],[136.01866,33.82179],[136.01928,33.82288],[136.01939,33.82301],[136.02019,33.82364],[136.0202,33.8248],[136.01959,33.82624],[136.01919,33.82669],[136.01831,33.82739],[136.01755,33.82787],[136.01734,33.82795],[136.01699,33.82804],[136.01684,33.82805],[136.01655,33.82861],[136.01626,33.82908],[136.01588,33.82949],[136.01483,33.83041],[136.01445,33.83093],[136.01426,33.83148],[136.01423,33.83215],[136.01412,33.83274],[136.01401,33.8329],[136.01342,33.83305],[136.01336,33.83311],[136.0131,33.83337],[136.01298,33.83344],[136.01231,33.8336],[136.01188,33.83348],[136.0117,33.8332],[136.01171,33.83199],[136.01147,33.83166],[136.01121,33.83169],[136.01073,33.83193],[136.01044,33.8321],[136.01027,33.83215],[136.00989,33.83214],[136.00953,33.83217],[136.00906,33.83231],[136.00874,33.83248],[136.00809,33.83271],[136.00673,33.83292],[136.00628,33.83302]]]}},{"type":"Feature","properties":{"n":"大字柿原","b":[135.9947,33.7943,136.025,33.8123],"m":"大字柿原","ci":0,"c":[136.00992,33.80313]},"geometry":{"type":"Polygon","coordinates":[[[136.02226,33.81135],[136.02153,33.81116],[136.02065,33.81053],[136.01944,33.80985],[136.01525,33.8079],[136.01422,33.8078],[136.01293,33.80798],[136.01113,33.80847],[136.01048,33.80877],[136.00983,33.80891],[136.00705,33.8092],[136.0054,33.80955],[136.00447,33.80948],[136.00343,33.80916],[136.00288,33.80918],[136.00258,33.80938],[136.00037,33.81173],[135.99991,33.8123],[135.9993,33.81226],[135.9989,33.81199],[135.99867,33.81159],[135.99851,33.81082],[135.99777,33.81017],[135.9972,33.81005],[135.99613,33.81034],[135.995,33.81082],[135.9948,33.81043],[135.99475,33.80948],[135.99622,33.80744],[135.99664,33.80662],[135.99726,33.80578],[135.99719,33.80463],[135.99736,33.80421],[135.99721,33.80315],[135.99743,33.80228],[135.9973,33.80149],[135.99764,33.80103],[135.99745,33.79894],[135.9979,33.79839],[135.99777,33.79752],[135.99844,33.7968],[135.99866,33.79614],[135.99923,33.7951],[135.99969,33.79462],[136.00028,33.79461],[136.00107,33.79488],[136.00151,33.79484],[136.00195,33.79506],[136.00326,33.79519],[136.00377,33.79504],[136.0043,33.79579],[136.00448,33.79602],[136.00479,33.7967],[136.00508,33.79702],[136.00572,33.79735],[136.00636,33.79765],[136.00744,33.79825],[136.00772,33.7984],[136.008,33.79847],[136.00847,33.79837],[136.00881,33.79831],[136.00931,33.79851],[136.00989,33.79904],[136.01048,33.79958],[136.01098,33.79984],[136.01124,33.80005],[136.01159,33.80049],[136.01183,33.80022],[136.01204,33.80003],[136.01264,33.79942],[136.01284,33.79931],[136.01351,33.79896],[136.0137,33.79881],[136.01434,33.79828],[136.01595,33.79691],[136.01629,33.79666],[136.01809,33.79561],[136.01835,33.79557],[136.01877,33.79552],[136.01902,33.79547],[136.01955,33.79542],[136.0197,33.79543],[136.02015,33.79554],[136.02223,33.79635],[136.0225,33.79584],[136.02376,33.79454],[136.02497,33.79439],[136.025,33.79446],[136.0246,33.79504],[136.02417,33.7962],[136.02403,33.79685],[136.0241,33.79719],[136.02439,33.79794],[136.02437,33.79824],[136.02387,33.79872],[136.0238,33.79901],[136.02393,33.79953],[136.02464,33.80045],[136.02473,33.80076],[136.0247,33.80084],[136.02416,33.80133],[136.02368,33.80184],[136.02287,33.80309],[136.02322,33.8042],[136.02328,33.80459],[136.02362,33.80533],[136.02317,33.80606],[136.02304,33.80633],[136.02298,33.80681],[136.02277,33.80722],[136.02232,33.80779],[136.02221,33.80829],[136.0222,33.80964],[136.02232,33.80985],[136.02241,33.81031],[136.02226,33.81135]]]}},{"type":"Feature","properties":{"n":"大字引作","b":[136.0037,33.784,136.0184,33.8005],"m":"大字引作","ci":0,"c":[136.01062,33.79309]},"geometry":{"type":"Polygon","coordinates":[[[136.01835,33.79557],[136.01809,33.79561],[136.01629,33.79666],[136.01595,33.79691],[136.01434,33.79828],[136.0137,33.79881],[136.01351,33.79896],[136.01284,33.79931],[136.01264,33.79942],[136.01204,33.80003],[136.01183,33.80022],[136.01159,33.80049],[136.01124,33.80005],[136.01098,33.79984],[136.01048,33.79958],[136.00989,33.79904],[136.00931,33.79851],[136.00881,33.79831],[136.00847,33.79837],[136.008,33.79847],[136.00772,33.7984],[136.00744,33.79825],[136.00636,33.79765],[136.00572,33.79735],[136.00508,33.79702],[136.00479,33.7967],[136.00448,33.79602],[136.0043,33.79579],[136.00377,33.79504],[136.00398,33.79489],[136.00407,33.79427],[136.00414,33.7941],[136.00444,33.79371],[136.00452,33.79347],[136.00456,33.7933],[136.00482,33.79275],[136.00502,33.79259],[136.00513,33.79255],[136.00561,33.79236],[136.00564,33.79222],[136.00573,33.79201],[136.00582,33.79191],[136.00597,33.79179],[136.00647,33.79162],[136.00651,33.79156],[136.00653,33.79112],[136.00653,33.79095],[136.00647,33.79078],[136.00621,33.79048],[136.00621,33.79036],[136.00639,33.78981],[136.00641,33.78973],[136.00637,33.78949],[136.0066,33.78861],[136.00672,33.78834],[136.00682,33.78805],[136.00712,33.78759],[136.00718,33.78728],[136.00715,33.78684],[136.00714,33.78614],[136.00799,33.78554],[136.00861,33.78403],[136.00873,33.78402],[136.01001,33.78509],[136.01043,33.78532],[136.01074,33.78545],[136.01139,33.78555],[136.01204,33.78695],[136.01262,33.78867],[136.01265,33.78944],[136.01312,33.78989],[136.01335,33.78988],[136.01413,33.78962],[136.01442,33.78976],[136.01526,33.79079],[136.01595,33.79183],[136.01631,33.79273],[136.01659,33.79311],[136.01758,33.79372],[136.01774,33.79386],[136.01782,33.794],[136.01826,33.79527],[136.01835,33.79557]]]}},{"type":"Feature","properties":{"n":"大字阿田和","b":[136.0054,33.7725,136.0516,33.8237],"m":"大字阿田和","ci":0,"c":[136.02897,33.79756]},"geometry":{"type":"Polygon","coordinates":[[[136.03354,33.82008],[136.03274,33.81947],[136.03083,33.81877],[136.02976,33.81887],[136.02867,33.81873],[136.0271,33.81888],[136.02657,33.81915],[136.02566,33.82036],[136.02357,33.82141],[136.02276,33.82169],[136.02177,33.8219],[136.02096,33.82238],[136.02028,33.82324],[136.02019,33.82364],[136.01939,33.82301],[136.01928,33.82288],[136.01866,33.82179],[136.01834,33.82159],[136.01773,33.82155],[136.0173,33.82147],[136.0171,33.82102],[136.01721,33.82064],[136.01742,33.82021],[136.01724,33.81931],[136.01703,33.81908],[136.0168,33.81879],[136.01611,33.81704],[136.01605,33.81653],[136.01618,33.81601],[136.01626,33.8158],[136.0168,33.81518],[136.01735,33.81492],[136.01819,33.8145],[136.01976,33.81382],[136.02007,33.81367],[136.02135,33.81281],[136.02225,33.81188],[136.02226,33.81135],[136.02241,33.81031],[136.02232,33.80985],[136.0222,33.80964],[136.02221,33.80829],[136.02232,33.80779],[136.02277,33.80722],[136.02298,33.80681],[136.02304,33.80633],[136.02317,33.80606],[136.02362,33.80533],[136.02328,33.80459],[136.02322,33.8042],[136.02287,33.80309],[136.02368,33.80184],[136.02416,33.80133],[136.0247,33.80084],[136.02473,33.80076],[136.02464,33.80045],[136.02393,33.79953],[136.0238,33.79901],[136.02387,33.79872],[136.02437,33.79824],[136.02439,33.79794],[136.0241,33.79719],[136.02403,33.79685],[136.02417,33.7962],[136.0246,33.79504],[136.025,33.79446],[136.02497,33.79439],[136.02376,33.79454],[136.0225,33.79584],[136.02223,33.79635],[136.02015,33.79554],[136.0197,33.79543],[136.01955,33.79542],[136.01902,33.79547],[136.01877,33.79552],[136.01835,33.79557],[136.01826,33.79527],[136.01782,33.794],[136.01774,33.79386],[136.01758,33.79372],[136.01659,33.79311],[136.01631,33.79273],[136.01595,33.79183],[136.01526,33.79079],[136.01442,33.78976],[136.01413,33.78962],[136.01335,33.78988],[136.01312,33.78989],[136.01265,33.78944],[136.01262,33.78867],[136.01204,33.78695],[136.01139,33.78555],[136.01074,33.78545],[136.01043,33.78532],[136.01001,33.78509],[136.00873,33.78402],[136.00861,33.78403],[136.00799,33.78554],[136.00714,33.78614],[136.00724,33.78508],[136.00746,33.78375],[136.00747,33.78316],[136.00732,33.78245],[136.00649,33.78182],[136.00599,33.7813],[136.00548,33.78034],[136.00585,33.78006],[136.00632,33.77998],[136.00678,33.77905],[136.0063,33.77825],[136.00595,33.7773],[136.00605,33.77718],[136.00681,33.7774],[136.00824,33.77736],[136.00927,33.77702],[136.01004,33.77761],[136.01305,33.77896],[136.01504,33.77868],[136.01601,33.77881],[136.017,33.77872],[136.01744,33.77856],[136.01809,33.77806],[136.01937,33.77787],[136.02101,33.77735],[136.02192,33.77695],[136.02247,33.77706],[136.02309,33.77691],[136.02327,33.77657],[136.02399,33.77623],[136.02395,33.77594],[136.02444,33.77552],[136.02481,33.77582],[136.02526,33.77567],[136.02563,33.77513],[136.02669,33.77442],[136.02817,33.77404],[136.02925,33.77363],[136.0318,33.77255],[136.03242,33.77353],[136.03191,33.77325],[136.03179,33.77362],[136.03175,33.7746],[136.03124,33.77456],[136.0309,33.77411],[136.0311,33.7747],[136.03186,33.77473],[136.03181,33.77417],[136.03193,33.77332],[136.03252,33.77373],[136.03285,33.77437],[136.03303,33.77504],[136.0342,33.77812],[136.0345,33.77918],[136.03527,33.78075],[136.03611,33.78203],[136.0362,33.78246],[136.03708,33.78411],[136.03737,33.78546],[136.03801,33.78605],[136.03874,33.78828],[136.03915,33.78904],[136.03934,33.7897],[136.03996,33.79091],[136.04014,33.79178],[136.04075,33.79344],[136.04115,33.79512],[136.0425,33.79852],[136.04332,33.79991],[136.04642,33.80599],[136.04638,33.8062],[136.04691,33.80711],[136.04721,33.80784],[136.04803,33.80911],[136.04809,33.8094],[136.04923,33.81117],[136.04974,33.8118],[136.05053,33.8125],[136.05155,33.81358],[136.05013,33.81432],[136.04903,33.81474],[136.04824,33.81485],[136.04647,33.81482],[136.04604,33.81496],[136.04407,33.81489],[136.04259,33.81459],[136.04118,33.81408],[136.04024,33.81397],[136.03889,33.81402],[136.03837,33.8142],[136.03838,33.81508],[136.03826,33.81552],[136.03782,33.81601],[136.03756,33.8168],[136.03646,33.81769],[136.03533,33.81879],[136.03415,33.81979],[136.03354,33.82008]]]}},{"type":"Feature","properties":{"n":"大字上市木","b":[135.9982,33.8187,136.0437,33.8657],"m":"大字上市木","ci":0,"c":[136.02109,33.84142]},"geometry":{"type":"Polygon","coordinates":[[[136.03403,33.85048],[136.0334,33.8503],[136.03272,33.85041],[136.03077,33.85124],[136.02964,33.85149],[136.02873,33.85144],[136.028,33.85087],[136.02656,33.85098],[136.02557,33.85118],[136.02481,33.85162],[136.02502,33.85246],[136.02491,33.85274],[136.02415,33.85342],[136.02287,33.85522],[136.02205,33.85623],[136.02159,33.85692],[136.02085,33.85753],[136.0205,33.85828],[136.02,33.85885],[136.01834,33.85944],[136.01789,33.86008],[136.01796,33.86052],[136.01724,33.86094],[136.01514,33.86189],[136.01365,33.86247],[136.0116,33.86354],[136.01021,33.86479],[136.00901,33.86569],[136.00858,33.8652],[136.00774,33.8645],[136.00676,33.8637],[136.00642,33.86312],[136.00618,33.86206],[136.00582,33.86129],[136.0053,33.86],[136.00501,33.8591],[136.00428,33.85756],[136.00409,33.857],[136.00384,33.85642],[136.00331,33.8555],[136.00296,33.85506],[136.00279,33.85489],[136.00208,33.85433],[136.00187,33.85415],[136.00103,33.85313],[136.00067,33.85239],[136.00049,33.85216],[135.99933,33.85112],[135.99899,33.8507],[135.99883,33.8503],[135.99881,33.85012],[135.99869,33.84859],[135.99863,33.84835],[135.99864,33.8479],[135.99864,33.84738],[135.99825,33.8459],[135.99836,33.84577],[135.9985,33.84545],[135.99875,33.84476],[135.99886,33.84455],[135.99961,33.84391],[135.99968,33.84384],[135.99971,33.8436],[135.99969,33.84313],[136.00048,33.84283],[136.0006,33.84282],[136.00095,33.84278],[136.00106,33.84273],[136.00161,33.8422],[136.0017,33.84206],[136.00174,33.84143],[136.00177,33.84114],[136.00191,33.84061],[136.00227,33.84027],[136.00247,33.8399],[136.00248,33.83941],[136.00295,33.83821],[136.00314,33.83785],[136.0032,33.83724],[136.00315,33.83697],[136.00312,33.83656],[136.00319,33.83528],[136.00328,33.83495],[136.00366,33.83448],[136.0041,33.83414],[136.0048,33.83364],[136.00491,33.83356],[136.00582,33.83326],[136.00597,33.83315],[136.00628,33.83302],[136.00673,33.83292],[136.00809,33.83271],[136.00874,33.83248],[136.00906,33.83231],[136.00953,33.83217],[136.00989,33.83214],[136.01027,33.83215],[136.01044,33.8321],[136.01073,33.83193],[136.01121,33.83169],[136.01147,33.83166],[136.01171,33.83199],[136.0117,33.8332],[136.01188,33.83348],[136.01231,33.8336],[136.01298,33.83344],[136.0131,33.83337],[136.01336,33.83311],[136.01342,33.83305],[136.01401,33.8329],[136.01412,33.83274],[136.01423,33.83215],[136.01426,33.83148],[136.01445,33.83093],[136.01483,33.83041],[136.01588,33.82949],[136.01626,33.82908],[136.01655,33.82861],[136.01684,33.82805],[136.01699,33.82804],[136.01734,33.82795],[136.01755,33.82787],[136.01831,33.82739],[136.01919,33.82669],[136.01959,33.82624],[136.0202,33.8248],[136.02019,33.82364],[136.02028,33.82324],[136.02096,33.82238],[136.02177,33.8219],[136.02276,33.82169],[136.02357,33.82141],[136.02566,33.82036],[136.02657,33.81915],[136.0271,33.81888],[136.02867,33.81873],[136.02976,33.81887],[136.03083,33.81877],[136.03274,33.81947],[136.03354,33.82008],[136.03433,33.82088],[136.03629,33.82383],[136.03703,33.8248],[136.03994,33.82932],[136.04151,33.83131],[136.04249,33.83229],[136.04309,33.83259],[136.04264,33.83415],[136.04283,33.83484],[136.04283,33.83607],[136.04265,33.83682],[136.04154,33.83793],[136.04119,33.83857],[136.04116,33.83984],[136.04124,33.84043],[136.0418,33.84265],[136.04193,33.84387],[136.04217,33.84447],[136.04277,33.84488],[136.04332,33.84552],[136.04365,33.84631],[136.04279,33.84577],[136.04226,33.84574],[136.04129,33.84612],[136.04013,33.84672],[136.03983,33.84697],[136.03954,33.84786],[136.039,33.84869],[136.0383,33.84926],[136.03758,33.85048],[136.03731,33.85114],[136.03706,33.85139],[136.03648,33.85151],[136.03467,33.85099],[136.03403,33.85048]]]}},{"type":"Feature","properties":{"n":"大字下市木","b":[136.0335,33.8135,136.0652,33.8465],"m":"大字下市木","ci":0,"c":[136.04885,33.82956]},"geometry":{"type":"Polygon","coordinates":[[[136.06514,33.84109],[136.06402,33.84101],[136.06333,33.84114],[136.06207,33.84118],[136.05798,33.84163],[136.05564,33.842],[136.05428,33.84217],[136.05425,33.84208],[136.05315,33.84226],[136.05041,33.84259],[136.04943,33.84314],[136.04662,33.84553],[136.0457,33.8459],[136.04495,33.84634],[136.04431,33.84648],[136.04365,33.84631],[136.04332,33.84552],[136.04277,33.84488],[136.04217,33.84447],[136.04193,33.84387],[136.0418,33.84265],[136.04124,33.84043],[136.04116,33.83984],[136.04119,33.83857],[136.04154,33.83793],[136.04265,33.83682],[136.04283,33.83607],[136.04283,33.83484],[136.04264,33.83415],[136.04309,33.83259],[136.04249,33.83229],[136.04151,33.83131],[136.03994,33.82932],[136.03703,33.8248],[136.03629,33.82383],[136.03433,33.82088],[136.03354,33.82008],[136.03415,33.81979],[136.03533,33.81879],[136.03646,33.81769],[136.03756,33.8168],[136.03782,33.81601],[136.03826,33.81552],[136.03838,33.81508],[136.03837,33.8142],[136.03889,33.81402],[136.04024,33.81397],[136.04118,33.81408],[136.04259,33.81459],[136.04407,33.81489],[136.04604,33.81496],[136.04647,33.81482],[136.04824,33.81485],[136.04903,33.81474],[136.05013,33.81432],[136.05155,33.81358],[136.05181,33.81375],[136.05244,33.81471],[136.05265,33.81575],[136.05288,33.81637],[136.05319,33.8177],[136.05368,33.81901],[136.05475,33.82161],[136.05554,33.82314],[136.05578,33.8239],[136.05697,33.82621],[136.05808,33.82794],[136.05934,33.82965],[136.06015,33.83053],[136.06083,33.83183],[136.06173,33.8334],[136.06356,33.83728],[136.0644,33.83866],[136.0651,33.83955],[136.06514,33.84109]]]}},{"type":"Feature","properties":{"n":"大字神木","b":[135.9883,33.8503,136.0407,33.8946],"m":"大字神木","ci":0,"c":[136.01994,33.87592]},"geometry":{"type":"Polygon","coordinates":[[[136.01581,33.89262],[136.01388,33.89233],[136.01253,33.89225],[136.01086,33.89208],[136.01002,33.89209],[136.00907,33.89143],[136.00892,33.89085],[136.00864,33.89044],[136.00841,33.88972],[136.00791,33.8894],[136.00679,33.88921],[136.00541,33.88924],[136.0046,33.8894],[136.0036,33.88934],[136.00181,33.88992],[136.00077,33.89043],[135.9984,33.8903],[135.9979,33.89048],[135.99732,33.89117],[135.99721,33.89158],[135.99632,33.89214],[135.99581,33.89266],[135.99506,33.89318],[135.99558,33.89342],[135.99582,33.89379],[135.99652,33.89444],[135.99638,33.89456],[135.99526,33.89438],[135.995,33.89419],[135.99418,33.89426],[135.99352,33.89349],[135.99319,33.89271],[135.9933,33.89238],[135.99326,33.8913],[135.99342,33.89094],[135.99332,33.89016],[135.99354,33.8898],[135.9933,33.88918],[135.99273,33.88824],[135.99216,33.888],[135.99197,33.88764],[135.99121,33.88739],[135.99107,33.88705],[135.9904,33.88596],[135.98931,33.88462],[135.98838,33.88381],[135.98846,33.88362],[135.98881,33.88312],[135.98923,33.88223],[135.98962,33.8816],[135.9902,33.88057],[135.99036,33.88036],[135.99063,33.88008],[135.99126,33.87959],[135.99151,33.87947],[135.9919,33.87943],[135.99245,33.87953],[135.99313,33.88004],[135.9936,33.88035],[135.99457,33.88083],[135.99556,33.8812],[135.99589,33.88137],[135.99636,33.88175],[135.99677,33.882],[135.99768,33.88268],[135.99776,33.88273],[135.99802,33.88276],[135.99861,33.88247],[135.9992,33.88238],[136.00001,33.88205],[136.00118,33.88131],[136.00154,33.88111],[136.0017,33.88094],[136.00199,33.88043],[136.00226,33.8798],[136.0024,33.87962],[136.00258,33.87949],[136.00358,33.87909],[136.00379,33.87891],[136.00404,33.87852],[136.00411,33.87839],[136.00429,33.8779],[136.00431,33.87777],[136.00441,33.8771],[136.00453,33.87698],[136.00561,33.87617],[136.00618,33.87579],[136.00633,33.87564],[136.00638,33.87553],[136.00662,33.8749],[136.00704,33.87329],[136.00711,33.87296],[136.00717,33.87245],[136.00721,33.87217],[136.00725,33.87194],[136.00744,33.87161],[136.00758,33.87147],[136.00861,33.8705],[136.00911,33.87],[136.00919,33.86984],[136.00919,33.86978],[136.00893,33.86871],[136.00892,33.86854],[136.00883,33.86702],[136.00879,33.86672],[136.00878,33.8664],[136.0088,33.86629],[136.00901,33.86569],[136.01021,33.86479],[136.0116,33.86354],[136.01365,33.86247],[136.01514,33.86189],[136.01724,33.86094],[136.01796,33.86052],[136.01789,33.86008],[136.01834,33.85944],[136.02,33.85885],[136.0205,33.85828],[136.02085,33.85753],[136.02159,33.85692],[136.02205,33.85623],[136.02287,33.85522],[136.02415,33.85342],[136.02491,33.85274],[136.02502,33.85246],[136.02481,33.85162],[136.02557,33.85118],[136.02656,33.85098],[136.028,33.85087],[136.02873,33.85144],[136.02964,33.85149],[136.03077,33.85124],[136.03272,33.85041],[136.0334,33.8503],[136.03403,33.85048],[136.03375,33.85107],[136.03238,33.8523],[136.03191,33.85449],[136.03194,33.85473],[136.03281,33.85633],[136.03354,33.85615],[136.03476,33.85472],[136.03542,33.85427],[136.0358,33.8544],[136.03618,33.85526],[136.03638,33.85609],[136.03665,33.85669],[136.03765,33.8575],[136.03864,33.85812],[136.03972,33.8588],[136.03978,33.85916],[136.0394,33.85953],[136.03857,33.86016],[136.0378,33.86083],[136.03761,33.86116],[136.03656,33.86201],[136.03522,33.86332],[136.03458,33.86399],[136.03466,33.86412],[136.03513,33.86453],[136.03548,33.86495],[136.03607,33.86634],[136.03645,33.86693],[136.03749,33.86776],[136.0387,33.86859],[136.03936,33.86864],[136.03981,33.86877],[136.03999,33.86899],[136.04007,33.8693],[136.04021,33.86954],[136.04041,33.8696],[136.04061,33.86985],[136.04054,33.86994],[136.04016,33.87032],[136.04001,33.87133],[136.0398,33.87142],[136.03955,33.87213],[136.03939,33.87253],[136.03806,33.87258],[136.0379,33.8728],[136.03809,33.87321],[136.0382,33.87428],[136.03782,33.87475],[136.03658,33.87576],[136.03618,33.87593],[136.03574,33.87659],[136.03529,33.87703],[136.03571,33.87783],[136.03636,33.87811],[136.03726,33.87853],[136.03767,33.87857],[136.03821,33.87923],[136.03853,33.87961],[136.03829,33.88048],[136.03856,33.88188],[136.03846,33.88222],[136.0387,33.88251],[136.03871,33.88308],[136.03884,33.88323],[136.03837,33.88396],[136.03836,33.88449],[136.03808,33.88519],[136.03746,33.88549],[136.03552,33.88644],[136.03487,33.88683],[136.03434,33.88774],[136.03434,33.88819],[136.0348,33.88897],[136.03455,33.88986],[136.03533,33.89059],[136.0356,33.89112],[136.03508,33.89266],[136.03406,33.89293],[136.03278,33.89248],[136.03189,33.89234],[136.03104,33.89243],[136.03025,33.89208],[136.02901,33.89196],[136.02751,33.89249],[136.02677,33.89246],[136.02591,33.89304],[136.02561,33.89307],[136.02531,33.89241],[136.02486,33.89225],[136.02391,33.89236],[136.02217,33.89243],[136.02071,33.89256],[136.01968,33.89235],[136.01813,33.8929],[136.01692,33.89258],[136.01581,33.89262]]]}},{"type":"Feature","properties":{"n":"大字志原","b":[136.0319,33.841,136.068,33.87],"m":"大字志原","ci":0,"c":[136.05017,33.85373]},"geometry":{"type":"Polygon","coordinates":[[[136.05606,33.8624],[136.05519,33.86272],[136.05396,33.86285],[136.05329,33.86313],[136.05259,33.86386],[136.05217,33.86378],[136.05126,33.86294],[136.05084,33.86277],[136.04805,33.86261],[136.04739,33.86284],[136.04662,33.86289],[136.04561,33.86329],[136.04505,33.86436],[136.04511,33.86479],[136.04432,33.86532],[136.04424,33.86588],[136.04384,33.86622],[136.0432,33.86726],[136.04234,33.86816],[136.04234,33.86901],[136.04214,33.86937],[136.04118,33.86991],[136.04061,33.86994],[136.04061,33.86985],[136.04041,33.8696],[136.04021,33.86954],[136.04007,33.8693],[136.03999,33.86899],[136.03981,33.86877],[136.03936,33.86864],[136.0387,33.86859],[136.03749,33.86776],[136.03645,33.86693],[136.03607,33.86634],[136.03548,33.86495],[136.03513,33.86453],[136.03466,33.86412],[136.03458,33.86399],[136.03522,33.86332],[136.03656,33.86201],[136.03761,33.86116],[136.0378,33.86083],[136.03857,33.86016],[136.0394,33.85953],[136.03978,33.85916],[136.03972,33.8588],[136.03864,33.85812],[136.03765,33.8575],[136.03665,33.85669],[136.03638,33.85609],[136.03618,33.85526],[136.0358,33.8544],[136.03542,33.85427],[136.03476,33.85472],[136.03354,33.85615],[136.03281,33.85633],[136.03194,33.85473],[136.03191,33.85449],[136.03238,33.8523],[136.03375,33.85107],[136.03403,33.85048],[136.03467,33.85099],[136.03648,33.85151],[136.03706,33.85139],[136.03731,33.85114],[136.03758,33.85048],[136.0383,33.84926],[136.039,33.84869],[136.03954,33.84786],[136.03983,33.84697],[136.04013,33.84672],[136.04129,33.84612],[136.04226,33.84574],[136.04279,33.84577],[136.04365,33.84631],[136.04431,33.84648],[136.04495,33.84634],[136.0457,33.8459],[136.04662,33.84553],[136.04943,33.84314],[136.05041,33.84259],[136.05315,33.84226],[136.05425,33.84208],[136.05428,33.84217],[136.05564,33.842],[136.05798,33.84163],[136.06207,33.84118],[136.06333,33.84114],[136.06402,33.84101],[136.06514,33.84109],[136.06538,33.84233],[136.06534,33.84292],[136.06487,33.84376],[136.06432,33.84438],[136.06407,33.84485],[136.06394,33.84569],[136.06434,33.84656],[136.06502,33.84727],[136.06557,33.8481],[136.06775,33.85198],[136.06796,33.85266],[136.06732,33.85355],[136.06578,33.85464],[136.06298,33.85639],[136.06228,33.85677],[136.06135,33.85724],[136.06037,33.85776],[136.05939,33.85807],[136.05945,33.85972],[136.05963,33.8606],[136.0583,33.86126],[136.05728,33.86177],[136.05685,33.86199],[136.05606,33.8624]]]}},{"type":"Feature","properties":{"n":"桐原","b":[135.9266,33.7521,136.0081,33.8304],"m":"桐原","ci":0,"c":[135.97059,33.79358]},"geometry":{"type":"Polygon","coordinates":[[[135.95233,33.8248],[135.95213,33.82484],[135.95196,33.82489],[135.95148,33.82513],[135.95137,33.8252],[135.95095,33.82559],[135.9509,33.82567],[135.95079,33.82609],[135.95075,33.82708],[135.95078,33.82765],[135.9509,33.82866],[135.95083,33.82904],[135.95007,33.82969],[135.94956,33.82986],[135.94945,33.8299],[135.94935,33.82995],[135.9493,33.82999],[135.94907,33.83017],[135.94856,33.83035],[135.94815,33.83032],[135.94803,33.83021],[135.94787,33.82999],[135.94771,33.82966],[135.9473,33.82889],[135.94709,33.82843],[135.94687,33.82803],[135.94681,33.82789],[135.94677,33.82732],[135.94712,33.82609],[135.94669,33.82517],[135.94673,33.82434],[135.94704,33.82366],[135.94778,33.82338],[135.94774,33.82303],[135.94718,33.82249],[135.94775,33.82149],[135.94839,33.82092],[135.94844,33.82052],[135.9467,33.81962],[135.94603,33.81898],[135.94609,33.81732],[135.94595,33.81658],[135.94603,33.81585],[135.94494,33.81574],[135.94411,33.81556],[135.94344,33.81521],[135.94245,33.81453],[135.94174,33.81435],[135.94098,33.81443],[135.93966,33.814],[135.93934,33.81357],[135.93874,33.81341],[135.93829,33.81306],[135.93768,33.81236],[135.93762,33.81169],[135.93724,33.81137],[135.93665,33.81127],[135.9357,33.81167],[135.93523,33.81171],[135.93468,33.81143],[135.93401,33.81057],[135.93353,33.8101],[135.93334,33.80947],[135.93375,33.80856],[135.9336,33.80804],[135.93373,33.80768],[135.93305,33.80738],[135.93236,33.80674],[135.93186,33.80611],[135.93124,33.80573],[135.93053,33.80474],[135.92912,33.80449],[135.92788,33.80375],[135.92737,33.80314],[135.92673,33.80279],[135.92668,33.80256],[135.92691,33.80135],[135.92716,33.80062],[135.92781,33.79997],[135.92832,33.79845],[135.92882,33.79792],[135.929,33.79688],[135.9296,33.79594],[135.92969,33.79523],[135.93047,33.79449],[135.93057,33.79384],[135.93128,33.79282],[135.93211,33.79115],[135.9337,33.79085],[135.9344,33.79051],[135.93634,33.78895],[135.93698,33.78866],[135.93843,33.78819],[135.93959,33.78763],[135.94014,33.78716],[135.94106,33.78605],[135.94189,33.78542],[135.94313,33.78466],[135.94357,33.78431],[135.94452,33.78401],[135.94688,33.78398],[135.94717,33.7835],[135.94675,33.78263],[135.94616,33.78237],[135.94705,33.7813],[135.9476,33.78032],[135.94697,33.77978],[135.94689,33.77896],[135.94622,33.77891],[135.94622,33.7785],[135.94714,33.77698],[135.94775,33.77644],[135.95013,33.77483],[135.95123,33.7738],[135.95153,33.77318],[135.9516,33.77207],[135.95154,33.77168],[135.95249,33.77106],[135.95374,33.7707],[135.95564,33.77096],[135.95743,33.7713],[135.9584,33.77142],[135.96058,33.77182],[135.96125,33.77201],[135.96179,33.772],[135.96235,33.77219],[135.96263,33.77208],[135.96447,33.77379],[135.96662,33.77497],[135.96889,33.77575],[135.97085,33.7759],[135.97189,33.77575],[135.97443,33.77505],[135.97395,33.77424],[135.97397,33.77389],[135.97488,33.77359],[135.97744,33.77214],[135.9784,33.77169],[135.97893,33.77121],[135.97972,33.77074],[135.98075,33.77051],[135.9837,33.76742],[135.98462,33.76737],[135.98516,33.76718],[135.98579,33.76674],[135.98693,33.76529],[135.9875,33.76481],[135.98759,33.764],[135.98787,33.76369],[135.98804,33.76299],[135.988,33.76254],[135.98841,33.7613],[135.98862,33.76118],[135.98946,33.76121],[135.98983,33.76108],[135.9902,33.76124],[135.99123,33.76074],[135.9916,33.76071],[135.99241,33.7602],[135.99306,33.76011],[135.99273,33.75967],[135.99281,33.75878],[135.99318,33.75804],[135.99294,33.75753],[135.99359,33.75757],[135.99385,33.75736],[135.99372,33.75673],[135.99439,33.75581],[135.99415,33.75548],[135.99419,33.75491],[135.99479,33.75414],[135.99429,33.75373],[135.99339,33.75324],[135.99236,33.75215],[135.99492,33.75244],[135.99772,33.75285],[135.99774,33.7544],[135.99787,33.75767],[135.99799,33.75905],[135.99822,33.76018],[135.99904,33.76211],[135.99975,33.76309],[136.00072,33.76385],[136.00254,33.76543],[136.00428,33.76662],[136.00462,33.76698],[136.00561,33.76765],[136.00647,33.76841],[136.00729,33.76941],[136.00807,33.77106],[136.00783,33.77242],[136.00718,33.77444],[136.00689,33.77595],[136.00681,33.7774],[136.00605,33.77718],[136.00595,33.7773],[136.0063,33.77825],[136.00678,33.77905],[136.00632,33.77998],[136.00585,33.78006],[136.00548,33.78034],[136.00599,33.7813],[136.00649,33.78182],[136.00732,33.78245],[136.00747,33.78316],[136.00746,33.78375],[136.00724,33.78508],[136.00714,33.78614],[136.00715,33.78684],[136.00718,33.78728],[136.00712,33.78759],[136.00682,33.78805],[136.00672,33.78834],[136.0066,33.78861],[136.00637,33.78949],[136.00641,33.78973],[136.00639,33.78981],[136.00621,33.79036],[136.00621,33.79048],[136.00647,33.79078],[136.00653,33.79095],[136.00653,33.79112],[136.00651,33.79156],[136.00647,33.79162],[136.00597,33.79179],[136.00582,33.79191],[136.00573,33.79201],[136.00564,33.79222],[136.00561,33.79236],[136.00513,33.79255],[136.00502,33.79259],[136.00482,33.79275],[136.00456,33.7933],[136.00452,33.79347],[136.00444,33.79371],[136.00414,33.7941],[136.00407,33.79427],[136.00398,33.79489],[136.00377,33.79504],[136.00326,33.79519],[136.00195,33.79506],[136.00151,33.79484],[136.00107,33.79488],[136.00028,33.79461],[135.99969,33.79462],[135.99923,33.7951],[135.99866,33.79614],[135.99844,33.7968],[135.99777,33.79752],[135.9979,33.79839],[135.99745,33.79894],[135.99764,33.80103],[135.9973,33.80149],[135.99743,33.80228],[135.99721,33.80315],[135.99736,33.80421],[135.99719,33.80463],[135.99726,33.80578],[135.99664,33.80662],[135.99622,33.80744],[135.99475,33.80948],[135.9948,33.81043],[135.995,33.81082],[135.99411,33.81162],[135.99202,33.81152],[135.99131,33.81108],[135.99058,33.81195],[135.99047,33.81232],[135.99066,33.81325],[135.99033,33.81438],[135.99036,33.81585],[135.9901,33.81627],[135.9891,33.81682],[135.98879,33.81713],[135.98724,33.81767],[135.98649,33.81774],[135.98618,33.81837],[135.98568,33.81871],[135.98426,33.8191],[135.98408,33.81947],[135.98398,33.82019],[135.98338,33.82064],[135.98282,33.82148],[135.98277,33.82149],[135.98256,33.82156],[135.98141,33.82005],[135.98066,33.81896],[135.98052,33.81881],[135.98022,33.81854],[135.98001,33.81847],[135.97975,33.81846],[135.9795,33.81851],[135.97914,33.81854],[135.97892,33.81848],[135.97845,33.8184],[135.97763,33.81846],[135.97687,33.81823],[135.97638,33.81799],[135.97407,33.81823],[135.97365,33.81831],[135.97329,33.81776],[135.97267,33.81737],[135.97178,33.8166],[135.97118,33.81644],[135.97008,33.81638],[135.96945,33.81678],[135.96883,33.81756],[135.96815,33.81813],[135.96766,33.81788],[135.96695,33.81712],[135.96598,33.817],[135.96402,33.81732],[135.96398,33.81761],[135.96429,33.81793],[135.96428,33.81825],[135.96413,33.8184],[135.96382,33.81864],[135.96369,33.81879],[135.96368,33.81885],[135.96371,33.81912],[135.96357,33.81932],[135.96336,33.81941],[135.96284,33.81947],[135.96273,33.8195],[135.96249,33.81969],[135.96234,33.81996],[135.96232,33.82013],[135.96179,33.82038],[135.96181,33.82044],[135.96203,33.82079],[135.96191,33.82093],[135.96127,33.82133],[135.96035,33.8219],[135.96028,33.82226],[135.95991,33.82254],[135.95944,33.82277],[135.95886,33.82295],[135.9583,33.82296],[135.95818,33.82297],[135.95766,33.82329],[135.95734,33.82352],[135.95678,33.82357],[135.95641,33.82359],[135.95615,33.82365],[135.95591,33.82377],[135.95556,33.82406],[135.95523,33.82423],[135.95464,33.82439],[135.95439,33.82442],[135.95407,33.82449],[135.95388,33.82475],[135.95368,33.82484],[135.95352,33.82484],[135.95335,33.82477],[135.95331,33.82476],[135.95323,33.82479],[135.95302,33.82492],[135.95244,33.8248],[135.95233,33.8248]]]}},{"type":"Feature","properties":{"n":"高岡","b":[135.9017,33.7228,136.0075,33.7912],"m":"高岡","ci":0,"c":[135.95425,33.75765]},"geometry":{"type":"Polygon","coordinates":[[[135.99236,33.75215],[135.99339,33.75324],[135.99429,33.75373],[135.99479,33.75414],[135.99419,33.75491],[135.99415,33.75548],[135.99439,33.75581],[135.99372,33.75673],[135.99385,33.75736],[135.99359,33.75757],[135.99294,33.75753],[135.99318,33.75804],[135.99281,33.75878],[135.99273,33.75967],[135.99306,33.76011],[135.99241,33.7602],[135.9916,33.76071],[135.99123,33.76074],[135.9902,33.76124],[135.98983,33.76108],[135.98946,33.76121],[135.98862,33.76118],[135.98841,33.7613],[135.988,33.76254],[135.98804,33.76299],[135.98787,33.76369],[135.98759,33.764],[135.9875,33.76481],[135.98693,33.76529],[135.98579,33.76674],[135.98516,33.76718],[135.98462,33.76737],[135.9837,33.76742],[135.98075,33.77051],[135.97972,33.77074],[135.97893,33.77121],[135.9784,33.77169],[135.97744,33.77214],[135.97488,33.77359],[135.97397,33.77389],[135.97395,33.77424],[135.97443,33.77505],[135.97189,33.77575],[135.97085,33.7759],[135.96889,33.77575],[135.96662,33.77497],[135.96447,33.77379],[135.96263,33.77208],[135.96235,33.77219],[135.96179,33.772],[135.96125,33.77201],[135.96058,33.77182],[135.9584,33.77142],[135.95743,33.7713],[135.95564,33.77096],[135.95374,33.7707],[135.95249,33.77106],[135.95154,33.77168],[135.9516,33.77207],[135.95153,33.77318],[135.95123,33.7738],[135.95013,33.77483],[135.94775,33.77644],[135.94714,33.77698],[135.94622,33.7785],[135.94622,33.77891],[135.94689,33.77896],[135.94697,33.77978],[135.9476,33.78032],[135.94705,33.7813],[135.94616,33.78237],[135.94675,33.78263],[135.94717,33.7835],[135.94688,33.78398],[135.94452,33.78401],[135.94357,33.78431],[135.94313,33.78466],[135.94189,33.78542],[135.94106,33.78605],[135.94014,33.78716],[135.93959,33.78763],[135.93843,33.78819],[135.93698,33.78866],[135.93634,33.78895],[135.9344,33.79051],[135.9337,33.79085],[135.93211,33.79115],[135.93173,33.79036],[135.93143,33.79],[135.93081,33.78979],[135.92998,33.78919],[135.92951,33.78838],[135.92862,33.78793],[135.92779,33.78809],[135.92658,33.78873],[135.92422,33.78903],[135.92383,33.78913],[135.92314,33.78986],[135.92288,33.79033],[135.92222,33.79103],[135.9215,33.79094],[135.91996,33.79048],[135.91982,33.7902],[135.91898,33.78969],[135.91881,33.78905],[135.91671,33.78811],[135.91642,33.78772],[135.91557,33.78737],[135.91433,33.78775],[135.91332,33.7877],[135.91314,33.78754],[135.91308,33.78676],[135.9125,33.78628],[135.91103,33.78587],[135.91053,33.78534],[135.90989,33.7851],[135.90917,33.78518],[135.9088,33.78433],[135.9079,33.78395],[135.90715,33.78381],[135.90482,33.78426],[135.9046,33.78421],[135.90375,33.78335],[135.90305,33.78279],[135.90229,33.78105],[135.90172,33.78024],[135.90212,33.77987],[135.90242,33.77901],[135.90316,33.77733],[135.90374,33.77522],[135.90455,33.77184],[135.90572,33.76815],[135.90613,33.76767],[135.90761,33.76678],[135.90908,33.76645],[135.91005,33.76649],[135.91095,33.76671],[135.91271,33.76729],[135.91483,33.76722],[135.91524,33.76715],[135.91683,33.76661],[135.9175,33.76626],[135.91804,33.76577],[135.91912,33.76442],[135.91961,33.76318],[135.92032,33.75997],[135.92077,33.75873],[135.92148,33.75777],[135.9237,33.75639],[135.926,33.75518],[135.92834,33.754],[135.92935,33.75379],[135.93032,33.75391],[135.9318,33.75468],[135.93326,33.75578],[135.93405,33.75663],[135.93538,33.75785],[135.93627,33.75812],[135.93706,33.75794],[135.93758,33.75768],[135.93845,33.75701],[135.93889,33.75647],[135.93918,33.7543],[135.93921,33.75156],[135.93873,33.7486],[135.93898,33.74667],[135.93911,33.74449],[135.93955,33.74113],[135.94004,33.73833],[135.94039,33.73738],[135.94151,33.73531],[135.94256,33.73427],[135.94454,33.73279],[135.94569,33.73214],[135.94984,33.73018],[135.95078,33.7297],[135.95231,33.72912],[135.95556,33.7282],[135.956,33.72804],[135.95859,33.72678],[135.96346,33.72401],[135.9639,33.72388],[135.97472,33.72283],[135.9758,33.72303],[135.97631,33.72324],[135.97699,33.72392],[135.97718,33.72484],[135.97686,33.72644],[135.97645,33.72755],[135.97588,33.72835],[135.97533,33.72869],[135.97401,33.72924],[135.97302,33.72987],[135.97263,33.73024],[135.97165,33.73144],[135.97159,33.7317],[135.97206,33.73292],[135.97258,33.73465],[135.97292,33.7352],[135.97495,33.73608],[135.97775,33.73674],[135.97977,33.73686],[135.98265,33.73648],[135.9837,33.73621],[135.98498,33.73575],[135.99029,33.73354],[135.99144,33.73304],[135.9973,33.7304],[135.99872,33.73263],[135.99985,33.73396],[136.00038,33.73535],[136.00028,33.73677],[136.00016,33.73708],[136.00086,33.73749],[136.0019,33.73837],[136.0036,33.73857],[136.00425,33.73847],[136.00547,33.73963],[136.00613,33.74014],[136.0066,33.74059],[136.00664,33.7408],[136.00635,33.74162],[136.0064,33.74175],[136.00674,33.74175],[136.00687,33.74178],[136.00742,33.74198],[136.0073,33.74237],[136.0071,33.74272],[136.00665,33.74298],[136.00613,33.743],[136.00594,33.74402],[136.00517,33.74421],[136.00502,33.74464],[136.004,33.74483],[136.0033,33.74482],[136.00167,33.74457],[136.0008,33.74471],[136.00027,33.74498],[135.99886,33.74534],[135.99892,33.74577],[135.99961,33.74629],[136.00109,33.74647],[135.99834,33.74805],[135.99236,33.75215]]]}},{"type":"Feature","properties":{"n":"井田","b":[135.9923,33.7419,136.0318,33.779],"m":"井田","ci":0,"c":[136.01365,33.76014]},"geometry":{"type":"Polygon","coordinates":[[[136.0318,33.77255],[136.02925,33.77363],[136.02817,33.77404],[136.02669,33.77442],[136.02563,33.77513],[136.02526,33.77567],[136.02481,33.77582],[136.02444,33.77552],[136.02395,33.77594],[136.02399,33.77623],[136.02327,33.77657],[136.02309,33.77691],[136.02247,33.77706],[136.02192,33.77695],[136.02101,33.77735],[136.01937,33.77787],[136.01809,33.77806],[136.01744,33.77856],[136.017,33.77872],[136.01601,33.77881],[136.01504,33.77868],[136.01305,33.77896],[136.01004,33.77761],[136.00927,33.77702],[136.00824,33.77736],[136.00681,33.7774],[136.00689,33.77595],[136.00718,33.77444],[136.00783,33.77242],[136.00807,33.77106],[136.00729,33.76941],[136.00647,33.76841],[136.00561,33.76765],[136.00462,33.76698],[136.00428,33.76662],[136.00254,33.76543],[136.00072,33.76385],[135.99975,33.76309],[135.99904,33.76211],[135.99822,33.76018],[135.99799,33.75905],[135.99787,33.75767],[135.99774,33.7544],[135.99772,33.75285],[135.99492,33.75244],[135.99236,33.75215],[135.99834,33.74805],[136.00109,33.74647],[135.99961,33.74629],[135.99892,33.74577],[135.99886,33.74534],[136.00027,33.74498],[136.0008,33.74471],[136.00167,33.74457],[136.0033,33.74482],[136.004,33.74483],[136.00502,33.74464],[136.00517,33.74421],[136.00594,33.74402],[136.00613,33.743],[136.00665,33.74298],[136.0071,33.74272],[136.0073,33.74237],[136.00742,33.74198],[136.00771,33.74214],[136.00838,33.74214],[136.00929,33.74266],[136.00987,33.74288],[136.01067,33.74366],[136.01119,33.74378],[136.01212,33.74431],[136.013,33.74507],[136.0143,33.74543],[136.01489,33.74551],[136.01599,33.74526],[136.01653,33.74412],[136.01699,33.74434],[136.0173,33.74422],[136.0175,33.74362],[136.018,33.74269],[136.01929,33.74253],[136.02013,33.74231],[136.02163,33.74223],[136.02162,33.74309],[136.0219,33.7438],[136.02226,33.74512],[136.02288,33.74678],[136.02389,33.75006],[136.02436,33.75058],[136.02416,33.75123],[136.02415,33.7518],[136.02511,33.75512],[136.02579,33.75733],[136.02637,33.75893],[136.02754,33.76264],[136.0285,33.76483],[136.02981,33.76763],[136.03153,33.77141],[136.0318,33.77255]]]}},{"type":"Feature","properties":{"n":"鵜殿","b":[135.9998,33.7298,136.0229,33.7456],"m":"鵜殿","ci":0,"c":[136.01166,33.73724]},"geometry":{"type":"Polygon","coordinates":[[[136.02163,33.74223],[136.02013,33.74231],[136.01929,33.74253],[136.018,33.74269],[136.0175,33.74362],[136.0173,33.74422],[136.01699,33.74434],[136.01653,33.74412],[136.01599,33.74526],[136.01489,33.74551],[136.0143,33.74543],[136.013,33.74507],[136.01212,33.74431],[136.01119,33.74378],[136.01067,33.74366],[136.00987,33.74288],[136.00929,33.74266],[136.00838,33.74214],[136.00771,33.74214],[136.00742,33.74198],[136.00687,33.74178],[136.00674,33.74175],[136.0064,33.74175],[136.00635,33.74162],[136.00664,33.7408],[136.0066,33.74059],[136.00613,33.74014],[136.00547,33.73963],[136.00425,33.73847],[136.0036,33.73857],[136.0019,33.73837],[136.00086,33.73749],[136.00016,33.73708],[136.00028,33.73677],[136.00038,33.73535],[135.99985,33.73396],[136.00314,33.73287],[136.00437,33.73272],[136.00592,33.73216],[136.01275,33.72998],[136.0151,33.72982],[136.01612,33.73004],[136.01781,33.73055],[136.01842,33.73161],[136.02049,33.73462],[136.02229,33.73542],[136.02279,33.7354],[136.0228,33.73579],[136.02216,33.73582],[136.02021,33.73494],[136.01913,33.73306],[136.01884,33.73308],[136.01823,33.73233],[136.01594,33.73331],[136.01513,33.73294],[136.01399,33.73473],[136.01422,33.7347],[136.01594,33.7355],[136.01694,33.73501],[136.01639,33.73484],[136.01526,33.73422],[136.01526,33.73397],[136.01597,33.73404],[136.01644,33.73428],[136.01699,33.73428],[136.01784,33.7351],[136.01839,33.73534],[136.01948,33.73637],[136.01999,33.73655],[136.02059,33.73843],[136.02287,33.73794],[136.0229,33.73813],[136.02052,33.73867],[136.02135,33.74103],[136.02163,33.74223]]]}}]}