{"type":"FeatureCollection","features":[{"type":"Feature","properties":{"nm":"御浜町","b":[135.9359,33.7726,136.068,33.8946],"c":[136.00931,33.84009]},"geometry":{"type":"Polygon","coordinates":[[[135.9913,33.88788],[135.99108,33.88862],[135.99093,33.88888],[135.99062,33.88913],[135.99062,33.88942],[135.99075,33.88987],[135.9909,33.89028],[135.99065,33.89088],[135.99003,33.89104],[135.98908,33.89104],[135.98859,33.89114],[135.9883,33.89121],[135.98792,33.89044],[135.98835,33.88989],[135.98832,33.88968],[135.98783,33.88863],[135.98769,33.88853],[135.98761,33.88839],[135.98769,33.88742],[135.9876,33.8872],[135.98739,33.88712],[135.98694,33.88741],[135.98645,33.88793],[135.98511,33.88914],[135.98492,33.8893],[135.98481,33.88944],[135.98464,33.88962],[135.98458,33.88967],[135.98435,33.88979],[135.98394,33.88997],[135.98339,33.89013],[135.98205,33.89051],[135.98162,33.89044],[135.98132,33.89035],[135.98091,33.88997],[135.9805,33.8895],[135.98031,33.8893],[135.98001,33.88908],[135.97968,33.88891],[135.9796,33.88885],[135.97955,33.88872],[135.9795,33.88813],[135.97906,33.88752],[135.9787,33.88729],[135.97833,33.88719],[135.97781,33.88605],[135.97714,33.88526],[135.97614,33.88605],[135.97469,33.88697],[135.97384,33.88638],[135.97339,33.88581],[135.97338,33.88523],[135.9732,33.88487],[135.97165,33.8833],[135.97055,33.88284],[135.9701,33.88214],[135.97023,33.88122],[135.97026,33.88107],[135.96773,33.87978],[135.96786,33.87924],[135.96787,33.87908],[135.96786,33.87891],[135.96815,33.87855],[135.96823,33.87841],[135.96831,33.87782],[135.96831,33.87765],[135.96833,33.87758],[135.96847,33.87741],[135.96864,33.87716],[135.96879,33.87693],[135.96917,33.87542],[135.96916,33.87517],[135.96923,33.87482],[135.96911,33.87454],[135.96917,33.8743],[135.96925,33.87421],[135.96937,33.87414],[135.9694,33.87408],[135.96947,33.87385],[135.96981,33.87366],[135.96995,33.87353],[135.97017,33.87335],[135.96989,33.87289],[135.96955,33.87262],[135.96943,33.87247],[135.96942,33.87226],[135.9695,33.8718],[135.96958,33.87156],[135.96957,33.87144],[135.96954,33.87109],[135.96969,33.87089],[135.96977,33.87076],[135.96983,33.87047],[135.96984,33.87019],[135.96993,33.86993],[135.97009,33.86974],[135.97011,33.86967],[135.97,33.86945],[135.97003,33.86918],[135.97038,33.86858],[135.9705,33.86848],[135.97065,33.86817],[135.97063,33.86801],[135.97031,33.86767],[135.97026,33.86736],[135.97019,33.86723],[135.97001,33.86694],[135.96971,33.86631],[135.96968,33.86606],[135.96967,33.86597],[135.96953,33.86551],[135.9695,33.86533],[135.9694,33.86493],[135.97012,33.86365],[135.97053,33.86342],[135.97056,33.86338],[135.97056,33.86334],[135.97053,33.8631],[135.9705,33.86298],[135.97012,33.86182],[135.96998,33.8615],[135.96985,33.86138],[135.96907,33.86107],[135.96777,33.86127],[135.96706,33.86127],[135.96632,33.86089],[135.96238,33.85854],[135.962,33.85794],[135.96201,33.85725],[135.96228,33.8568],[135.96213,33.85507],[135.96237,33.85409],[135.96294,33.85344],[135.96209,33.85308],[135.96139,33.85256],[135.96101,33.85149],[135.9614,33.84971],[135.96196,33.84837],[135.96171,33.84737],[135.96178,33.84679],[135.96132,33.84648],[135.96052,33.8465],[135.96005,33.84629],[135.95956,33.84517],[135.95926,33.84517],[135.95834,33.84523],[135.95787,33.84535],[135.95774,33.84538],[135.95714,33.84545],[135.95627,33.84563],[135.95599,33.84568],[135.95585,33.84566],[135.9552,33.84551],[135.95476,33.8455],[135.95409,33.84557],[135.95406,33.84575],[135.95388,33.84615],[135.95368,33.84663],[135.95364,33.8467],[135.95335,33.84688],[135.9524,33.84731],[135.9519,33.84722],[135.95132,33.84712],[135.95022,33.84677],[135.94934,33.84663],[135.94896,33.84646],[135.94854,33.84624],[135.94839,33.84622],[135.94785,33.84622],[135.94659,33.84597],[135.9462,33.84603],[135.94562,33.84614],[135.94547,33.8462],[135.94482,33.84658],[135.94451,33.84661],[135.94429,33.84669],[135.94403,33.84672],[135.94382,33.8467],[135.94335,33.84674],[135.94284,33.84666],[135.94257,33.84663],[135.94196,33.84643],[135.94173,33.8463],[135.94142,33.8462],[135.94094,33.8461],[135.94046,33.8459],[135.94019,33.8459],[135.93887,33.84558],[135.9384,33.84526],[135.93808,33.84503],[135.93777,33.84452],[135.93764,33.84421],[135.9377,33.84355],[135.93794,33.84317],[135.93809,33.84309],[135.93829,33.84295],[135.93845,33.84279],[135.93856,33.84254],[135.93865,33.84235],[135.93877,33.84213],[135.93878,33.84205],[135.93875,33.84191],[135.93859,33.84161],[135.93858,33.84115],[135.93856,33.84098],[135.93832,33.84069],[135.93828,33.84064],[135.93818,33.84018],[135.93805,33.83965],[135.93795,33.83939],[135.93756,33.83907],[135.93744,33.83866],[135.93694,33.83744],[135.93671,33.83708],[135.93662,33.83703],[135.93637,33.83694],[135.936,33.8368],[135.93586,33.83648],[135.93602,33.83611],[135.93629,33.83592],[135.93657,33.83567],[135.93777,33.83466],[135.93802,33.83455],[135.9384,33.83447],[135.93854,33.83429],[135.93865,33.83402],[135.93871,33.83393],[135.93899,33.83362],[135.93923,33.83317],[135.93933,33.83286],[135.93956,33.83238],[135.93973,33.83195],[135.93984,33.83179],[135.94019,33.8318],[135.9407,33.83185],[135.94125,33.83186],[135.94163,33.83164],[135.94183,33.83141],[135.94188,33.83136],[135.94215,33.83091],[135.94236,33.83021],[135.94309,33.8296],[135.94347,33.82917],[135.94411,33.82862],[135.94438,33.82826],[135.94454,33.82809],[135.94516,33.82762],[135.94524,33.82756],[135.9454,33.8275],[135.94578,33.82748],[135.94674,33.82774],[135.94681,33.82789],[135.94687,33.82803],[135.94709,33.82843],[135.9473,33.82889],[135.94771,33.82966],[135.94787,33.82999],[135.94803,33.83021],[135.94815,33.83032],[135.94856,33.83035],[135.94907,33.83017],[135.9493,33.82999],[135.94935,33.82995],[135.94945,33.8299],[135.94956,33.82986],[135.95007,33.82969],[135.95083,33.82904],[135.9509,33.82866],[135.95078,33.82765],[135.95075,33.82708],[135.95079,33.82609],[135.9509,33.82567],[135.95095,33.82559],[135.95137,33.8252],[135.95148,33.82513],[135.95196,33.82489],[135.95213,33.82484],[135.95233,33.8248],[135.95244,33.8248],[135.95302,33.82492],[135.95323,33.82479],[135.95331,33.82476],[135.95335,33.82477],[135.95352,33.82484],[135.95368,33.82484],[135.95388,33.82475],[135.95407,33.82449],[135.95439,33.82442],[135.95464,33.82439],[135.95523,33.82423],[135.95556,33.82406],[135.95591,33.82377],[135.95615,33.82365],[135.95641,33.82359],[135.95678,33.82357],[135.95734,33.82352],[135.95766,33.82329],[135.95818,33.82297],[135.9583,33.82296],[135.95886,33.82295],[135.95944,33.82277],[135.95991,33.82254],[135.96028,33.82226],[135.96035,33.8219],[135.96127,33.82133],[135.96191,33.82093],[135.96203,33.82079],[135.96181,33.82044],[135.96179,33.82038],[135.96232,33.82013],[135.96234,33.81996],[135.96249,33.81969],[135.96273,33.8195],[135.96284,33.81947],[135.96336,33.81941],[135.96357,33.81932],[135.96371,33.81912],[135.96368,33.81885],[135.96369,33.81879],[135.96382,33.81864],[135.96413,33.8184],[135.96428,33.81825],[135.96429,33.81793],[135.96398,33.81761],[135.96402,33.81732],[135.96598,33.817],[135.96695,33.81712],[135.96766,33.81788],[135.96815,33.81813],[135.96883,33.81756],[135.96945,33.81678],[135.97008,33.81638],[135.97118,33.81644],[135.97178,33.8166],[135.97267,33.81737],[135.97329,33.81776],[135.97365,33.81831],[135.97407,33.81823],[135.97638,33.81799],[135.97687,33.81823],[135.97763,33.81846],[135.97845,33.8184],[135.97892,33.81848],[135.97914,33.81854],[135.9795,33.81851],[135.97975,33.81846],[135.98001,33.81847],[135.98022,33.81854],[135.98052,33.81881],[135.98066,33.81896],[135.98141,33.82005],[135.98256,33.82156],[135.98277,33.82149],[135.98282,33.82148],[135.98338,33.82064],[135.98398,33.82019],[135.98408,33.81947],[135.98426,33.8191],[135.98568,33.81871],[135.98618,33.81837],[135.98649,33.81774],[135.98724,33.81767],[135.98879,33.81713],[135.9891,33.81682],[135.9901,33.81627],[135.99036,33.81585],[135.99033,33.81438],[135.99066,33.81325],[135.99047,33.81232],[135.99058,33.81195],[135.99131,33.81108],[135.99202,33.81152],[135.99411,33.81162],[135.995,33.81082],[135.9948,33.81043],[135.99475,33.80948],[135.99622,33.80744],[135.99664,33.80662],[135.99726,33.80578],[135.99719,33.80463],[135.99736,33.80421],[135.99721,33.80315],[135.99743,33.80228],[135.9973,33.80149],[135.99764,33.80103],[135.99745,33.79894],[135.9979,33.79839],[135.99777,33.79752],[135.99844,33.7968],[135.99866,33.79614],[135.99923,33.7951],[135.99969,33.79462],[136.00028,33.79461],[136.00107,33.79488],[136.00151,33.79484],[136.00195,33.79506],[136.00326,33.79519],[136.00377,33.79504],[136.00398,33.79489],[136.00407,33.79427],[136.00414,33.7941],[136.00444,33.79371],[136.00452,33.79347],[136.00456,33.7933],[136.00482,33.79275],[136.00502,33.79259],[136.00513,33.79255],[136.00561,33.79236],[136.00564,33.79222],[136.00573,33.79201],[136.00582,33.79191],[136.00597,33.79179],[136.00647,33.79162],[136.00651,33.79156],[136.00653,33.79112],[136.00653,33.79095],[136.00647,33.79078],[136.00621,33.79048],[136.00621,33.79036],[136.00639,33.78981],[136.00641,33.78973],[136.00637,33.78949],[136.0066,33.78861],[136.00672,33.78834],[136.00682,33.78805],[136.00712,33.78759],[136.00718,33.78728],[136.00715,33.78684],[136.00714,33.78614],[136.00724,33.78508],[136.00746,33.78375],[136.00747,33.78316],[136.00732,33.78245],[136.00649,33.78182],[136.00599,33.7813],[136.00548,33.78034],[136.00585,33.78006],[136.00632,33.77998],[136.00678,33.77905],[136.0063,33.77825],[136.00595,33.7773],[136.00605,33.77718],[136.00681,33.7774],[136.00824,33.77736],[136.00927,33.77702],[136.01004,33.77761],[136.01305,33.77896],[136.01504,33.77868],[136.01601,33.77881],[136.017,33.77872],[136.01744,33.77856],[136.01809,33.77806],[136.01937,33.77787],[136.02101,33.77735],[136.02192,33.77695],[136.02247,33.77706],[136.02309,33.77691],[136.02327,33.77657],[136.02399,33.77623],[136.02395,33.77594],[136.02444,33.77552],[136.02481,33.77582],[136.02526,33.77567],[136.02563,33.77513],[136.02669,33.77442],[136.02817,33.77404],[136.02925,33.77363],[136.0318,33.77255],[136.03242,33.77353],[136.03191,33.77325],[136.03179,33.77362],[136.03175,33.7746],[136.03124,33.77456],[136.0309,33.77411],[136.0311,33.7747],[136.03186,33.77473],[136.03181,33.77417],[136.03193,33.77332],[136.03252,33.77373],[136.03285,33.77437],[136.03303,33.77504],[136.0342,33.77812],[136.0345,33.77918],[136.03527,33.78075],[136.03611,33.78203],[136.0362,33.78246],[136.03708,33.78411],[136.03737,33.78546],[136.03801,33.78605],[136.03874,33.78828],[136.03915,33.78904],[136.03934,33.7897],[136.03996,33.79091],[136.04014,33.79178],[136.04075,33.79344],[136.04115,33.79512],[136.0425,33.79852],[136.04332,33.79991],[136.04642,33.80599],[136.04638,33.8062],[136.04691,33.80711],[136.04721,33.80784],[136.04803,33.80911],[136.04809,33.8094],[136.04923,33.81117],[136.04974,33.8118],[136.05053,33.8125],[136.05155,33.81358],[136.05181,33.81375],[136.05244,33.81471],[136.05265,33.81575],[136.05288,33.81637],[136.05319,33.8177],[136.05368,33.81901],[136.05475,33.82161],[136.05554,33.82314],[136.05578,33.8239],[136.05697,33.82621],[136.05808,33.82794],[136.05934,33.82965],[136.06015,33.83053],[136.06083,33.83183],[136.06173,33.8334],[136.06356,33.83728],[136.0644,33.83866],[136.0651,33.83955],[136.06514,33.84109],[136.06538,33.84233],[136.06534,33.84292],[136.06487,33.84376],[136.06432,33.84438],[136.06407,33.84485],[136.06394,33.84569],[136.06434,33.84656],[136.06502,33.84727],[136.06557,33.8481],[136.06775,33.85198],[136.06796,33.85266],[136.06732,33.85355],[136.06578,33.85464],[136.06298,33.85639],[136.06228,33.85677],[136.06135,33.85724],[136.06037,33.85776],[136.05939,33.85807],[136.05945,33.85972],[136.05963,33.8606],[136.0583,33.86126],[136.05728,33.86177],[136.05685,33.86199],[136.05606,33.8624],[136.05519,33.86272],[136.05396,33.86285],[136.05329,33.86313],[136.05259,33.86386],[136.05217,33.86378],[136.05126,33.86294],[136.05084,33.86277],[136.04805,33.86261],[136.04739,33.86284],[136.04662,33.86289],[136.04561,33.86329],[136.04505,33.86436],[136.04511,33.86479],[136.04432,33.86532],[136.04424,33.86588],[136.04384,33.86622],[136.0432,33.86726],[136.04234,33.86816],[136.04234,33.86901],[136.04214,33.86937],[136.04118,33.86991],[136.04061,33.86994],[136.04061,33.86985],[136.04054,33.86994],[136.04016,33.87032],[136.04001,33.87133],[136.0398,33.87142],[136.03955,33.87213],[136.03939,33.87253],[136.03806,33.87258],[136.0379,33.8728],[136.03809,33.87321],[136.0382,33.87428],[136.03782,33.87475],[136.03658,33.87576],[136.03618,33.87593],[136.03574,33.87659],[136.03529,33.87703],[136.03571,33.87783],[136.03636,33.87811],[136.03726,33.87853],[136.03767,33.87857],[136.03821,33.87923],[136.03853,33.87961],[136.03829,33.88048],[136.03856,33.88188],[136.03846,33.88222],[136.0387,33.88251],[136.03871,33.88308],[136.03884,33.88323],[136.03837,33.88396],[136.03836,33.88449],[136.03808,33.88519],[136.03746,33.88549],[136.03552,33.88644],[136.03487,33.88683],[136.03434,33.88774],[136.03434,33.88819],[136.0348,33.88897],[136.03455,33.88986],[136.03533,33.89059],[136.0356,33.89112],[136.03508,33.89266],[136.03406,33.89293],[136.03278,33.89248],[136.03189,33.89234],[136.03104,33.89243],[136.03025,33.89208],[136.02901,33.89196],[136.02751,33.89249],[136.02677,33.89246],[136.02591,33.89304],[136.02561,33.89307],[136.02531,33.89241],[136.02486,33.89225],[136.02391,33.89236],[136.02217,33.89243],[136.02071,33.89256],[136.01968,33.89235],[136.01813,33.8929],[136.01692,33.89258],[136.01581,33.89262],[136.01388,33.89233],[136.01253,33.89225],[136.01086,33.89208],[136.01002,33.89209],[136.00907,33.89143],[136.00892,33.89085],[136.00864,33.89044],[136.00841,33.88972],[136.00791,33.8894],[136.00679,33.88921],[136.00541,33.88924],[136.0046,33.8894],[136.0036,33.88934],[136.00181,33.88992],[136.00077,33.89043],[135.9984,33.8903],[135.9979,33.89048],[135.99732,33.89117],[135.99721,33.89158],[135.99632,33.89214],[135.99581,33.89266],[135.99506,33.89318],[135.99558,33.89342],[135.99582,33.89379],[135.99652,33.89444],[135.99638,33.89456],[135.99526,33.89438],[135.995,33.89419],[135.99418,33.89426],[135.99352,33.89349],[135.99319,33.89271],[135.9933,33.89238],[135.99326,33.8913],[135.99342,33.89094],[135.99332,33.89016],[135.99354,33.8898],[135.9933,33.88918],[135.99273,33.88824],[135.99216,33.888],[135.99197,33.88764],[135.99121,33.88739],[135.9913,33.88788]]]}},{"type":"Feature","properties":{"nm":"紀宝町","b":[135.9017,33.7228,136.0318,33.8304],"c":[135.96923,33.77243]},"geometry":{"type":"Polygon","coordinates":[[[135.93523,33.81171],[135.93468,33.81143],[135.93401,33.81057],[135.93353,33.8101],[135.93334,33.80947],[135.93375,33.80856],[135.9336,33.80804],[135.93373,33.80768],[135.93305,33.80738],[135.93236,33.80674],[135.93186,33.80611],[135.93124,33.80573],[135.93053,33.80474],[135.92912,33.80449],[135.92788,33.80375],[135.92737,33.80314],[135.92673,33.80279],[135.92668,33.80256],[135.92691,33.80135],[135.92716,33.80062],[135.92781,33.79997],[135.92832,33.79845],[135.92882,33.79792],[135.929,33.79688],[135.9296,33.79594],[135.92969,33.79523],[135.93047,33.79449],[135.93057,33.79384],[135.93128,33.79282],[135.93211,33.79115],[135.93173,33.79036],[135.93143,33.79],[135.93081,33.78979],[135.92998,33.78919],[135.92951,33.78838],[135.92862,33.78793],[135.92779,33.78809],[135.92658,33.78873],[135.92422,33.78903],[135.92383,33.78913],[135.92314,33.78986],[135.92288,33.79033],[135.92222,33.79103],[135.9215,33.79094],[135.91996,33.79048],[135.91982,33.7902],[135.91898,33.78969],[135.91881,33.78905],[135.91671,33.78811],[135.91642,33.78772],[135.91557,33.78737],[135.91433,33.78775],[135.91332,33.7877],[135.91314,33.78754],[135.91308,33.78676],[135.9125,33.78628],[135.91103,33.78587],[135.91053,33.78534],[135.90989,33.7851],[135.90917,33.78518],[135.9088,33.78433],[135.9079,33.78395],[135.90715,33.78381],[135.90482,33.78426],[135.9046,33.78421],[135.90375,33.78335],[135.90305,33.78279],[135.90229,33.78105],[135.90172,33.78024],[135.90212,33.77987],[135.90242,33.77901],[135.90316,33.77733],[135.90374,33.77522],[135.90455,33.77184],[135.90572,33.76815],[135.90613,33.76767],[135.90761,33.76678],[135.90908,33.76645],[135.91005,33.76649],[135.91095,33.76671],[135.91271,33.76729],[135.91483,33.76722],[135.91524,33.76715],[135.91683,33.76661],[135.9175,33.76626],[135.91804,33.76577],[135.91912,33.76442],[135.91961,33.76318],[135.92032,33.75997],[135.92077,33.75873],[135.92148,33.75777],[135.9237,33.75639],[135.926,33.75518],[135.92834,33.754],[135.92935,33.75379],[135.93032,33.75391],[135.9318,33.75468],[135.93326,33.75578],[135.93405,33.75663],[135.93538,33.75785],[135.93627,33.75812],[135.93706,33.75794],[135.93758,33.75768],[135.93845,33.75701],[135.93889,33.75647],[135.93918,33.7543],[135.93921,33.75156],[135.93873,33.7486],[135.93898,33.74667],[135.93911,33.74449],[135.93955,33.74113],[135.94004,33.73833],[135.94039,33.73738],[135.94151,33.73531],[135.94256,33.73427],[135.94454,33.73279],[135.94569,33.73214],[135.94984,33.73018],[135.95078,33.7297],[135.95231,33.72912],[135.95556,33.7282],[135.956,33.72804],[135.95859,33.72678],[135.96346,33.72401],[135.9639,33.72388],[135.97472,33.72283],[135.9758,33.72303],[135.97631,33.72324],[135.97699,33.72392],[135.97718,33.72484],[135.97686,33.72644],[135.97645,33.72755],[135.97588,33.72835],[135.97533,33.72869],[135.97401,33.72924],[135.97302,33.72987],[135.97263,33.73024],[135.97165,33.73144],[135.97159,33.7317],[135.97206,33.73292],[135.97258,33.73465],[135.97292,33.7352],[135.97495,33.73608],[135.97775,33.73674],[135.97977,33.73686],[135.98265,33.73648],[135.9837,33.73621],[135.98498,33.73575],[135.99029,33.73354],[135.99144,33.73304],[135.9973,33.7304],[135.99872,33.73263],[135.99985,33.73396],[136.00314,33.73287],[136.00437,33.73272],[136.00592,33.73216],[136.01275,33.72998],[136.0151,33.72982],[136.01612,33.73004],[136.01781,33.73055],[136.01842,33.73161],[136.02049,33.73462],[136.02229,33.73542],[136.02279,33.7354],[136.0228,33.73579],[136.02216,33.73582],[136.02021,33.73494],[136.01913,33.73306],[136.01884,33.73308],[136.01823,33.73233],[136.01594,33.73331],[136.01513,33.73294],[136.01399,33.73473],[136.01422,33.7347],[136.01594,33.7355],[136.01694,33.73501],[136.01639,33.73484],[136.01526,33.73422],[136.01526,33.73397],[136.01597,33.73404],[136.01644,33.73428],[136.01699,33.73428],[136.01784,33.7351],[136.01839,33.73534],[136.01948,33.73637],[136.01999,33.73655],[136.02059,33.73843],[136.02287,33.73794],[136.0229,33.73813],[136.02052,33.73867],[136.02135,33.74103],[136.02163,33.74223],[136.02162,33.74309],[136.0219,33.7438],[136.02226,33.74512],[136.02288,33.74678],[136.02389,33.75006],[136.02436,33.75058],[136.02416,33.75123],[136.02415,33.7518],[136.02511,33.75512],[136.02579,33.75733],[136.02637,33.75893],[136.02754,33.76264],[136.0285,33.76483],[136.02981,33.76763],[136.03153,33.77141],[136.0318,33.77255],[136.02925,33.77363],[136.02817,33.77404],[136.02669,33.77442],[136.02563,33.77513],[136.02526,33.77567],[136.02481,33.77582],[136.02444,33.77552],[136.02395,33.77594],[136.02399,33.77623],[136.02327,33.77657],[136.02309,33.77691],[136.02247,33.77706],[136.02192,33.77695],[136.02101,33.77735],[136.01937,33.77787],[136.01809,33.77806],[136.01744,33.77856],[136.017,33.77872],[136.01601,33.77881],[136.01504,33.77868],[136.01305,33.77896],[136.01004,33.77761],[136.00927,33.77702],[136.00824,33.77736],[136.00681,33.7774],[136.00605,33.77718],[136.00595,33.7773],[136.0063,33.77825],[136.00678,33.77905],[136.00632,33.77998],[136.00585,33.78006],[136.00548,33.78034],[136.00599,33.7813],[136.00649,33.78182],[136.00732,33.78245],[136.00747,33.78316],[136.00746,33.78375],[136.00724,33.78508],[136.00714,33.78614],[136.00715,33.78684],[136.00718,33.78728],[136.00712,33.78759],[136.00682,33.78805],[136.00672,33.78834],[136.0066,33.78861],[136.00637,33.78949],[136.00641,33.78973],[136.00639,33.78981],[136.00621,33.79036],[136.00621,33.79048],[136.00647,33.79078],[136.00653,33.79095],[136.00653,33.79112],[136.00651,33.79156],[136.00647,33.79162],[136.00597,33.79179],[136.00582,33.79191],[136.00573,33.79201],[136.00564,33.79222],[136.00561,33.79236],[136.00513,33.79255],[136.00502,33.79259],[136.00482,33.79275],[136.00456,33.7933],[136.00452,33.79347],[136.00444,33.79371],[136.00414,33.7941],[136.00407,33.79427],[136.00398,33.79489],[136.00377,33.79504],[136.00326,33.79519],[136.00195,33.79506],[136.00151,33.79484],[136.00107,33.79488],[136.00028,33.79461],[135.99969,33.79462],[135.99923,33.7951],[135.99866,33.79614],[135.99844,33.7968],[135.99777,33.79752],[135.9979,33.79839],[135.99745,33.79894],[135.99764,33.80103],[135.9973,33.80149],[135.99743,33.80228],[135.99721,33.80315],[135.99736,33.80421],[135.99719,33.80463],[135.99726,33.80578],[135.99664,33.80662],[135.99622,33.80744],[135.99475,33.80948],[135.9948,33.81043],[135.995,33.81082],[135.99411,33.81162],[135.99202,33.81152],[135.99131,33.81108],[135.99058,33.81195],[135.99047,33.81232],[135.99066,33.81325],[135.99033,33.81438],[135.99036,33.81585],[135.9901,33.81627],[135.9891,33.81682],[135.98879,33.81713],[135.98724,33.81767],[135.98649,33.81774],[135.98618,33.81837],[135.98568,33.81871],[135.98426,33.8191],[135.98408,33.81947],[135.98398,33.82019],[135.98338,33.82064],[135.98282,33.82148],[135.98277,33.82149],[135.98256,33.82156],[135.98141,33.82005],[135.98066,33.81896],[135.98052,33.81881],[135.98022,33.81854],[135.98001,33.81847],[135.97975,33.81846],[135.9795,33.81851],[135.97914,33.81854],[135.97892,33.81848],[135.97845,33.8184],[135.97763,33.81846],[135.97687,33.81823],[135.97638,33.81799],[135.97407,33.81823],[135.97365,33.81831],[135.97329,33.81776],[135.97267,33.81737],[135.97178,33.8166],[135.97118,33.81644],[135.97008,33.81638],[135.96945,33.81678],[135.96883,33.81756],[135.96815,33.81813],[135.96766,33.81788],[135.96695,33.81712],[135.96598,33.817],[135.96402,33.81732],[135.96398,33.81761],[135.96429,33.81793],[135.96428,33.81825],[135.96413,33.8184],[135.96382,33.81864],[135.96369,33.81879],[135.96368,33.81885],[135.96371,33.81912],[135.96357,33.81932],[135.96336,33.81941],[135.96284,33.81947],[135.96273,33.8195],[135.96249,33.81969],[135.96234,33.81996],[135.96232,33.82013],[135.96179,33.82038],[135.96181,33.82044],[135.96203,33.82079],[135.96191,33.82093],[135.96127,33.82133],[135.96035,33.8219],[135.96028,33.82226],[135.95991,33.82254],[135.95944,33.82277],[135.95886,33.82295],[135.9583,33.82296],[135.95818,33.82297],[135.95766,33.82329],[135.95734,33.82352],[135.95678,33.82357],[135.95641,33.82359],[135.95615,33.82365],[135.95591,33.82377],[135.95556,33.82406],[135.95523,33.82423],[135.95464,33.82439],[135.95439,33.82442],[135.95407,33.82449],[135.95388,33.82475],[135.95368,33.82484],[135.95352,33.82484],[135.95335,33.82477],[135.95331,33.82476],[135.95323,33.82479],[135.95302,33.82492],[135.95244,33.8248],[135.95233,33.8248],[135.95213,33.82484],[135.95196,33.82489],[135.95148,33.82513],[135.95137,33.8252],[135.95095,33.82559],[135.9509,33.82567],[135.95079,33.82609],[135.95075,33.82708],[135.95078,33.82765],[135.9509,33.82866],[135.95083,33.82904],[135.95007,33.82969],[135.94956,33.82986],[135.94945,33.8299],[135.94935,33.82995],[135.9493,33.82999],[135.94907,33.83017],[135.94856,33.83035],[135.94815,33.83032],[135.94803,33.83021],[135.94787,33.82999],[135.94771,33.82966],[135.9473,33.82889],[135.94709,33.82843],[135.94687,33.82803],[135.94681,33.82789],[135.94677,33.82732],[135.94712,33.82609],[135.94669,33.82517],[135.94673,33.82434],[135.94704,33.82366],[135.94778,33.82338],[135.94774,33.82303],[135.94718,33.82249],[135.94775,33.82149],[135.94839,33.82092],[135.94844,33.82052],[135.9467,33.81962],[135.94603,33.81898],[135.94609,33.81732],[135.94595,33.81658],[135.94603,33.81585],[135.94494,33.81574],[135.94411,33.81556],[135.94344,33.81521],[135.94245,33.81453],[135.94174,33.81435],[135.94098,33.81443],[135.93966,33.814],[135.93934,33.81357],[135.93874,33.81341],[135.93829,33.81306],[135.93768,33.81236],[135.93762,33.81169],[135.93724,33.81137],[135.93665,33.81127],[135.9357,33.81167],[135.93523,33.81171]]]}}]}